[
  {
    "type": "node",
    "id": 4137854303,
    "lat": 30.5848771,
    "lon": 2.8809378,
    "timestamp": "2020-12-30T19:19:38Z",
    "version": 4,
    "changeset": 96687154,
    "user": "Vejoson",
    "uid": 11422772,
    "tags": {
      "amenity": "restaurant",
      "name": "Resto",
      "name:fr": "Resto"
    }
  },
  {
    "type": "node",
    "id": 4137873294,
    "lat": 30.5868505,
    "lon": 2.8803374,
    "timestamp": "2020-12-30T19:19:38Z",
    "version": 4,
    "changeset": 96687154,
    "user": "Vejoson",
    "uid": 11422772,
    "tags": {
      "amenity": "restaurant",
      "name": "Resto",
      "name:fr": "Resto"
    }
  },
  {
    "type": "node",
    "id": 4137877689,
    "lat": 30.5874715,
    "lon": 2.8812667,
    "timestamp": "2020-12-30T19:19:38Z",
    "version": 4,
    "changeset": 96687154,
    "user": "Vejoson",
    "uid": 11422772,
    "tags": {
      "amenity": "restaurant",
      "name": "Resto",
      "name:fr": "Resto"
    }
  },
  {
    "type": "node",
    "id": 4139373627,
    "lat": 30.5966004,
    "lon": 2.8847086,
    "timestamp": "2018-12-06T21:00:14Z",
    "version": 3,
    "changeset": 65251627,
    "user": "Jean-Marc Liotier",
    "uid": 160042,
    "tags": {
      "amenity": "restaurant",
      "name": "Restaurant EL Golea"
    }
  },
  {
    "type": "node",
    "id": 4139374111,
    "lat": 30.5832962,
    "lon": 2.8823988,
    "timestamp": "2020-12-30T19:19:38Z",
    "version": 4,
    "changeset": 96687154,
    "user": "Vejoson",
    "uid": 11422772,
    "tags": {
      "amenity": "restaurant",
      "name": "Resto",
      "name:fr": "Resto"
    }
  },
  {
    "type": "node",
    "id": 4139374112,
    "lat": 30.5838407,
    "lon": 2.88183,
    "timestamp": "2020-12-30T19:19:38Z",
    "version": 4,
    "changeset": 96687154,
    "user": "Vejoson",
    "uid": 11422772,
    "tags": {
      "amenity": "restaurant",
      "name": "Resto",
      "name:fr": "Resto"
    }
  },
  {
    "type": "node",
    "id": 4139374113,
    "lat": 30.58254,
    "lon": 2.8799533,
    "timestamp": "2020-12-30T19:19:38Z",
    "version": 4,
    "changeset": 96687154,
    "user": "Vejoson",
    "uid": 11422772,
    "tags": {
      "amenity": "restaurant",
      "name": "Resto",
      "name:fr": "Resto"
    }
  },
  {
    "type": "node",
    "id": 4139374214,
    "lat": 30.595814,
    "lon": 2.8867972,
    "timestamp": "2020-12-30T19:19:38Z",
    "version": 4,
    "changeset": 96687154,
    "user": "Vejoson",
    "uid": 11422772,
    "tags": {
      "amenity": "restaurant",
      "name": "Resto",
      "name:fr": "Resto"
    }
  },
  {
    "type": "node",
    "id": 4139378791,
    "lat": 30.5830682,
    "lon": 2.8820153,
    "timestamp": "2020-12-30T19:19:38Z",
    "version": 4,
    "changeset": 96687154,
    "user": "Vejoson",
    "uid": 11422772,
    "tags": {
      "amenity": "restaurant",
      "name": "Resto",
      "name:fr": "Resto"
    }
  },
  {
    "type": "node",
    "id": 4139421527,
    "lat": 30.596358,
    "lon": 2.8826978,
    "timestamp": "2020-11-19T00:26:52Z",
    "version": 5,
    "changeset": 94401211,
    "user": "MustafaQasim",
    "uid": 9535554,
    "tags": {
      "amenity": "restaurant",
      "name": "مطعم المعسكري",
      "name:ar": "مطعم المعسكري",
      "name:fr": "Restaurant LEMASKRI"
    }
  },
  {
    "type": "node",
    "id": 6831666885,
    "lat": 30.55655,
    "lon": 2.9187716,
    "timestamp": "2019-09-27T21:27:37Z",
    "version": 1,
    "changeset": 75026962,
    "user": "raphaelamar",
    "uid": 8500644,
    "tags": {
      "amenity": "restaurant",
      "name": "El menea"
    }
  },
  {
    "type": "node",
    "id": 8236821717,
    "lat": 30.6057948,
    "lon": 2.9180247,
    "timestamp": "2020-12-30T19:19:38Z",
    "version": 2,
    "changeset": 96687154,
    "user": "Vejoson",
    "uid": 11422772,
    "tags": {
      "addr:street": "Trans-Sahara",
      "amenity": "restaurant",
      "cuisine": "arab",
      "name": "مطعم ومقهى",
      "name:en": "Resturant",
      "name:fr": "café restaurant"
    }
  },
  {
    "type": "node",
    "id": 8236821718,
    "lat": 30.7246873,
    "lon": 3.1930417,
    "timestamp": "2020-12-30T19:19:38Z",
    "version": 2,
    "changeset": 96687154,
    "user": "Vejoson",
    "uid": 11422772,
    "tags": {
      "addr:street": "Trans-Sahara",
      "amenity": "restaurant",
      "cuisine": "arab",
      "name": "مطعم",
      "name:en": "Resturant",
      "name:fr": "Resto"
    }
  }
]