[
  {
    "type": "node",
    "id": 439317333,
    "lat": 30.9208891,
    "lon": -6.8998854,
    "timestamp": "2022-12-14T10:07:43Z",
    "version": 3,
    "changeset": 130068242,
    "user": "Cale_xox",
    "uid": 4041099,
    "tags": {
      "amenity": "restaurant",
      "cuisine": "moroccan;regional",
      "internet_access": "wlan",
      "name": "La Kasbah"
    }
  },
  {
    "type": "node",
    "id": 439425011,
    "lat": 30.9205559,
    "lon": -6.9152618,
    "timestamp": "2013-08-30T16:26:10Z",
    "version": 3,
    "changeset": 17591396,
    "user": "Miwok90",
    "uid": 1725935,
    "tags": {
      "addr:street": "Av. Mohamed V",
      "amenity": "restaurant",
      "name": "Chez Dimitri"
    }
  },
  {
    "type": "node",
    "id": 620902933,
    "lat": 31.2900966,
    "lon": -7.236426,
    "timestamp": "2018-11-03T18:04:10Z",
    "version": 2,
    "changeset": 64147223,
    "user": "Traumschiffkapitän",
    "uid": 585795,
    "tags": {
      "amenity": "restaurant",
      "cuisine": "regional"
    }
  },
  {
    "type": "node",
    "id": 1165855667,
    "lat": 30.9390178,
    "lon": -6.9784532,
    "timestamp": "2012-11-21T23:34:36Z",
    "version": 2,
    "changeset": 13976160,
    "user": "staehler",
    "uid": 118856,
    "tags": {
      "amenity": "restaurant",
      "cuisine": "regional"
    }
  },
  {
    "type": "node",
    "id": 1175041317,
    "lat": 30.9750083,
    "lon": -7.1048052,
    "timestamp": "2013-11-02T18:01:13Z",
    "version": 2,
    "changeset": 18679406,
    "user": "RotBlau",
    "uid": 357344,
    "tags": {
      "amenity": "restaurant",
      "name": "Le Carrefour",
      "source": "survey",
      "tourism": "hotel"
    }
  },
  {
    "type": "node",
    "id": 1834471782,
    "lat": 31.0436469,
    "lon": -6.5757925,
    "timestamp": "2012-07-22T18:22:20Z",
    "version": 1,
    "changeset": 12437511,
    "user": "staehler",
    "uid": 118856,
    "tags": {
      "amenity": "restaurant",
      "cuisine": "regional"
    }
  },
  {
    "type": "node",
    "id": 1834471783,
    "lat": 31.0614721,
    "lon": -7.2516437,
    "timestamp": "2024-02-09T00:11:31Z",
    "version": 5,
    "changeset": 147237221,
    "user": "GuyPa",
    "uid": 6526727,
    "tags": {
      "amenity": "restaurant",
      "cuisine": "regional",
      "indoor_seating": "yes",
      "outdoor_seating": "yes"
    }
  },
  {
    "type": "node",
    "id": 1966622116,
    "lat": 31.1006913,
    "lon": -6.5977476,
    "timestamp": "2020-11-23T00:44:02Z",
    "version": 5,
    "changeset": 94602979,
    "user": "MustafaQasim",
    "uid": 9535554,
    "tags": {
      "addr:postcode": "45502",
      "addr:street": "Boumahchad",
      "alt_name": "Dar Grenadine",
      "amenity": "restaurant",
      "cuisine": "french",
      "int_name": "Authentik Skoura - Les Bassatines",
      "name": "Authentik Skoura - Les Bassatines",
      "old_name": "Les Bassatines",
      "source": "www.authentik-skoura.com",
      "tourism": "guest_house",
      "website": "www.authentik-skoura.com"
    }
  },
  {
    "type": "node",
    "id": 2021902491,
    "lat": 30.9203624,
    "lon": -6.9122477,
    "timestamp": "2012-11-19T18:11:12Z",
    "version": 1,
    "changeset": 13935294,
    "user": "staehler",
    "uid": 118856,
    "tags": {
      "amenity": "restaurant",
      "name": "Galas Café Restaurant"
    }
  },
  {
    "type": "node",
    "id": 2021902493,
    "lat": 30.9205559,
    "lon": -6.915109,
    "timestamp": "2012-11-19T18:11:12Z",
    "version": 1,
    "changeset": 13935294,
    "user": "staehler",
    "uid": 118856,
    "tags": {
      "amenity": "restaurant",
      "cuisine": "regional",
      "name": "Hotel Royal",
      "tourism": "hotel"
    }
  },
  {
    "type": "node",
    "id": 2021902495,
    "lat": 30.9205167,
    "lon": -6.915521,
    "timestamp": "2012-11-19T18:11:12Z",
    "version": 1,
    "changeset": 13935294,
    "user": "staehler",
    "uid": 118856,
    "tags": {
      "amenity": "restaurant",
      "name": "La Fibule"
    }
  },
  {
    "type": "node",
    "id": 2021904247,
    "lat": 30.9204648,
    "lon": -6.9158711,
    "timestamp": "2012-11-19T18:11:55Z",
    "version": 1,
    "changeset": 13935294,
    "user": "staehler",
    "uid": 118856,
    "tags": {
      "amenity": "restaurant"
    }
  },
  {
    "type": "node",
    "id": 2021904423,
    "lat": 30.9217074,
    "lon": -6.9141709,
    "timestamp": "2012-11-19T18:12:00Z",
    "version": 1,
    "changeset": 13935294,
    "user": "staehler",
    "uid": 118856,
    "tags": {
      "amenity": "restaurant",
      "name": "Salon de The Habous"
    }
  },
  {
    "type": "node",
    "id": 2021904425,
    "lat": 30.5754478,
    "lon": -7.2054276,
    "timestamp": "2017-11-24T15:45:24Z",
    "version": 2,
    "changeset": 54053422,
    "user": "CRCulver",
    "uid": 340741,
    "tags": {
      "amenity": "restaurant",
      "cuisine": "regional",
      "name": "Taghadoute",
      "outdoor_seating": "yes",
      "tourism": "hotel"
    }
  },
  {
    "type": "node",
    "id": 2024387623,
    "lat": 31.0420455,
    "lon": -7.1291114,
    "timestamp": "2024-12-23T09:53:23Z",
    "version": 2,
    "changeset": 160530592,
    "user": "PwnyTail",
    "uid": 10648338,
    "tags": {
      "amenity": "restaurant",
      "contact:email": "hollywoodofafrica8@gmail.com",
      "cuisine": "pizza",
      "name": "Auberge Trid",
      "phone": "+212600998397",
      "tourism": "guest_house",
      "website": "https://hotelhollywoodafrica.com"
    }
  },
  {
    "type": "node",
    "id": 2024387624,
    "lat": 31.043558,
    "lon": -7.128543,
    "timestamp": "2012-11-21T07:17:13Z",
    "version": 1,
    "changeset": 13954495,
    "user": "staehler",
    "uid": 118856,
    "tags": {
      "amenity": "restaurant",
      "cuisine": "pizza",
      "name": "Bin El Ouidane",
      "tourism": "guest_house"
    }
  },
  {
    "type": "node",
    "id": 2024387625,
    "lat": 31.0437526,
    "lon": -7.131231,
    "timestamp": "2012-11-21T07:17:13Z",
    "version": 1,
    "changeset": 13954495,
    "user": "staehler",
    "uid": 118856,
    "tags": {
      "amenity": "restaurant",
      "cuisine": "regional",
      "name": "Cafe Restaurant Assaha"
    }
  },
  {
    "type": "node",
    "id": 2024388272,
    "lat": 31.0423168,
    "lon": -7.129397,
    "timestamp": "2012-11-21T07:17:31Z",
    "version": 1,
    "changeset": 13954495,
    "user": "staehler",
    "uid": 118856,
    "tags": {
      "amenity": "restaurant",
      "cuisine": "pizza",
      "name": "lokfel",
      "tourism": "guest_house"
    }
  },
  {
    "type": "node",
    "id": 2038773610,
    "lat": 30.9215656,
    "lon": -6.8977781,
    "timestamp": "2024-01-30T07:41:19Z",
    "version": 4,
    "changeset": 146851445,
    "user": "Langenb1",
    "uid": 20134577,
    "tags": {
      "amenity": "restaurant",
      "name": "Douyria"
    }
  },
  {
    "type": "node",
    "id": 2038773617,
    "lat": 30.9282228,
    "lon": -6.8895546,
    "timestamp": "2012-11-28T19:18:21Z",
    "version": 1,
    "changeset": 14077626,
    "user": "staehler",
    "uid": 118856,
    "tags": {
      "amenity": "restaurant",
      "name": "Esapce"
    }
  },
  {
    "type": "node",
    "id": 2038773621,
    "lat": 30.9212176,
    "lon": -6.8985128,
    "timestamp": "2012-11-28T19:18:21Z",
    "version": 1,
    "changeset": 14077626,
    "user": "staehler",
    "uid": 118856,
    "tags": {
      "amenity": "restaurant",
      "name": "Fint",
      "tourism": "hotel"
    }
  },
  {
    "type": "node",
    "id": 2038773632,
    "lat": 30.9236582,
    "lon": -6.8962524,
    "timestamp": "2012-11-28T19:18:21Z",
    "version": 1,
    "changeset": 14077626,
    "user": "staehler",
    "uid": 118856,
    "tags": {
      "amenity": "restaurant",
      "name": "Le Petit Gourmand"
    }
  },
  {
    "type": "node",
    "id": 2038775418,
    "lat": 31.0589552,
    "lon": -6.5565479,
    "timestamp": "2012-12-27T09:38:29Z",
    "version": 2,
    "changeset": 14422881,
    "user": "staehler",
    "uid": 118856,
    "tags": {
      "amenity": "restaurant",
      "name": "draa"
    }
  },
  {
    "type": "node",
    "id": 2084223130,
    "lat": 31.0583863,
    "lon": -6.5575338,
    "timestamp": "2012-12-27T09:37:52Z",
    "version": 1,
    "changeset": 14422881,
    "user": "staehler",
    "uid": 118856,
    "tags": {
      "amenity": "restaurant",
      "name": "El Baraka"
    }
  },
  {
    "type": "node",
    "id": 2329883271,
    "lat": 30.9269153,
    "lon": -6.8906524,
    "timestamp": "2013-08-30T16:31:43Z",
    "version": 3,
    "changeset": 17591396,
    "user": "Miwok90",
    "uid": 1725935,
    "tags": {
      "addr:street": "Bvd. Moulay Abdellah",
      "amenity": "restaurant",
      "cuisine": "international",
      "name": "St Exupery"
    }
  },
  {
    "type": "node",
    "id": 2331114732,
    "lat": 30.675006,
    "lon": -6.3880153,
    "timestamp": "2024-04-02T19:00:39Z",
    "version": 2,
    "changeset": 149495461,
    "user": "Harti",
    "uid": 39803,
    "tags": {
      "amenity": "restaurant",
      "internet_access": "wlan",
      "internet_access:fee": "no",
      "name": "Restaurant Auberge Chez Jacob",
      "toilets:access": "customers",
      "toilets:wheelchair": "no",
      "wheelchair": "no"
    }
  },
  {
    "type": "node",
    "id": 2439312293,
    "lat": 30.920242,
    "lon": -6.9154144,
    "timestamp": "2013-08-30T16:26:10Z",
    "version": 1,
    "changeset": 17591396,
    "user": "Miwok90",
    "uid": 1725935,
    "tags": {
      "amenity": "restaurant",
      "cuisine": "regional",
      "name": "Jardin des Aromes"
    }
  },
  {
    "type": "node",
    "id": 2517623170,
    "lat": 31.2902415,
    "lon": -7.2415794,
    "timestamp": "2024-09-03T10:28:51Z",
    "version": 3,
    "changeset": 156135642,
    "user": "lecolibri258",
    "uid": 9396646,
    "tags": {
      "amenity": "restaurant",
      "cuisine": "local",
      "name:fr": "Chez Kanna, café restaurant Grand Atlas",
      "outdoor_seating": "no"
    }
  },
  {
    "type": "node",
    "id": 2519675248,
    "lat": 30.9030291,
    "lon": -6.9115674,
    "timestamp": "2023-03-21T18:01:51Z",
    "version": 4,
    "changeset": 133951380,
    "user": "Botnic",
    "uid": 83016,
    "tags": {
      "amenity": "restaurant",
      "cuisine": "italian",
      "internet_access": "wlan",
      "internet_access:fee": "no",
      "name": "La Rose Des Sables Restaurant Pizzeria",
      "outdoor_seating": "yes"
    }
  },
  {
    "type": "node",
    "id": 2975917867,
    "lat": 30.9211517,
    "lon": -6.9124367,
    "timestamp": "2018-12-04T17:26:55Z",
    "version": 3,
    "changeset": 65167856,
    "user": "Matt Braithwaite",
    "uid": 4177873,
    "tags": {
      "amenity": "restaurant",
      "name": "Patisserie El Janoub"
    }
  },
  {
    "type": "node",
    "id": 3470331467,
    "lat": 30.9212261,
    "lon": -6.9109447,
    "timestamp": "2019-11-13T17:32:28Z",
    "version": 2,
    "changeset": 77027528,
    "user": "ruggs",
    "uid": 7294560,
    "tags": {
      "addr:city": "Ouarzazate",
      "amenity": "restaurant",
      "cuisine": "regional",
      "name": "Restaurant 3Thés"
    }
  },
  {
    "type": "node",
    "id": 3497111608,
    "lat": 31.058989,
    "lon": -6.5575277,
    "timestamp": "2015-05-04T14:10:20Z",
    "version": 2,
    "changeset": 30780403,
    "user": "La Kasbah chez Jebrane",
    "uid": 2889622,
    "tags": {
      "addr:city": "Skoura سكورة",
      "amenity": "restaurant",
      "cuisine": "regional",
      "name": "La Kasbah chez Jebrane"
    }
  },
  {
    "type": "node",
    "id": 3497111609,
    "lat": 31.058989,
    "lon": -6.5575277,
    "timestamp": "2015-05-04T14:08:55Z",
    "version": 1,
    "changeset": 30780365,
    "user": "La Kasbah chez Jebrane",
    "uid": 2889622,
    "tags": {
      "addr:city": "Skoura سكورة",
      "amenity": "restaurant",
      "phone": "06 62 05 44 42",
      "website": "http://www.La%20Kasbah%20chez%20Jebrane.com"
    }
  },
  {
    "type": "node",
    "id": 3913198893,
    "lat": 30.6970775,
    "lon": -6.464765,
    "timestamp": "2015-12-27T18:54:50Z",
    "version": 1,
    "changeset": 36203402,
    "user": "krafttom",
    "uid": 276615,
    "tags": {
      "amenity": "restaurant"
    }
  },
  {
    "type": "node",
    "id": 4195766536,
    "lat": 31.0445058,
    "lon": -7.2103534,
    "timestamp": "2023-10-30T08:35:42Z",
    "version": 4,
    "changeset": 143351673,
    "user": "Plumf",
    "uid": 3304272,
    "tags": {
      "amenity": "restaurant",
      "indoor_seating": "yes",
      "name": "Tanaldat",
      "outdoor_seating": "yes"
    }
  },
  {
    "type": "node",
    "id": 4242839415,
    "lat": 31.1079625,
    "lon": -6.3832003,
    "timestamp": "2017-06-25T16:39:53Z",
    "version": 2,
    "changeset": 49818068,
    "user": "dromedar61",
    "uid": 542047,
    "tags": {
      "amenity": "restaurant"
    }
  },
  {
    "type": "node",
    "id": 4242840167,
    "lat": 30.7327424,
    "lon": -6.6313555,
    "timestamp": "2020-03-17T21:24:29Z",
    "version": 2,
    "changeset": 82318755,
    "user": "keithonearth",
    "uid": 154287,
    "tags": {
      "amenity": "restaurant"
    }
  },
  {
    "type": "node",
    "id": 4344447593,
    "lat": 30.9242531,
    "lon": -6.9248932,
    "timestamp": "2019-04-20T16:49:54Z",
    "version": 3,
    "changeset": 69406642,
    "user": "Planetgravy",
    "uid": 3950326,
    "tags": {
      "amenity": "restaurant",
      "cuisine": "moroccan;local",
      "name": "Snack Resto Elbahja"
    }
  },
  {
    "type": "node",
    "id": 4370237292,
    "lat": 30.9229314,
    "lon": -6.9117952,
    "timestamp": "2025-03-11T17:48:28Z",
    "version": 2,
    "changeset": 163496015,
    "user": "andi_osm",
    "uid": 3186104,
    "tags": {
      "amenity": "restaurant",
      "name": "Chez Nabil"
    }
  },
  {
    "type": "node",
    "id": 4370394093,
    "lat": 30.926707,
    "lon": -6.9033295,
    "timestamp": "2016-08-27T23:23:57Z",
    "version": 1,
    "changeset": 41745841,
    "user": "Desplazado",
    "uid": 4345474,
    "tags": {
      "amenity": "restaurant",
      "name": "Candys"
    }
  },
  {
    "type": "node",
    "id": 4492783290,
    "lat": 31.2904969,
    "lon": -7.2407748,
    "timestamp": "2016-11-10T17:11:13Z",
    "version": 1,
    "changeset": 43540275,
    "user": "davidlanang",
    "uid": 4307397,
    "tags": {
      "amenity": "restaurant",
      "cuisine": "moroccan",
      "name:en": "Restaurant Palace de Télouet"
    }
  },
  {
    "type": "node",
    "id": 4581933889,
    "lat": 31.2874158,
    "lon": -7.2350521,
    "timestamp": "2017-01-03T08:03:09Z",
    "version": 2,
    "changeset": 44864083,
    "user": "johnparis",
    "uid": 2126146,
    "tags": {
      "amenity": "restaurant",
      "cuisine": "moroccan",
      "name": "Le Lion",
      "name:en": "The Lion",
      "name:fr": "Le Lion"
    }
  },
  {
    "type": "node",
    "id": 4837475208,
    "lat": 30.9245218,
    "lon": -6.8783914,
    "timestamp": "2023-09-22T10:08:37Z",
    "version": 2,
    "changeset": 141597372,
    "user": "ROJLP",
    "uid": 1240569,
    "tags": {
      "addr:city": "Ouarzazate ورزازات",
      "addr:housenumber": "195",
      "addr:postcode": "45000",
      "addr:street": "Hay Aït Kdif",
      "amenity": "restaurant",
      "name": "La Kasbah des Sables",
      "phone": "+212 524 88 54 28",
      "website": "http://www.lakasbahdessables.com"
    }
  },
  {
    "type": "node",
    "id": 5245873620,
    "lat": 30.576472,
    "lon": -7.2048746,
    "timestamp": "2017-11-24T15:22:29Z",
    "version": 1,
    "changeset": 54052776,
    "user": "CRCulver",
    "uid": 340741,
    "tags": {
      "amenity": "restaurant",
      "name": "Baba Salh",
      "outdoor_seating": "yes",
      "wheelchair": "limited"
    }
  },
  {
    "type": "node",
    "id": 5245899984,
    "lat": 30.5756314,
    "lon": -7.205957,
    "timestamp": "2017-11-24T15:45:23Z",
    "version": 1,
    "changeset": 54053422,
    "user": "CRCulver",
    "uid": 340741,
    "tags": {
      "amenity": "restaurant",
      "cuisine": "regional",
      "name": "Bab Sahara",
      "outdoor_seating": "yes"
    }
  },
  {
    "type": "node",
    "id": 5245899985,
    "lat": 30.5760286,
    "lon": -7.205147,
    "timestamp": "2017-11-24T15:45:23Z",
    "version": 1,
    "changeset": 54053422,
    "user": "CRCulver",
    "uid": 340741,
    "tags": {
      "alt_name": "Iznaga",
      "amenity": "restaurant",
      "cuisine": "regional",
      "name": "Zenaga",
      "outdoor_seating": "yes",
      "wheelchair": "limited"
    }
  },
  {
    "type": "node",
    "id": 5296057623,
    "lat": 31.0464836,
    "lon": -7.1340275,
    "timestamp": "2019-02-19T08:15:14Z",
    "version": 2,
    "changeset": 67343230,
    "user": "Kristian_Strickland",
    "uid": 9453810,
    "tags": {
      "amenity": "restaurant",
      "cuisine": "moroccan",
      "name": "L'Oasis D'or"
    }
  },
  {
    "type": "node",
    "id": 5461466121,
    "lat": 30.9235071,
    "lon": -6.9102824,
    "timestamp": "2020-11-23T00:44:02Z",
    "version": 2,
    "changeset": 94602979,
    "user": "MustafaQasim",
    "uid": 9535554,
    "tags": {
      "amenity": "restaurant",
      "name": "اكورد مجور",
      "name:ar": "اكورد مجور",
      "name:en": "Accord majeur"
    }
  },
  {
    "type": "node",
    "id": 5462738322,
    "lat": 31.0463399,
    "lon": -7.1339466,
    "timestamp": "2018-03-07T18:13:49Z",
    "version": 1,
    "changeset": 56976970,
    "user": "Daisuke1015",
    "uid": 6030071,
    "tags": {
      "amenity": "restaurant"
    }
  },
  {
    "type": "node",
    "id": 5996691485,
    "lat": 30.9213545,
    "lon": -6.9195626,
    "timestamp": "2018-10-22T10:19:54Z",
    "version": 2,
    "changeset": 63753564,
    "user": "johnparis",
    "uid": 2126146,
    "tags": {
      "addr:housenumber": "83",
      "addr:postcode": "45000",
      "addr:street": "Rue des FAR",
      "amenity": "restaurant",
      "cuisine": "arab",
      "name": "La Gironde",
      "name:de": "La Gironde",
      "name:en": "La Gironde",
      "name:fr": "La Gironde",
      "opening_hours": "Mo-Su 07:00-23:00"
    }
  },
  {
    "type": "node",
    "id": 6016431789,
    "lat": 30.7095968,
    "lon": -6.4478361,
    "timestamp": "2019-04-25T14:41:15Z",
    "version": 2,
    "changeset": 69568073,
    "user": "J2B2C",
    "uid": 9674193,
    "tags": {
      "amenity": "restaurant",
      "description": "Restaurant",
      "name": "Kasbah des sables"
    }
  },
  {
    "type": "node",
    "id": 6192997086,
    "lat": 30.6944663,
    "lon": -6.4577798,
    "timestamp": "2019-01-08T17:48:24Z",
    "version": 1,
    "changeset": 66135896,
    "user": "Jaapwhf",
    "uid": 4497135,
    "tags": {
      "amenity": "restaurant"
    }
  },
  {
    "type": "node",
    "id": 6203789586,
    "lat": 31.0599592,
    "lon": -6.558007,
    "timestamp": "2019-01-12T17:27:03Z",
    "version": 1,
    "changeset": 66255832,
    "user": "Jaapwhf",
    "uid": 4497135,
    "tags": {
      "amenity": "restaurant"
    }
  },
  {
    "type": "node",
    "id": 6418186891,
    "lat": 30.9202604,
    "lon": -6.9155221,
    "timestamp": "2019-04-20T16:49:56Z",
    "version": 1,
    "changeset": 69406642,
    "user": "Planetgravy",
    "uid": 3950326,
    "tags": {
      "amenity": "restaurant",
      "cuisine": "pizza;moroccan;local",
      "name:en": "Oscar Fast Food"
    }
  },
  {
    "type": "node",
    "id": 6418186892,
    "lat": 31.0608138,
    "lon": -6.5574252,
    "timestamp": "2019-04-20T16:49:59Z",
    "version": 1,
    "changeset": 69406642,
    "user": "Planetgravy",
    "uid": 3950326,
    "tags": {
      "amenity": "restaurant",
      "cuisine": "moroccan;sandwich;local",
      "internet_access": "wlan",
      "name:en": "La Vallee des fleurs"
    }
  },
  {
    "type": "node",
    "id": 6430722685,
    "lat": 30.6933472,
    "lon": -6.4485133,
    "timestamp": "2024-03-15T20:52:42Z",
    "version": 2,
    "changeset": 148707312,
    "user": "Marcoh44",
    "uid": 3226231,
    "tags": {
      "amenity": "restaurant",
      "internet_access": "wlan",
      "name": "Ennahda",
      "name:en": "Ennahda"
    }
  },
  {
    "type": "node",
    "id": 6435845487,
    "lat": 31.0608373,
    "lon": -6.557387,
    "timestamp": "2019-04-29T11:26:31Z",
    "version": 1,
    "changeset": 69691891,
    "user": "LaVague67",
    "uid": 9828649,
    "tags": {
      "amenity": "restaurant",
      "cuisine": "moroccan;coffee_shop;oriental;tea",
      "internet_access": "wlan",
      "name:fr": "La Vallée des Fleurs - Le Patron Barbu",
      "opening_hours": "Mo-Su 08:00-20:00",
      "phone": "+212 670-732175"
    }
  },
  {
    "type": "node",
    "id": 6837592785,
    "lat": 31.046199,
    "lon": -7.1343355,
    "timestamp": "2022-09-05T21:48:56Z",
    "version": 2,
    "changeset": 125832227,
    "user": "NovaVanta",
    "uid": 17014690,
    "tags": {
      "amenity": "restaurant",
      "name": "Etole Filante d'Or",
      "name:zh": "渊凯城"
    }
  },
  {
    "type": "node",
    "id": 6980190956,
    "lat": 30.9284228,
    "lon": -6.9277657,
    "timestamp": "2023-11-17T06:18:00Z",
    "version": 2,
    "changeset": 144123573,
    "user": "FCjr",
    "uid": 20556821,
    "tags": {
      "amenity": "restaurant"
    }
  },
  {
    "type": "node",
    "id": 6980192374,
    "lat": 30.9203727,
    "lon": -6.8977005,
    "timestamp": "2019-11-15T16:10:01Z",
    "version": 1,
    "changeset": 77137313,
    "user": "PKla",
    "uid": 200382,
    "tags": {
      "amenity": "restaurant"
    }
  },
  {
    "type": "node",
    "id": 6980199191,
    "lat": 30.9211755,
    "lon": -6.9122763,
    "timestamp": "2019-11-15T16:07:37Z",
    "version": 1,
    "changeset": 77137217,
    "user": "PKla",
    "uid": 200382,
    "tags": {
      "amenity": "restaurant",
      "name": "La Halte"
    }
  },
  {
    "type": "node",
    "id": 6980202725,
    "lat": 30.9279402,
    "lon": -6.9004839,
    "timestamp": "2019-11-15T16:10:32Z",
    "version": 1,
    "changeset": 77137334,
    "user": "PKla",
    "uid": 200382,
    "tags": {
      "amenity": "restaurant",
      "name": "Snack Pizzeria"
    }
  },
  {
    "type": "node",
    "id": 6980205708,
    "lat": 30.9220227,
    "lon": -6.8970332,
    "timestamp": "2019-11-15T16:10:11Z",
    "version": 1,
    "changeset": 77137322,
    "user": "PKla",
    "uid": 200382,
    "tags": {
      "amenity": "restaurant"
    }
  },
  {
    "type": "node",
    "id": 6983799167,
    "lat": 31.4269845,
    "lon": -6.8499657,
    "timestamp": "2020-12-03T18:43:39Z",
    "version": 4,
    "changeset": 95244080,
    "user": "rouelibre1",
    "uid": 10901304,
    "tags": {
      "amenity": "restaurant",
      "cuisine": "traditionnelle",
      "name": "Restaurant Hanini Mohamed",
      "opening_hours": "Jan-Dec: Mo-Su 08:00-18:00, Mo-Su 08:00-18:00",
      "phone": "00212668572781",
      "website": "www.giteifoulou.com"
    }
  },
  {
    "type": "node",
    "id": 7032203213,
    "lat": 30.9387814,
    "lon": -6.9730805,
    "timestamp": "2019-12-04T13:31:24Z",
    "version": 1,
    "changeset": 77941205,
    "user": "sissou",
    "uid": 13303,
    "tags": {
      "amenity": "restaurant",
      "name": "Séville"
    }
  },
  {
    "type": "node",
    "id": 7035777667,
    "lat": 30.92269,
    "lon": -6.9273784,
    "timestamp": "2019-12-05T12:03:03Z",
    "version": 1,
    "changeset": 77992272,
    "user": "sissou",
    "uid": 13303,
    "tags": {
      "amenity": "restaurant"
    }
  },
  {
    "type": "node",
    "id": 7035781392,
    "lat": 31.0682845,
    "lon": -7.2567341,
    "timestamp": "2024-04-03T17:27:41Z",
    "version": 3,
    "changeset": 149535859,
    "user": "Harti",
    "uid": 39803,
    "tags": {
      "amenity": "restaurant",
      "cuisine": "arab",
      "guest_house": "bed_and_breakfast",
      "internet_access": "wlan",
      "internet_access:fee": "no",
      "name": "Kasbah dar Talouste",
      "takeaway": "no",
      "toilets:wheelchair": "no",
      "tourism": "guest_house",
      "wheelchair": "no"
    }
  },
  {
    "type": "node",
    "id": 7090382186,
    "lat": 30.9315583,
    "lon": -6.9167542,
    "timestamp": "2019-12-28T09:24:32Z",
    "version": 1,
    "changeset": 78950604,
    "user": "Homo liberus",
    "uid": 6720688,
    "tags": {
      "amenity": "restaurant",
      "name:en": "Ouchtou"
    }
  },
  {
    "type": "node",
    "id": 7098059875,
    "lat": 30.9205399,
    "lon": -6.8981038,
    "timestamp": "2019-12-31T11:26:45Z",
    "version": 1,
    "changeset": 79053465,
    "user": "mds08011",
    "uid": 4705962,
    "tags": {
      "amenity": "restaurant",
      "name": "Snack Abdou Pizzaria"
    }
  },
  {
    "type": "node",
    "id": 7098061227,
    "lat": 30.9205022,
    "lon": -6.8981873,
    "timestamp": "2019-12-31T11:27:17Z",
    "version": 1,
    "changeset": 79053488,
    "user": "mds08011",
    "uid": 4705962,
    "tags": {
      "amenity": "restaurant",
      "name": "Snack Hassan Pizzeria"
    }
  },
  {
    "type": "node",
    "id": 7230448586,
    "lat": 30.9253892,
    "lon": -6.8902352,
    "timestamp": "2020-02-20T13:16:49Z",
    "version": 1,
    "changeset": 81273923,
    "user": "CS_Orpion",
    "uid": 6947659,
    "tags": {
      "amenity": "restaurant"
    }
  },
  {
    "type": "node",
    "id": 7295255562,
    "lat": 31.0442432,
    "lon": -7.2106656,
    "timestamp": "2023-10-30T08:35:39Z",
    "version": 2,
    "changeset": 143351673,
    "user": "Plumf",
    "uid": 3304272,
    "tags": {
      "amenity": "restaurant",
      "indoor_seating": "yes",
      "name": "Amerzegane",
      "outdoor_seating": "yes"
    }
  },
  {
    "type": "node",
    "id": 9951416817,
    "lat": 30.9258323,
    "lon": -6.9097229,
    "timestamp": "2023-12-12T22:42:43Z",
    "version": 2,
    "changeset": 145055386,
    "user": "useruseru",
    "uid": 20669708,
    "tags": {
      "amenity": "restaurant",
      "internet_access": "wlan",
      "name": "Etoiles 5"
    }
  },
  {
    "type": "node",
    "id": 10003088063,
    "lat": 30.9390399,
    "lon": -6.9765885,
    "timestamp": "2022-09-05T21:48:47Z",
    "version": 1,
    "changeset": 125832227,
    "user": "NovaVanta",
    "uid": 17014690,
    "tags": {
      "amenity": "restaurant"
    }
  },
  {
    "type": "node",
    "id": 10003101724,
    "lat": 31.0436579,
    "lon": -7.2081052,
    "timestamp": "2022-09-05T21:48:38Z",
    "version": 1,
    "changeset": 125832227,
    "user": "NovaVanta",
    "uid": 17014690,
    "tags": {
      "amenity": "restaurant"
    }
  },
  {
    "type": "node",
    "id": 10112119717,
    "lat": 30.9692481,
    "lon": -7.0923359,
    "timestamp": "2022-10-18T19:37:25Z",
    "version": 1,
    "changeset": 127744923,
    "user": "dauju",
    "uid": 17431753,
    "tags": {
      "amenity": "restaurant",
      "name:fr": "kasbah tazentoute"
    }
  },
  {
    "type": "node",
    "id": 10218583685,
    "lat": 30.5728377,
    "lon": -7.2089101,
    "timestamp": "2022-11-25T20:49:42Z",
    "version": 1,
    "changeset": 129382535,
    "user": "Alixun",
    "uid": 3443155,
    "tags": {
      "amenity": "restaurant",
      "name": "Afriquia أفريقيا"
    }
  },
  {
    "type": "node",
    "id": 10273331809,
    "lat": 30.8989136,
    "lon": -6.9092441,
    "timestamp": "2022-12-19T13:31:54Z",
    "version": 1,
    "changeset": 130249598,
    "user": "R3gi",
    "uid": 873469,
    "tags": {
      "amenity": "restaurant"
    }
  },
  {
    "type": "node",
    "id": 10693004306,
    "lat": 31.04608,
    "lon": -6.5813441,
    "timestamp": "2023-02-25T14:40:49Z",
    "version": 1,
    "changeset": 133007930,
    "user": "Alexski52",
    "uid": 10134238,
    "tags": {
      "amenity": "restaurant",
      "name": "Espace Kasabah Amridil"
    }
  },
  {
    "type": "node",
    "id": 10843371905,
    "lat": 30.6940346,
    "lon": -6.4563676,
    "timestamp": "2023-04-26T13:35:45Z",
    "version": 1,
    "changeset": 135387528,
    "user": "Alexski52",
    "uid": 10134238,
    "tags": {
      "amenity": "restaurant"
    }
  },
  {
    "type": "node",
    "id": 11077224905,
    "lat": 30.9208962,
    "lon": -6.9173048,
    "timestamp": "2023-07-30T16:06:55Z",
    "version": 1,
    "changeset": 139216195,
    "user": "SemihOzkur",
    "uid": 16503388,
    "tags": {
      "amenity": "restaurant",
      "name:en": "Hostel Riad Amlal"
    }
  },
  {
    "type": "node",
    "id": 11207599170,
    "lat": 30.9041153,
    "lon": -6.8980086,
    "timestamp": "2023-09-21T18:30:58Z",
    "version": 2,
    "changeset": 141572872,
    "user": "GerdHH",
    "uid": 1881004,
    "tags": {
      "amenity": "restaurant",
      "fixme": "Position should be checked",
      "name": "Palm Grove restaurant",
      "organic": "yes",
      "website": "https://www.ecolodge-palmeraie-ouarzazate.com/en/restaurant"
    }
  },
  {
    "type": "node",
    "id": 11224076986,
    "lat": 30.9275815,
    "lon": -6.897333,
    "timestamp": "2023-09-28T02:33:56Z",
    "version": 1,
    "changeset": 141843845,
    "user": "Muhammad Fauzi Mustofa",
    "uid": 18281499,
    "tags": {
      "amenity": "restaurant",
      "name": "احسن مول زعزع"
    }
  },
  {
    "type": "node",
    "id": 11279624069,
    "lat": 30.6929055,
    "lon": -6.4485119,
    "timestamp": "2024-03-15T20:52:42Z",
    "version": 4,
    "changeset": 148707312,
    "user": "Marcoh44",
    "uid": 3226231,
    "tags": {
      "amenity": "restaurant",
      "cuisine": "moroccan",
      "name": "Itrane",
      "name:fr": "Itrane"
    }
  },
  {
    "type": "node",
    "id": 11728214246,
    "lat": 31.0443635,
    "lon": -7.132483,
    "timestamp": "2024-03-13T18:24:31Z",
    "version": 1,
    "changeset": 148607467,
    "user": "94621",
    "uid": 8225234,
    "tags": {
      "amenity": "restaurant",
      "name": "Tanmirt"
    }
  },
  {
    "type": "node",
    "id": 11728219386,
    "lat": 31.0440337,
    "lon": -7.13218,
    "timestamp": "2024-03-13T18:23:45Z",
    "version": 1,
    "changeset": 148607467,
    "user": "94621",
    "uid": 8225234,
    "tags": {
      "amenity": "restaurant",
      "name": "Chez Mehdi"
    }
  },
  {
    "type": "node",
    "id": 11728233137,
    "lat": 31.0436798,
    "lon": -7.1313364,
    "timestamp": "2024-03-13T18:22:24Z",
    "version": 1,
    "changeset": 148607467,
    "user": "94621",
    "uid": 8225234,
    "tags": {
      "amenity": "restaurant",
      "name": "Passage"
    }
  },
  {
    "type": "node",
    "id": 11728236552,
    "lat": 31.0451919,
    "lon": -7.1334572,
    "timestamp": "2024-03-13T18:27:03Z",
    "version": 1,
    "changeset": 148607467,
    "user": "94621",
    "uid": 8225234,
    "tags": {
      "amenity": "restaurant",
      "cuisine": "pizza",
      "name": "Apizzeria Akij"
    }
  },
  {
    "type": "node",
    "id": 11730504608,
    "lat": 31.0266012,
    "lon": -6.5815032,
    "timestamp": "2024-03-14T12:19:42Z",
    "version": 1,
    "changeset": 148638834,
    "user": "94621",
    "uid": 8225234,
    "tags": {
      "amenity": "restaurant"
    }
  },
  {
    "type": "node",
    "id": 11735114358,
    "lat": 30.692848,
    "lon": -6.448268,
    "timestamp": "2024-03-15T20:52:42Z",
    "version": 1,
    "changeset": 148707312,
    "user": "Marcoh44",
    "uid": 3226231,
    "tags": {
      "amenity": "restaurant",
      "name": "Caravane"
    }
  },
  {
    "type": "node",
    "id": 11735114359,
    "lat": 30.6936444,
    "lon": -6.4486452,
    "timestamp": "2024-03-15T20:52:42Z",
    "version": 1,
    "changeset": 148707312,
    "user": "Marcoh44",
    "uid": 3226231,
    "tags": {
      "amenity": "restaurant",
      "name": "Daraa Agdz"
    }
  },
  {
    "type": "node",
    "id": 11735114366,
    "lat": 30.6932322,
    "lon": -6.4543912,
    "timestamp": "2024-03-15T20:52:42Z",
    "version": 1,
    "changeset": 148707312,
    "user": "Marcoh44",
    "uid": 3226231,
    "tags": {
      "amenity": "restaurant",
      "name": "Oussmane"
    }
  },
  {
    "type": "node",
    "id": 11735114367,
    "lat": 30.6938446,
    "lon": -6.4548408,
    "timestamp": "2024-03-15T20:52:42Z",
    "version": 1,
    "changeset": 148707312,
    "user": "Marcoh44",
    "uid": 3226231,
    "tags": {
      "amenity": "restaurant",
      "name": "Jardin"
    }
  },
  {
    "type": "node",
    "id": 11782583540,
    "lat": 30.7762032,
    "lon": -6.5291102,
    "timestamp": "2024-04-03T11:13:14Z",
    "version": 1,
    "changeset": 149518858,
    "user": "Harti",
    "uid": 39803,
    "tags": {
      "amenity": "restaurant",
      "cuisine": "arab",
      "name": "Chhiwat Bladi",
      "operator": "Chez Omar",
      "outdoor_seating": "yes",
      "takeaway": "no",
      "wheelchair": "no"
    }
  },
  {
    "type": "node",
    "id": 11879682969,
    "lat": 31.0444672,
    "lon": -7.1294797,
    "timestamp": "2024-05-04T22:33:11Z",
    "version": 2,
    "changeset": 150900088,
    "user": "The Missing Cow",
    "uid": 19056376,
    "tags": {
      "amenity": "restaurant",
      "cuisine": "italian",
      "name:en": "La Terrazza"
    }
  },
  {
    "type": "node",
    "id": 12208942402,
    "lat": 30.9260151,
    "lon": -6.9103005,
    "timestamp": "2024-09-29T13:25:21Z",
    "version": 1,
    "changeset": 157253242,
    "user": "iosonosempreio",
    "uid": 2057646,
    "tags": {
      "amenity": "restaurant",
      "name": "La Grilla"
    }
  },
  {
    "type": "node",
    "id": 12458834171,
    "lat": 31.0422991,
    "lon": -7.129786,
    "timestamp": "2024-12-28T12:39:21Z",
    "version": 1,
    "changeset": 160711918,
    "user": "PwnyTail",
    "uid": 10648338,
    "tags": {
      "amenity": "restaurant",
      "name": "Itrane"
    }
  },
  {
    "type": "node",
    "id": 12458840738,
    "lat": 31.0431768,
    "lon": -7.1313898,
    "timestamp": "2024-12-28T12:39:22Z",
    "version": 1,
    "changeset": 160711918,
    "user": "PwnyTail",
    "uid": 10648338,
    "tags": {
      "amenity": "restaurant",
      "name": "Snack & Grilladerie Riyad"
    }
  },
  {
    "type": "node",
    "id": 12544283444,
    "lat": 31.055675,
    "lon": -7.143203,
    "timestamp": "2025-01-30T18:40:24Z",
    "version": 1,
    "changeset": 161949185,
    "user": "joe_d5",
    "uid": 117953,
    "tags": {
      "amenity": "restaurant",
      "name": "Tombouctou"
    }
  },
  {
    "type": "node",
    "id": 12736458915,
    "lat": 31.0435538,
    "lon": -7.1289785,
    "timestamp": "2025-04-07T11:39:06Z",
    "version": 1,
    "changeset": 164629881,
    "user": "mikr2019",
    "uid": 9485264,
    "tags": {
      "amenity": "restaurant"
    }
  },
  {
    "type": "way",
    "id": 193371783,
    "timestamp": "2024-03-14T12:38:44Z",
    "version": 3,
    "changeset": 148639556,
    "user": "94621",
    "uid": 8225234,
    "center": {
      "lat": 31.1175002,
      "lon": -6.3688642
    },
    "nodes": [
      2038774036,
      2038774041,
      2038774035,
      2038774033,
      2038774036
    ],
    "tags": {
      "amenity": "restaurant",
      "building": "yes",
      "name": "Cafe Saada"
    }
  },
  {
    "type": "way",
    "id": 643689759,
    "timestamp": "2024-02-15T10:43:18Z",
    "version": 3,
    "changeset": 147485121,
    "user": "tonybendell",
    "uid": 3620803,
    "center": {
      "lat": 31.0458409,
      "lon": -7.1315688
    },
    "nodes": [
      6056907499,
      6056907506,
      6056907502,
      6056907509,
      6056907504,
      6056907498,
      6056907507,
      11626514584,
      6056907505,
      6056907508,
      6056907500,
      8679289588,
      6056907499
    ],
    "tags": {
      "amenity": "restaurant",
      "breakfast": "yes",
      "building": "hotel",
      "internet_access": "wlan",
      "internet_access:fee": "no",
      "name": "Auberge Cafe Restaurant Tamlalte",
      "rooms": "3",
      "smoking": "outside",
      "toilets": "yes",
      "tourism": "guest_house",
      "wheelchair": "no"
    }
  },
  {
    "type": "way",
    "id": 1222080124,
    "timestamp": "2024-02-19T19:48:47Z",
    "version": 3,
    "changeset": 147665807,
    "user": "anthaas",
    "uid": 5438501,
    "center": {
      "lat": 30.9236332,
      "lon": -6.8962451
    },
    "nodes": [
      11333717959,
      11333717960,
      11333717961,
      11333717962,
      11333717959
    ],
    "tags": {
      "amenity": "restaurant",
      "building": "yes",
      "layer": "1"
    }
  }
]