[
  {
    "type": "node",
    "id": 3071623855,
    "lat": 31.8424746,
    "lon": 5.0565906,
    "timestamp": "2020-08-09T15:28:47Z",
    "version": 5,
    "changeset": 89157101,
    "user": "Yamílo",
    "uid": 11332999,
    "tags": {
      "amenity": "restaurant",
      "cuisine": "regional",
      "name": "مجمع المطاعم",
      "name:ar": "مجمع المطاعم",
      "name:fr": "Complexe restauration"
    }
  },
  {
    "type": "node",
    "id": 4172952597,
    "lat": 31.9464986,
    "lon": 5.3194869,
    "timestamp": "2020-12-30T19:19:38Z",
    "version": 4,
    "changeset": 96687154,
    "user": "Vejoson",
    "uid": 11422772,
    "tags": {
      "addr:country": "DZ",
      "amenity": "restaurant",
      "name": "Resto",
      "name:fr": "Resto"
    }
  },
  {
    "type": "node",
    "id": 4172961594,
    "lat": 31.944949,
    "lon": 5.3222163,
    "timestamp": "2020-12-30T19:19:38Z",
    "version": 3,
    "changeset": 96687154,
    "user": "Vejoson",
    "uid": 11422772,
    "tags": {
      "addr:country": "DZ",
      "amenity": "restaurant",
      "name": "Resto",
      "name:fr": "Resto"
    }
  },
  {
    "type": "node",
    "id": 4172980011,
    "lat": 31.9448783,
    "lon": 5.322089,
    "timestamp": "2020-12-30T19:19:38Z",
    "version": 3,
    "changeset": 96687154,
    "user": "Vejoson",
    "uid": 11422772,
    "tags": {
      "addr:country": "DZ",
      "amenity": "restaurant",
      "name": "Resto",
      "name:fr": "Resto"
    }
  },
  {
    "type": "node",
    "id": 4172980013,
    "lat": 31.9447571,
    "lon": 5.3212806,
    "timestamp": "2020-12-30T19:19:38Z",
    "version": 3,
    "changeset": 96687154,
    "user": "Vejoson",
    "uid": 11422772,
    "tags": {
      "addr:country": "DZ",
      "amenity": "restaurant",
      "name": "Resto",
      "name:fr": "Resto"
    }
  },
  {
    "type": "node",
    "id": 4601420990,
    "lat": 31.9576054,
    "lon": 5.3347374,
    "timestamp": "2018-06-13T17:54:38Z",
    "version": 3,
    "changeset": 59818370,
    "user": "ButterflyOfFire_",
    "uid": 2842609,
    "tags": {
      "addr:country": "DZ",
      "amenity": "restaurant",
      "name": "Dar daif",
      "name:fr": "Dar daif"
    }
  },
  {
    "type": "node",
    "id": 6063177244,
    "lat": 31.957313,
    "lon": 5.2685576,
    "timestamp": "2018-11-15T10:08:11Z",
    "version": 1,
    "changeset": 64521484,
    "user": "SMAOUH",
    "uid": 4292200,
    "tags": {
      "amenity": "restaurant",
      "description": "Restaurent nouvelle ville",
      "name": "Restaurent"
    }
  },
  {
    "type": "node",
    "id": 6407323786,
    "lat": 31.9588532,
    "lon": 5.3372066,
    "timestamp": "2020-12-30T19:19:38Z",
    "version": 2,
    "changeset": 96687154,
    "user": "Vejoson",
    "uid": 11422772,
    "tags": {
      "amenity": "restaurant",
      "name": "Resto",
      "name:fr": "Resto"
    }
  },
  {
    "type": "node",
    "id": 6407323886,
    "lat": 31.9586604,
    "lon": 5.3364172,
    "timestamp": "2020-11-18T23:26:36Z",
    "version": 2,
    "changeset": 94399951,
    "user": "MustafaQasim",
    "uid": 9535554,
    "tags": {
      "amenity": "restaurant",
      "name": "كاليبصو",
      "name:ar": "كاليبصو",
      "name:en": "calypso",
      "name:fr": "calypso"
    }
  },
  {
    "type": "node",
    "id": 6407323985,
    "lat": 31.9588772,
    "lon": 5.335899,
    "timestamp": "2020-12-30T19:19:38Z",
    "version": 2,
    "changeset": 96687154,
    "user": "Vejoson",
    "uid": 11422772,
    "tags": {
      "amenity": "restaurant",
      "name": "Resto",
      "name:fr": "Resto"
    }
  },
  {
    "type": "node",
    "id": 6407323986,
    "lat": 31.9588655,
    "lon": 5.3375204,
    "timestamp": "2020-12-30T19:19:38Z",
    "version": 2,
    "changeset": 96687154,
    "user": "Vejoson",
    "uid": 11422772,
    "tags": {
      "amenity": "restaurant",
      "name": "Resto",
      "name:fr": "Resto"
    }
  },
  {
    "type": "node",
    "id": 6407323987,
    "lat": 31.9592112,
    "lon": 5.3375641,
    "timestamp": "2020-12-30T19:19:38Z",
    "version": 2,
    "changeset": 96687154,
    "user": "Vejoson",
    "uid": 11422772,
    "tags": {
      "amenity": "restaurant",
      "name": "Resto",
      "name:fr": "Resto"
    }
  },
  {
    "type": "node",
    "id": 6407324185,
    "lat": 31.9588738,
    "lon": 5.3356858,
    "timestamp": "2020-12-30T19:19:38Z",
    "version": 2,
    "changeset": 96687154,
    "user": "Vejoson",
    "uid": 11422772,
    "tags": {
      "amenity": "restaurant",
      "name": "Resto",
      "name:fr": "Resto"
    }
  },
  {
    "type": "node",
    "id": 6407413689,
    "lat": 31.9351076,
    "lon": 5.3288079,
    "timestamp": "2020-11-18T23:26:36Z",
    "version": 2,
    "changeset": 94399951,
    "user": "MustafaQasim",
    "uid": 9535554,
    "tags": {
      "amenity": "restaurant",
      "name": "مطعم الجدي المشوي",
      "name:ar": "مطعم الجدي المشوي",
      "name:fr": "restaurant de méchoui"
    }
  },
  {
    "type": "node",
    "id": 6418682885,
    "lat": 31.9424751,
    "lon": 5.3161832,
    "timestamp": "2020-11-18T23:26:36Z",
    "version": 2,
    "changeset": 94399951,
    "user": "MustafaQasim",
    "uid": 9535554,
    "tags": {
      "amenity": "restaurant",
      "name": "مطعم العويطي",
      "name:ar": "مطعم العويطي",
      "name:fr": "restaurant ouitti"
    }
  },
  {
    "type": "node",
    "id": 6419464087,
    "lat": 31.9443955,
    "lon": 5.3328126,
    "timestamp": "2020-12-30T19:19:38Z",
    "version": 4,
    "changeset": 96687154,
    "user": "Vejoson",
    "uid": 11422772,
    "tags": {
      "addr:city": "ورقلة",
      "addr:city:ar": "ورقلة",
      "amenity": "restaurant",
      "name": "Resto",
      "name:fr": "Resto"
    }
  },
  {
    "type": "node",
    "id": 6422110993,
    "lat": 31.9508949,
    "lon": 5.3315018,
    "timestamp": "2020-12-30T19:19:38Z",
    "version": 4,
    "changeset": 96687154,
    "user": "Vejoson",
    "uid": 11422772,
    "tags": {
      "addr:city": "ورقلة",
      "addr:city:ar": "ورقلة",
      "amenity": "restaurant",
      "name": "Resto",
      "name:fr": "Resto"
    }
  },
  {
    "type": "way",
    "id": 305532968,
    "timestamp": "2014-09-29T11:09:20Z",
    "version": 1,
    "changeset": 25744088,
    "user": "badro",
    "uid": 2307121,
    "center": {
      "lat": 31.8424957,
      "lon": 5.0566158
    },
    "nodes": [
      3101721550,
      3101721551,
      3101721552,
      3101721553,
      3101721554,
      3101721555,
      3101721556,
      3101721557,
      3101721558,
      3101721559,
      3101721560,
      3101721561,
      3101721562,
      3101721563,
      3101721550
    ],
    "tags": {
      "amenity": "restaurant",
      "building": "yes"
    }
  },
  {
    "type": "way",
    "id": 902822503,
    "timestamp": "2021-02-01T22:09:36Z",
    "version": 1,
    "changeset": 98535833,
    "user": "melouka",
    "uid": 12544778,
    "center": {
      "lat": 31.9446765,
      "lon": 5.2841762
    },
    "nodes": [
      8385342010,
      8385342011,
      8385342012,
      8385342013,
      8385342014,
      8385342015,
      8385342016,
      8385356017,
      8385342010
    ],
    "tags": {
      "amenity": "restaurant",
      "building": "yes"
    }
  }
]