[
  {
    "type": "node",
    "id": 519144892,
    "lat": 31.6359916,
    "lon": -8.0133642,
    "timestamp": "2022-09-06T12:06:14Z",
    "version": 8,
    "changeset": 125855832,
    "user": "NovaVanta",
    "uid": 17014690,
    "tags": {
      "addr:city": "Marrakech",
      "addr:housenumber": "55",
      "addr:street": "Boulevard Mohammed Zerktouni",
      "amenity": "restaurant",
      "cuisine": "regional",
      "drink:wine": "bottled;served",
      "name": "Al Fassia",
      "note": "Tradional Moroccan food in cozy restaurant run by women (except the doorman). Wine served by the bottle.",
      "opening_hours": "We-Mo",
      "phone": "+212 524 43 40 60",
      "website": "https://www.alfassia.com/restaurants-gastronomique.html",
      "wheelchair": "limited"
    }
  },
  {
    "type": "node",
    "id": 660578084,
    "lat": 31.6219848,
    "lon": -7.9884598,
    "timestamp": "2020-06-08T18:21:27Z",
    "version": 5,
    "changeset": 86367313,
    "user": "Nathalie ROUSSEAU",
    "uid": 10553559,
    "tags": {
      "addr:city": "Marrakech",
      "addr:housenumber": "10",
      "addr:postcode": "40000",
      "addr:street": "Rue el Moustachfa;Rue El Moustachfa",
      "amenity": "restaurant",
      "changing_table": "no",
      "cuisine": "moroccan;regional;international",
      "email": "zwinzwincontact@gmail.com",
      "internet_access": "wlan",
      "internet_access:fee": "no",
      "name": "ZWIN ZWIN CAFÉ",
      "opening_hours": "Mo-Su 08:00-22:00",
      "operator": "Nathalie",
      "outdoor_seating": "yes",
      "phone": "+212524380707",
      "source": "https://www.facebook.com/pg/Zwinzwincafemarrakech/",
      "toilets": "unisex",
      "tourism": "hotel",
      "website": "https://www.zwinzwincafe.net/"
    }
  },
  {
    "type": "node",
    "id": 660578093,
    "lat": 31.6260554,
    "lon": -7.9922352,
    "timestamp": "2020-03-22T17:37:40Z",
    "version": 7,
    "changeset": 82489891,
    "user": "keithonearth",
    "uid": 154287,
    "tags": {
      "addr:city": "Marrakech",
      "addr:housenumber": "30",
      "addr:street": "Rue Koutoubia",
      "amenity": "restaurant",
      "cuisine": "thai",
      "drink:wine": "served",
      "name": "Narwama",
      "phone": "+212 672 508 700",
      "website": "http://www.narwama.com/"
    }
  },
  {
    "type": "node",
    "id": 660578098,
    "lat": 31.6254632,
    "lon": -7.9877675,
    "timestamp": "2017-09-12T16:27:22Z",
    "version": 6,
    "changeset": 51978634,
    "user": "johnparis",
    "uid": 2126146,
    "tags": {
      "amenity": "restaurant",
      "name": "Taj'in Darna",
      "outdoor_seating": "yes",
      "phone": "+212 6 61 31 13 10"
    }
  },
  {
    "type": "node",
    "id": 660578099,
    "lat": 31.6254141,
    "lon": -7.9877413,
    "timestamp": "2020-03-22T17:37:40Z",
    "version": 6,
    "changeset": 82489891,
    "user": "keithonearth",
    "uid": 154287,
    "tags": {
      "amenity": "restaurant",
      "name": "Toubkal"
    }
  },
  {
    "type": "node",
    "id": 660578100,
    "lat": 31.6266252,
    "lon": -7.9889459,
    "timestamp": "2019-05-07T00:11:00Z",
    "version": 18,
    "changeset": 69954695,
    "user": "wheelmap_visitor",
    "uid": 290680,
    "tags": {
      "amenity": "restaurant",
      "cuisine": "moroccan",
      "internet_access": "wlan",
      "name": "Café Argana",
      "name:fr": "Café Argana",
      "phone": "+212524442757",
      "toilets:wheelchair": "yes",
      "wheelchair": "yes"
    }
  },
  {
    "type": "node",
    "id": 660578104,
    "lat": 31.626511,
    "lon": -7.9872135,
    "timestamp": "2025-01-30T11:05:53Z",
    "version": 11,
    "changeset": 161932807,
    "user": "jerarb",
    "uid": 6527138,
    "tags": {
      "addr:city": "Marrakech Medina",
      "addr:housenumber": "52",
      "addr:street": "Rue des Banques",
      "amenity": "restaurant",
      "drink:wine": "served",
      "name": "La Farmacie",
      "phone": "+212 254 443377",
      "website": "https://www.lemarrakchi.com"
    }
  },
  {
    "type": "node",
    "id": 660578107,
    "lat": 31.6267722,
    "lon": -7.9875678,
    "timestamp": "2020-03-22T17:37:40Z",
    "version": 9,
    "changeset": 82489891,
    "user": "keithonearth",
    "uid": 154287,
    "tags": {
      "amenity": "restaurant",
      "name": "Les Terrasses de l'Alhambra"
    }
  },
  {
    "type": "node",
    "id": 660578116,
    "lat": 31.6240078,
    "lon": -7.9849483,
    "timestamp": "2024-08-28T09:07:45Z",
    "version": 13,
    "changeset": 155869207,
    "user": "Thibaultmol",
    "uid": 2916921,
    "tags": {
      "addr:city": "Marrakech",
      "addr:housenumber": "2-4",
      "addr:postcode": "40000",
      "addr:street": "Douar Graoua",
      "addr:suburb": "Medina",
      "amenity": "restaurant",
      "bar": "no",
      "check_date": "2022-12-31",
      "cuisine": "regional",
      "drink:wine": "no",
      "email": "dejeuneramarrakech@yahoo.fr",
      "internet_access": "no",
      "microbrewery": "no",
      "name": "Un Déjeuner à Marrakech",
      "note": "panorama roof terrace",
      "opening_hours": "Mo-Su 11:00-22:00",
      "outdoor_seating": "yes",
      "payment:girocard": "yes",
      "payment:mastercard": "yes",
      "payment:sodexo": "yes",
      "payment:visa": "yes",
      "phone": "+ 212 524 378 387",
      "reservation": "yes",
      "source": "survey",
      "website": "https://www.undejeuneramarrakech.com/",
      "wheelchair": "no"
    }
  },
  {
    "type": "node",
    "id": 660578125,
    "lat": 31.6267243,
    "lon": -7.9871002,
    "timestamp": "2020-03-22T17:37:40Z",
    "version": 9,
    "changeset": 82489891,
    "user": "keithonearth",
    "uid": 154287,
    "tags": {
      "addr:street": "Place Djemaa Al Fnaa",
      "amenity": "restaurant",
      "drink:wine": "no",
      "name": "Chez Chegrouni",
      "opening_hours": "Mo-Su 12:00-23:00"
    }
  },
  {
    "type": "node",
    "id": 660578138,
    "lat": 31.6307879,
    "lon": -7.9893484,
    "timestamp": "2020-11-24T01:06:46Z",
    "version": 11,
    "changeset": 94668480,
    "user": "MustafaQasim",
    "uid": 9535554,
    "tags": {
      "addr:city": "Marrakech",
      "addr:housenumber": "184",
      "addr:postcode": "40000",
      "addr:street": "rue Mouassine",
      "amenity": "restaurant",
      "drink:wine": "served",
      "email": "info@cafearabe.com",
      "name": "Café Arabe",
      "phone": "+212 2442 9728",
      "website": "https://www.cafearabe.com/"
    }
  },
  {
    "type": "node",
    "id": 721257903,
    "lat": 31.6300985,
    "lon": -8.0044276,
    "timestamp": "2019-06-13T15:17:09Z",
    "version": 4,
    "changeset": 71222505,
    "user": "mapman44",
    "uid": 2888253,
    "tags": {
      "amenity": "restaurant",
      "brand": "Pizza Hut",
      "brand:wikidata": "Q191615",
      "brand:wikipedia": "en:Pizza Hut",
      "cuisine": "pizza",
      "name": "Pizza Hut"
    }
  },
  {
    "type": "node",
    "id": 748368584,
    "lat": 31.6216083,
    "lon": -7.9911376,
    "timestamp": "2010-05-25T20:52:40Z",
    "version": 1,
    "changeset": 4808107,
    "user": "andybryant",
    "uid": 55352,
    "tags": {
      "amenity": "restaurant",
      "cuisine": "moroccan",
      "name": "Ait Bougumez"
    }
  },
  {
    "type": "node",
    "id": 1228272443,
    "lat": 31.6486984,
    "lon": -7.9412994,
    "timestamp": "2021-03-24T19:28:32Z",
    "version": 2,
    "changeset": 101670289,
    "user": "Dan Cosmus",
    "uid": 4416552,
    "tags": {
      "amenity": "restaurant",
      "name:en": "Restaurant Al Baraka"
    }
  },
  {
    "type": "node",
    "id": 1229874260,
    "lat": 31.7493765,
    "lon": -7.9771267,
    "timestamp": "2011-04-02T21:36:00Z",
    "version": 1,
    "changeset": 7748683,
    "user": "cdavila",
    "uid": 26599,
    "tags": {
      "amenity": "restaurant"
    }
  },
  {
    "type": "node",
    "id": 1233012337,
    "lat": 31.9182781,
    "lon": -8.0239087,
    "timestamp": "2013-03-05T15:54:59Z",
    "version": 3,
    "changeset": 15260064,
    "user": "alain2003",
    "uid": 578772,
    "tags": {
      "amenity": "restaurant",
      "source": "survey"
    }
  },
  {
    "type": "node",
    "id": 1245935203,
    "lat": 31.6317761,
    "lon": -7.9886906,
    "timestamp": "2015-01-04T23:35:22Z",
    "version": 2,
    "changeset": 27923080,
    "user": "Niels Elgaard Larsen",
    "uid": 1288,
    "tags": {
      "amenity": "restaurant",
      "name": "Souk Kafé",
      "note": "Shaded garden and terrace with tagine, steaks, burgers, and salads. Drink coffee, tea, fresh juices, milk shakes or sodas.",
      "opening_hours": "09:00-23:00"
    }
  },
  {
    "type": "node",
    "id": 1446424854,
    "lat": 31.6313665,
    "lon": -7.9932671,
    "timestamp": "2022-05-26T22:08:45Z",
    "version": 4,
    "changeset": 121547566,
    "user": "b-jazz-bot",
    "uid": 9451067,
    "tags": {
      "addr:housenumber": "91",
      "addr:street": "Rue Dar El Bacha",
      "amenity": "restaurant",
      "cuisine": "regional",
      "drink:wine": "served",
      "name": "Dar Moha",
      "note": "upscale Moroccan food",
      "phone": "+212 5 24 38 64 00",
      "website": "https://www.darmoha.ma/"
    }
  },
  {
    "type": "node",
    "id": 1449396064,
    "lat": 31.6341509,
    "lon": -8.0133768,
    "timestamp": "2023-11-23T04:08:32Z",
    "version": 4,
    "changeset": 144350732,
    "user": "b-jazz-bot",
    "uid": 9451067,
    "tags": {
      "addr:city": "Marrakech",
      "addr:housenumber": "3",
      "addr:street": "Rue de la Liberté",
      "amenity": "restaurant",
      "cuisine": "international",
      "name": "Kechmara",
      "website": "https://www.kechmara.com/"
    }
  },
  {
    "type": "node",
    "id": 1449396081,
    "lat": 31.6331197,
    "lon": -8.010006,
    "timestamp": "2023-10-17T02:45:30Z",
    "version": 8,
    "changeset": 142690393,
    "user": "b-jazz-bot",
    "uid": 9451067,
    "tags": {
      "amenity": "restaurant",
      "changing_table": "no",
      "drink:wine": "served",
      "email": "resa@grandcafedelaposte-marrakech.com",
      "highchair": "no",
      "name": "Grand Café de la Poste",
      "opening_hours": "Mo-Su 08:00-01:00",
      "phone": "+212 (0) 24 43 30 38",
      "website": "https://www.grandcafedelaposte-marrakech.com/"
    }
  },
  {
    "type": "node",
    "id": 1724623328,
    "lat": 31.6384177,
    "lon": -8.0176395,
    "timestamp": "2014-12-03T06:32:37Z",
    "version": 2,
    "changeset": 27193660,
    "user": "Ludovic Drouard",
    "uid": 1151930,
    "tags": {
      "amenity": "restaurant",
      "name": "Belgueni"
    }
  },
  {
    "type": "node",
    "id": 1834353595,
    "lat": 31.63384,
    "lon": -8.0151742,
    "timestamp": "2014-04-23T14:32:42Z",
    "version": 2,
    "changeset": 21887997,
    "user": "seba85",
    "uid": 607947,
    "tags": {
      "amenity": "restaurant",
      "cuisine": "italian",
      "name": "La Trattoria"
    }
  },
  {
    "type": "node",
    "id": 1840020879,
    "lat": 31.6341412,
    "lon": -7.9909577,
    "timestamp": "2016-06-15T13:46:37Z",
    "version": 3,
    "changeset": 40039183,
    "user": "johnparis",
    "uid": 2126146,
    "tags": {
      "amenity": "restaurant",
      "name": "Restaurant Lamamakech"
    }
  },
  {
    "type": "node",
    "id": 1875136597,
    "lat": 32.2736457,
    "lon": -7.9694694,
    "timestamp": "2014-05-28T06:17:57Z",
    "version": 2,
    "changeset": 22594154,
    "user": "Ludovic Drouard",
    "uid": 1151930,
    "tags": {
      "amenity": "restaurant"
    }
  },
  {
    "type": "node",
    "id": 1934188026,
    "lat": 31.6315028,
    "lon": -8.0127825,
    "timestamp": "2019-03-06T07:19:32Z",
    "version": 4,
    "changeset": 67833269,
    "user": "b-jazz-bot",
    "uid": 9451067,
    "tags": {
      "addr:city": "Marrakech",
      "addr:housenumber": "92",
      "addr:postcode": "40000",
      "addr:street": "Rue Yougoslavie",
      "amenity": "restaurant",
      "cuisine": "italian",
      "drink:cocktail": "served",
      "drink:wine": "served",
      "name": "Le Chat qui Rit",
      "phone": "+212 05 24 43 43 11",
      "website": "https://www.lechatquirit.net/"
    }
  },
  {
    "type": "node",
    "id": 1956988905,
    "lat": 31.6237118,
    "lon": -7.9856406,
    "timestamp": "2023-12-20T06:56:51Z",
    "version": 5,
    "changeset": 145318206,
    "user": "xu3g fu6",
    "uid": 20398866,
    "tags": {
      "addr:city": "Marrakech",
      "addr:housenumber": "28",
      "addr:postcode": "40090",
      "addr:street": "Derb Jamaa",
      "amenity": "restaurant",
      "cuisine": "international",
      "designation": "1",
      "name": "Riad Dar Sohane",
      "phone": "+212 5 24 39 18 98",
      "website": "http://dar-sohane.com/"
    }
  },
  {
    "type": "node",
    "id": 2008793559,
    "lat": 31.636187,
    "lon": -8.0118749,
    "timestamp": "2022-09-09T20:23:35Z",
    "version": 4,
    "changeset": 125995316,
    "user": "NovaVanta",
    "uid": 17014690,
    "tags": {
      "amenity": "restaurant",
      "cuisine": "american",
      "name": "Bo"
    }
  },
  {
    "type": "node",
    "id": 2023206653,
    "lat": 31.6636668,
    "lon": -7.8741763,
    "timestamp": "2012-11-20T16:13:37Z",
    "version": 1,
    "changeset": 13947027,
    "user": "drhzbg",
    "uid": 6609,
    "tags": {
      "amenity": "restaurant",
      "cuisine": "regional",
      "name": "Sahrat",
      "smoking": "no",
      "wheelchair": "no"
    }
  },
  {
    "type": "node",
    "id": 2278835023,
    "lat": 31.6310673,
    "lon": -7.9888763,
    "timestamp": "2022-05-26T22:14:06Z",
    "version": 7,
    "changeset": 121547772,
    "user": "b-jazz-bot",
    "uid": 9451067,
    "tags": {
      "addr:city": "Marrakech",
      "addr:housenumber": "15",
      "addr:street": "Souk Cherifia",
      "amenity": "restaurant",
      "drink:wine": "no",
      "name": "La Terrasse Des Epices",
      "name:fr": "La Terrasse Des Epices",
      "opening_hours": "12:00-23:00",
      "phone": "+212 524 375 904",
      "website": "https://www.terrassedesepices.com/"
    }
  },
  {
    "type": "node",
    "id": 2278835033,
    "lat": 31.6320477,
    "lon": -7.9887642,
    "timestamp": "2022-03-22T08:37:27Z",
    "version": 7,
    "changeset": 118768026,
    "user": "Traktorbek",
    "uid": 7370308,
    "tags": {
      "addr:housenumber": "32",
      "addr:street": "rue El Jeld, Sidi Abdelaziz",
      "amenity": "restaurant",
      "drink:wine": "no",
      "name": "Le Jardin",
      "name:en": "Pop-Up Shop, Le Jardin",
      "opening_hours": "Mo, We 11:30-17:00, 19:00-22:00; Tu 11:30-16:00",
      "operator": "Norya Nemiches",
      "phone": "+212 (0) 5 24 37 82 95",
      "website": "https://www.norya-ayron.com/"
    }
  },
  {
    "type": "node",
    "id": 2317357828,
    "lat": 31.6193956,
    "lon": -7.9851114,
    "timestamp": "2017-02-18T17:11:40Z",
    "version": 3,
    "changeset": 46197346,
    "user": "dromedar61",
    "uid": 542047,
    "tags": {
      "amenity": "restaurant",
      "cuisine": "regional",
      "name": "Cafe Terrasse Palais El Badia",
      "phone": "+212 5243-89975"
    }
  },
  {
    "type": "node",
    "id": 2343024451,
    "lat": 31.6244904,
    "lon": -7.9868587,
    "timestamp": "2022-05-26T22:13:55Z",
    "version": 7,
    "changeset": 121547766,
    "user": "b-jazz-bot",
    "uid": 9451067,
    "tags": {
      "addr:housenumber": "7/8",
      "addr:postcode": "40000",
      "addr:street": "Derb Chaabane",
      "amenity": "restaurant",
      "cuisine": "regional",
      "designation": "Gastronomic",
      "drink:wine": "served;bottled",
      "name": "Riad Monceau",
      "website": "https://www.riad-monceau.com/"
    }
  },
  {
    "type": "node",
    "id": 2503118202,
    "lat": 31.6234505,
    "lon": -7.9871211,
    "timestamp": "2019-06-13T15:17:09Z",
    "version": 4,
    "changeset": 71222505,
    "user": "mapman44",
    "uid": 2888253,
    "tags": {
      "addr:housenumber": "4",
      "addr:postcode": "40000",
      "addr:street": "Derb el Messfloui",
      "amenity": "restaurant",
      "cuisine": "burger;moroccan",
      "diet:vegan": "yes",
      "diet:vegetarian": "yes",
      "name": "Earth Cafe",
      "website": "http://www.earthcafemarrakech.com/"
    }
  },
  {
    "type": "node",
    "id": 2575206342,
    "lat": 31.7201533,
    "lon": -8.2347793,
    "timestamp": "2013-12-11T01:19:35Z",
    "version": 1,
    "changeset": 19386747,
    "user": "alain2003",
    "uid": 578772,
    "tags": {
      "amenity": "restaurant"
    }
  },
  {
    "type": "node",
    "id": 2575206570,
    "lat": 31.7179356,
    "lon": -8.2348813,
    "timestamp": "2013-12-11T01:19:41Z",
    "version": 1,
    "changeset": 19386747,
    "user": "alain2003",
    "uid": 578772,
    "tags": {
      "amenity": "restaurant"
    }
  },
  {
    "type": "node",
    "id": 2587242955,
    "lat": 31.634787,
    "lon": -7.9934301,
    "timestamp": "2019-06-13T15:17:09Z",
    "version": 4,
    "changeset": 71222505,
    "user": "mapman44",
    "uid": 2888253,
    "tags": {
      "amenity": "restaurant",
      "email": "ryadlaarouss@e-riadmarrakech.com",
      "internet_access": "wlan",
      "internet_access:fee": "no",
      "name": "Riad Larrouss",
      "phone": "+ 212 524 38 39 53",
      "smoking": "no",
      "tourism": "guest_house",
      "website": "www.ryadlaarouss.com"
    }
  },
  {
    "type": "node",
    "id": 2779132642,
    "lat": 31.6365673,
    "lon": -7.9934804,
    "timestamp": "2023-10-17T02:46:35Z",
    "version": 6,
    "changeset": 142690432,
    "user": "b-jazz-bot",
    "uid": 9451067,
    "tags": {
      "addr:city": "Marrakech",
      "addr:housenumber": "79",
      "addr:street": "derb Sidi Ahmed Soussi",
      "amenity": "restaurant",
      "drink:wine": "served",
      "name": "Dar Yacout",
      "note": "Traditional Moroccan gastronomic cuisine. Has a terrace overlooking the Medina.",
      "phone": "+212 (0)5 24 38 29 29",
      "website": "https://daryacout.com/"
    }
  },
  {
    "type": "node",
    "id": 2811105941,
    "lat": 31.6344129,
    "lon": -8.0154962,
    "timestamp": "2015-01-16T14:54:31Z",
    "version": 2,
    "changeset": 28188939,
    "user": "seba85",
    "uid": 607947,
    "tags": {
      "amenity": "restaurant",
      "name": "Les Printemps"
    }
  },
  {
    "type": "node",
    "id": 2811105952,
    "lat": 31.6337749,
    "lon": -8.014941,
    "timestamp": "2015-01-16T14:54:32Z",
    "version": 2,
    "changeset": 28188939,
    "user": "seba85",
    "uid": 607947,
    "tags": {
      "amenity": "restaurant"
    }
  },
  {
    "type": "node",
    "id": 2877463905,
    "lat": 31.6269928,
    "lon": -7.9860251,
    "timestamp": "2024-12-22T00:58:51Z",
    "version": 5,
    "changeset": 160487931,
    "user": "yetzt",
    "uid": 26734,
    "tags": {
      "addr:housenumber": "86",
      "addr:street": "Derb Dabachi",
      "amenity": "restaurant",
      "cuisine": "pizza;regional",
      "diet:vegetarian": "yes",
      "name": "Chez Brahim",
      "phone": "+212 524 428 915",
      "vegetarian": "yes"
    }
  },
  {
    "type": "node",
    "id": 2877498308,
    "lat": 31.6196593,
    "lon": -7.9850195,
    "timestamp": "2022-05-18T09:16:43Z",
    "version": 2,
    "changeset": 121135952,
    "user": "cbeattie510",
    "uid": 15942838,
    "tags": {
      "amenity": "restaurant",
      "name": "Mazel Cafe"
    }
  },
  {
    "type": "node",
    "id": 2916440456,
    "lat": 31.6319109,
    "lon": -8.0055045,
    "timestamp": "2014-06-14T20:52:04Z",
    "version": 1,
    "changeset": 22933311,
    "user": "abde01",
    "uid": 702180,
    "tags": {
      "amenity": "restaurant"
    }
  },
  {
    "type": "node",
    "id": 2975916599,
    "lat": 31.6222847,
    "lon": -7.9717004,
    "timestamp": "2024-02-07T12:12:33Z",
    "version": 2,
    "changeset": 147173929,
    "user": "Pisto81",
    "uid": 19703586,
    "tags": {
      "amenity": "restaurant",
      "name": "Fish restaurant"
    }
  },
  {
    "type": "node",
    "id": 2991846329,
    "lat": 31.6487341,
    "lon": -8.0073171,
    "timestamp": "2014-08-02T05:14:54Z",
    "version": 1,
    "changeset": 24492494,
    "user": "Ludovic Drouard",
    "uid": 1151930,
    "tags": {
      "amenity": "restaurant",
      "cuisine": "moroccan",
      "name": "Asmak"
    }
  },
  {
    "type": "node",
    "id": 3004051257,
    "lat": 31.6376232,
    "lon": -8.008926,
    "timestamp": "2014-08-08T07:09:56Z",
    "version": 1,
    "changeset": 24609621,
    "user": "Ludovic Drouard",
    "uid": 1151930,
    "tags": {
      "amenity": "restaurant",
      "cuisine": "italian",
      "name": "Chez Casanova"
    }
  },
  {
    "type": "node",
    "id": 3004051264,
    "lat": 31.6220842,
    "lon": -8.0005243,
    "timestamp": "2014-08-08T07:09:57Z",
    "version": 1,
    "changeset": 24609621,
    "user": "Ludovic Drouard",
    "uid": 1151930,
    "tags": {
      "amenity": "restaurant",
      "name": "Suite Marabella Marrakech"
    }
  },
  {
    "type": "node",
    "id": 3105173107,
    "lat": 31.639919,
    "lon": -8.0209129,
    "timestamp": "2014-11-27T04:45:39Z",
    "version": 2,
    "changeset": 27060547,
    "user": "Ludovic Drouard",
    "uid": 1151930,
    "tags": {
      "amenity": "restaurant",
      "name": "La crêperie de Marrakech"
    }
  },
  {
    "type": "node",
    "id": 3105173108,
    "lat": 31.6380104,
    "lon": -8.0209129,
    "timestamp": "2014-11-27T04:45:39Z",
    "version": 2,
    "changeset": 27060547,
    "user": "Ludovic Drouard",
    "uid": 1151930,
    "tags": {
      "amenity": "restaurant",
      "cuisine": "pizza",
      "name": "Pizza Hut"
    }
  },
  {
    "type": "node",
    "id": 3105173113,
    "lat": 31.6350298,
    "lon": -8.0112529,
    "timestamp": "2014-10-01T09:30:47Z",
    "version": 1,
    "changeset": 25785779,
    "user": "seba85",
    "uid": 607947,
    "tags": {
      "amenity": "restaurant",
      "cuisine": "pizza",
      "name": "Domino"
    }
  },
  {
    "type": "node",
    "id": 3105173114,
    "lat": 31.6349453,
    "lon": -8.0111685,
    "timestamp": "2014-10-01T09:30:47Z",
    "version": 1,
    "changeset": 25785779,
    "user": "seba85",
    "uid": 607947,
    "tags": {
      "amenity": "restaurant",
      "cuisine": "italian",
      "name": "Gino"
    }
  },
  {
    "type": "node",
    "id": 3186306940,
    "lat": 31.6583647,
    "lon": -8.0050904,
    "timestamp": "2014-11-14T11:07:53Z",
    "version": 1,
    "changeset": 26774439,
    "user": "dr1ss",
    "uid": 2461231,
    "tags": {
      "amenity": "restaurant",
      "cuisine": "pizza",
      "name": "Family Pizza"
    }
  },
  {
    "type": "node",
    "id": 3204488766,
    "lat": 31.6491244,
    "lon": -8.0130265,
    "timestamp": "2014-11-25T12:01:59Z",
    "version": 1,
    "changeset": 27019962,
    "user": "bakinsey2",
    "uid": 2484828,
    "tags": {
      "amenity": "restaurant",
      "capacity": "75",
      "cuisine": "regional",
      "name": "Neoboroca Cafe",
      "smoking": "separated"
    }
  },
  {
    "type": "node",
    "id": 3204488769,
    "lat": 31.6484554,
    "lon": -8.01363,
    "timestamp": "2014-11-25T12:01:59Z",
    "version": 1,
    "changeset": 27019962,
    "user": "bakinsey2",
    "uid": 2484828,
    "tags": {
      "amenity": "restaurant",
      "capacity": "25",
      "cuisine": "pizza",
      "name": "Tipico"
    }
  },
  {
    "type": "node",
    "id": 3204488771,
    "lat": 31.647864,
    "lon": -8.0141074,
    "timestamp": "2014-11-25T12:01:59Z",
    "version": 1,
    "changeset": 27019962,
    "user": "bakinsey2",
    "uid": 2484828,
    "tags": {
      "amenity": "restaurant",
      "capacity": "40",
      "cuisine": "pizza",
      "name": "Cuit a Huit",
      "wifi": "yes"
    }
  },
  {
    "type": "node",
    "id": 3204488776,
    "lat": 31.6548439,
    "lon": -8.0183694,
    "timestamp": "2014-11-25T16:45:04Z",
    "version": 2,
    "changeset": 27025895,
    "user": "bakinsey2",
    "uid": 2484828,
    "tags": {
      "amenity": "restaurant",
      "capacity": "75",
      "cuisine": "seafood",
      "name": "Yakht Resto"
    }
  },
  {
    "type": "node",
    "id": 3204488777,
    "lat": 31.6543886,
    "lon": -8.0184484,
    "timestamp": "2014-11-25T16:45:04Z",
    "version": 2,
    "changeset": 27025895,
    "user": "bakinsey2",
    "uid": 2484828,
    "tags": {
      "amenity": "restaurant",
      "capacity": "50",
      "cuisine": "american",
      "internet_access": "wlan",
      "name": "Chicago"
    }
  },
  {
    "type": "node",
    "id": 3204883221,
    "lat": 31.6530758,
    "lon": -8.0171797,
    "timestamp": "2014-11-25T16:45:03Z",
    "version": 1,
    "changeset": 27025895,
    "user": "bakinsey2",
    "uid": 2484828,
    "tags": {
      "amenity": "restaurant",
      "capacity": "20",
      "cuisine": "snack",
      "name": "McHappy"
    }
  },
  {
    "type": "node",
    "id": 3204883222,
    "lat": 31.653158,
    "lon": -8.0171019,
    "timestamp": "2014-11-25T16:45:03Z",
    "version": 1,
    "changeset": 27025895,
    "user": "bakinsey2",
    "uid": 2484828,
    "tags": {
      "amenity": "restaurant",
      "capacity": "15",
      "cuisine": "snack",
      "name": "Lino"
    }
  },
  {
    "type": "node",
    "id": 3204883224,
    "lat": 31.6530324,
    "lon": -8.0169329,
    "timestamp": "2014-11-25T16:45:03Z",
    "version": 1,
    "changeset": 27025895,
    "user": "bakinsey2",
    "uid": 2484828,
    "tags": {
      "amenity": "restaurant",
      "capacity": "50",
      "name": "504 Cafe & Restaurant"
    }
  },
  {
    "type": "node",
    "id": 3204883233,
    "lat": 31.6510323,
    "lon": -8.0154094,
    "timestamp": "2014-11-25T16:45:03Z",
    "version": 1,
    "changeset": 27025895,
    "user": "bakinsey2",
    "uid": 2484828,
    "tags": {
      "amenity": "restaurant",
      "capacity": "100",
      "cuisine": "pizza",
      "name": "Taxi"
    }
  },
  {
    "type": "node",
    "id": 3204883258,
    "lat": 31.6552425,
    "lon": -8.0216429,
    "timestamp": "2014-11-25T16:45:04Z",
    "version": 1,
    "changeset": 27025895,
    "user": "bakinsey2",
    "uid": 2484828,
    "tags": {
      "amenity": "restaurant",
      "capacity": "50",
      "name": "Friend's Place"
    }
  },
  {
    "type": "node",
    "id": 3207177571,
    "lat": 31.6297761,
    "lon": -8.0050031,
    "timestamp": "2014-11-27T04:28:25Z",
    "version": 1,
    "changeset": 27060444,
    "user": "Ludovic Drouard",
    "uid": 1151930,
    "tags": {
      "amenity": "restaurant",
      "cuisine": "moroccan",
      "name": "Chami"
    }
  },
  {
    "type": "node",
    "id": 3211353717,
    "lat": 31.6665831,
    "lon": -8.0108179,
    "timestamp": "2017-02-17T22:38:20Z",
    "version": 2,
    "changeset": 46180088,
    "user": "HICHAM bouchaala",
    "uid": 5338064,
    "tags": {
      "addr:housenumber": "immobilier 5",
      "addr:postcode": "40000",
      "addr:street": "Avenue Allal El Fassi",
      "amenity": "restaurant",
      "email": "psi@menara.ma",
      "name": "psi sage",
      "phone": "00212524300050"
    }
  },
  {
    "type": "node",
    "id": 3211517819,
    "lat": 31.6519715,
    "lon": -7.9975877,
    "timestamp": "2014-11-29T21:53:21Z",
    "version": 1,
    "changeset": 27121132,
    "user": "Ludovic Drouard",
    "uid": 1151930,
    "tags": {
      "amenity": "restaurant",
      "name": "Le Spécial"
    }
  },
  {
    "type": "node",
    "id": 3214310663,
    "lat": 31.6643865,
    "lon": -8.0658204,
    "timestamp": "2014-12-01T16:17:27Z",
    "version": 1,
    "changeset": 27157984,
    "user": "Niels Elgaard Larsen",
    "uid": 1288,
    "tags": {
      "amenity": "restaurant",
      "name": "Atlas Targe Club Restaurant"
    }
  },
  {
    "type": "node",
    "id": 3214359710,
    "lat": 32.4983295,
    "lon": -7.9076335,
    "timestamp": "2018-05-17T18:26:37Z",
    "version": 2,
    "changeset": 59030819,
    "user": "wheelmap_visitor",
    "uid": 290680,
    "tags": {
      "amenity": "restaurant",
      "name": "Assounfou",
      "wheelchair": "yes"
    }
  },
  {
    "type": "node",
    "id": 3214364741,
    "lat": 31.6197255,
    "lon": -7.9865193,
    "timestamp": "2015-02-26T14:50:05Z",
    "version": 3,
    "changeset": 29115166,
    "user": "Niels Elgaard Larsen",
    "uid": 1288,
    "tags": {
      "addr:street": "Rue Fandak",
      "amenity": "restaurant",
      "cuisine": "moroccan",
      "drink:wine": "served",
      "name": "Palais Chahrmane",
      "phone": "+212 524389918"
    }
  },
  {
    "type": "node",
    "id": 3214365066,
    "lat": 31.6297793,
    "lon": -7.9900772,
    "timestamp": "2022-05-26T22:10:57Z",
    "version": 3,
    "changeset": 121547649,
    "user": "b-jazz-bot",
    "uid": 9451067,
    "tags": {
      "addr:city": "Marrakech",
      "addr:housenumber": "4",
      "addr:street": "Derb Azzouz",
      "amenity": "restaurant",
      "drink:wine": "served",
      "name": "Villa Flora",
      "phone": "+ 212 (0) 524 39 17 00",
      "website": "https://www.villa-flore.com/"
    }
  },
  {
    "type": "node",
    "id": 3215150598,
    "lat": 31.6203219,
    "lon": -7.9917418,
    "timestamp": "2019-03-06T07:20:48Z",
    "version": 7,
    "changeset": 67833299,
    "user": "b-jazz-bot",
    "uid": 9451067,
    "tags": {
      "addr:city": "Marrakech مراكش",
      "addr:housenumber": "6",
      "addr:street": "Rue Sidi Mimoun",
      "amenity": "restaurant",
      "cuisine": "french;moroccan",
      "drink:wine": "served",
      "name": "La Villa des Orangers",
      "note": "French gastronumic cuisine",
      "opening_hours": "19:30-late",
      "phone": "+212 (0) 524 384638",
      "website": "https://www.villadesorangers.com/index.php/the-restaurant"
    }
  },
  {
    "type": "node",
    "id": 3215340661,
    "lat": 31.6237788,
    "lon": -8.0031206,
    "timestamp": "2014-12-02T06:55:30Z",
    "version": 1,
    "changeset": 27172490,
    "user": "Ludovic Drouard",
    "uid": 1151930,
    "tags": {
      "amenity": "restaurant",
      "name": "Arkech"
    }
  },
  {
    "type": "node",
    "id": 3216945241,
    "lat": 31.6511379,
    "lon": -8.0200129,
    "timestamp": "2014-12-03T05:56:56Z",
    "version": 1,
    "changeset": 27193402,
    "user": "Ludovic Drouard",
    "uid": 1151930,
    "tags": {
      "amenity": "restaurant",
      "name": "Best Place"
    }
  },
  {
    "type": "node",
    "id": 3216960779,
    "lat": 31.6385024,
    "lon": -8.0173327,
    "timestamp": "2014-12-03T06:32:30Z",
    "version": 1,
    "changeset": 27193660,
    "user": "Ludovic Drouard",
    "uid": 1151930,
    "tags": {
      "amenity": "restaurant",
      "name": "Chez Amhane"
    }
  },
  {
    "type": "node",
    "id": 3216960780,
    "lat": 31.644676,
    "lon": -8.0192518,
    "timestamp": "2014-12-03T06:32:30Z",
    "version": 1,
    "changeset": 27193660,
    "user": "Ludovic Drouard",
    "uid": 1151930,
    "tags": {
      "amenity": "restaurant",
      "name": "Le Diamant Vert"
    }
  },
  {
    "type": "node",
    "id": 3216970561,
    "lat": 31.6300675,
    "lon": -7.9850795,
    "timestamp": "2018-03-22T12:07:04Z",
    "version": 4,
    "changeset": 57420186,
    "user": "seba85",
    "uid": 607947,
    "tags": {
      "addr:housenumber": "30",
      "addr:street": "Rue Azbezd",
      "amenity": "restaurant",
      "name": "Naima",
      "opening_hours": "08:00-22:00",
      "phone": "+212 667-846370"
    }
  },
  {
    "type": "node",
    "id": 3217569200,
    "lat": 31.634163,
    "lon": -8.010838,
    "timestamp": "2014-12-03T15:58:05Z",
    "version": 1,
    "changeset": 27203225,
    "user": "Niels Elgaard Larsen",
    "uid": 1288,
    "tags": {
      "amenity": "restaurant",
      "name": "Complexe Solaris"
    }
  },
  {
    "type": "node",
    "id": 3217569203,
    "lat": 31.6335198,
    "lon": -8.0096381,
    "timestamp": "2014-12-03T16:11:02Z",
    "version": 2,
    "changeset": 27203466,
    "user": "Niels Elgaard Larsen",
    "uid": 1288,
    "tags": {
      "amenity": "restaurant",
      "name": "Elite",
      "note": "Great mix of Maroccan and European dishes"
    }
  },
  {
    "type": "node",
    "id": 3217569205,
    "lat": 31.63377,
    "lon": -8.010154,
    "timestamp": "2014-12-03T15:58:05Z",
    "version": 1,
    "changeset": 27203225,
    "user": "Niels Elgaard Larsen",
    "uid": 1288,
    "tags": {
      "amenity": "restaurant",
      "name": "Le gueliz"
    }
  },
  {
    "type": "node",
    "id": 3265126973,
    "lat": 31.6220131,
    "lon": -8.0002174,
    "timestamp": "2020-11-24T01:06:46Z",
    "version": 5,
    "changeset": 94668480,
    "user": "MustafaQasim",
    "uid": 9535554,
    "tags": {
      "addr:city": "Marrakech",
      "amenity": "restaurant",
      "contact:phone": "+212524436984",
      "contact:website": "http://www.palaisjadmahal.com",
      "name": "Jad Mahal",
      "note": "Lounge bar and formal restaurant.",
      "opening_hours": "17:00+",
      "smoking": "yes"
    }
  },
  {
    "type": "node",
    "id": 3265955460,
    "lat": 31.6720075,
    "lon": -7.9288065,
    "timestamp": "2015-01-02T20:53:01Z",
    "version": 2,
    "changeset": 27873222,
    "user": "Niels Elgaard Larsen",
    "uid": 1288,
    "tags": {
      "amenity": "restaurant",
      "drink:wine": "served",
      "name": "Le Grand Salon",
      "note": "Upscale restaurant. With organic vegetables from it own gardens."
    }
  },
  {
    "type": "node",
    "id": 3266021545,
    "lat": 31.631923,
    "lon": -7.9848998,
    "timestamp": "2022-05-26T22:13:51Z",
    "version": 5,
    "changeset": 121547764,
    "user": "b-jazz-bot",
    "uid": 9451067,
    "tags": {
      "addr:housenumber": "55",
      "addr:street": "Rue Souk El Fassi",
      "amenity": "restaurant",
      "cuisine": "regional",
      "drink:wine": "served",
      "name": "Le Foundouk",
      "note": "Maroccan end European cuisine. Roof terrace and bar.",
      "opening_hours": "Tu-Su 19:00-00:00",
      "phone": "+212 5 24 37 81 76",
      "website": "https://www.foundouk.com/"
    }
  },
  {
    "type": "node",
    "id": 3266079194,
    "lat": 31.628966,
    "lon": -7.9968979,
    "timestamp": "2019-07-30T02:59:34Z",
    "version": 4,
    "changeset": 72792196,
    "user": "HubMiner",
    "uid": 238419,
    "tags": {
      "addr:street": "Rue DJebel Alakhdar",
      "amenity": "restaurant",
      "cuisine": "french;maroccan",
      "drink:wine": "served",
      "name": "Fouquet's",
      "opening_hours": "12:30-14:30; 19:30-22:30",
      "phone": "+212 (0) 524 45 9000",
      "website": "http://www.lucienbarriere.com/en/luxury-hotel/Marrakech-Hotel-Naoura-Barriere/Fouquets-Marrakech.html"
    }
  },
  {
    "type": "node",
    "id": 3267134307,
    "lat": 31.6376136,
    "lon": -7.9953947,
    "timestamp": "2022-05-26T22:12:12Z",
    "version": 4,
    "changeset": 121547696,
    "user": "b-jazz-bot",
    "uid": 9451067,
    "tags": {
      "addr:city": "Marrakech",
      "addr:housenumber": "413",
      "addr:street": "Derb Sidi Massoud",
      "amenity": "restaurant",
      "cuisine": "seafood",
      "drink:wine": "no",
      "fixme": "check position",
      "name": "Riad des Mers",
      "phone": "+212 662265030",
      "website": "https://www.ilove-marrakech.com/riaddesmers/"
    }
  },
  {
    "type": "node",
    "id": 3268192402,
    "lat": 31.6280385,
    "lon": -7.99123,
    "timestamp": "2024-10-13T08:41:49Z",
    "version": 4,
    "changeset": 157824605,
    "user": "Claudius Henrichs",
    "uid": 18069,
    "tags": {
      "addr:housenumber": "34",
      "addr:street": "Rue El Ksour",
      "amenity": "restaurant",
      "cuisine": "moroccan;regional",
      "drink:wine": "served",
      "fixme": "check position",
      "name": "Le Stylia",
      "note": "Lamb tagine",
      "opening_hours:signed": "no",
      "phone": "+212 5 24 44 05 05",
      "website": "http://www.restaurant-stylia.com/"
    }
  },
  {
    "type": "node",
    "id": 3268195015,
    "lat": 31.621336,
    "lon": -8.0047475,
    "timestamp": "2023-10-17T02:46:01Z",
    "version": 2,
    "changeset": 142690413,
    "user": "b-jazz-bot",
    "uid": 9451067,
    "tags": {
      "addr:street": "Rue Ibrahim El Mazini",
      "amenity": "restaurant",
      "cuisine": "french",
      "drink:wine": "served",
      "fixme": "check location, it is somewhere on the grounds of the resort",
      "name": "Epicurien Marrakech",
      "note": "Gourmet restaurant at Es Saadi resort.",
      "phone": "+212 6 20282514",
      "website": "https://www.essaadi.com/fr/restaurants-marrakech/restaurants-de-la-nuit/epicurien"
    }
  },
  {
    "type": "node",
    "id": 3269303452,
    "lat": 31.6119695,
    "lon": -7.987269,
    "timestamp": "2019-03-06T07:20:46Z",
    "version": 4,
    "changeset": 67833299,
    "user": "b-jazz-bot",
    "uid": 9451067,
    "tags": {
      "amenity": "restaurant",
      "cuisine": "regional",
      "drink:wine": "served",
      "name": "Les Jardins de la Medina Restaurant",
      "note": "Traditional and modern Moroccan cuisine. Moroccan wine served by bottle and glass.",
      "phone": "+212 5 24 381 851",
      "website": "https://www.lesjardinsdelamedina.com/en/gastronomy/restaurant.html"
    }
  },
  {
    "type": "node",
    "id": 3269327614,
    "lat": 31.6324665,
    "lon": -8.0111294,
    "timestamp": "2015-01-04T18:26:30Z",
    "version": 1,
    "changeset": 27916629,
    "user": "Niels Elgaard Larsen",
    "uid": 1288,
    "tags": {
      "addr:city": "Marrakech",
      "addr:housenumber": "87",
      "addr:street": "Boulevard Moulay Rachid",
      "amenity": "restaurant",
      "cuisine": "french",
      "drink:wine": "served",
      "name": "Le Studio",
      "note": "Restaurant and bar"
    }
  },
  {
    "type": "node",
    "id": 3269356192,
    "lat": 31.5737775,
    "lon": -7.9813622,
    "timestamp": "2015-02-26T15:12:39Z",
    "version": 2,
    "changeset": 29115639,
    "user": "Niels Elgaard Larsen",
    "uid": 1288,
    "tags": {
      "addr:street": "Route de l`Ourika",
      "alt_name": "Bo Zin",
      "amenity": "restaurant",
      "contact:email": "contact@bo-zin.com",
      "drink:wine": "served",
      "name": "Bo&Zin",
      "note": "Lounge, Bar, and Restaurant",
      "opening_hours": "20:00-late",
      "phone": "+212 (0) 524 388 012"
    }
  },
  {
    "type": "node",
    "id": 3269396861,
    "lat": 31.6347751,
    "lon": -8.0129847,
    "timestamp": "2015-02-26T15:12:21Z",
    "version": 3,
    "changeset": 29115632,
    "user": "Niels Elgaard Larsen",
    "uid": 1288,
    "tags": {
      "addr:city": "Marrakech",
      "addr:housenumber": "18",
      "addr:postcode": "40000",
      "addr:street": "Rue de la Liberté",
      "amenity": "restaurant",
      "drink:wine": "served",
      "name": "Le Bistrot Loft",
      "note": "Steaks and good wines",
      "website": "http://www.loft-marrakech.com/"
    }
  },
  {
    "type": "node",
    "id": 3269438269,
    "lat": 31.6272423,
    "lon": -7.9928021,
    "timestamp": "2015-01-04T19:30:01Z",
    "version": 2,
    "changeset": 27918206,
    "user": "Niels Elgaard Larsen",
    "uid": 1288,
    "tags": {
      "addr:city": "Marrakech",
      "addr:housenumber": "22",
      "addr:street": "Derb Moulay Abdellah Ben Hessein",
      "amenity": "restaurant",
      "name": "Le Tobsil",
      "note": "Tagines in a romantic traditional setting.",
      "phone": "+212 524 44 40 52"
    }
  },
  {
    "type": "node",
    "id": 3269553483,
    "lat": 31.6691087,
    "lon": -8.0426274,
    "timestamp": "2022-05-26T22:14:13Z",
    "version": 2,
    "changeset": 121547777,
    "user": "b-jazz-bot",
    "uid": 9451067,
    "tags": {
      "addr:city": "Marrakech",
      "addr:housenumber": "517",
      "addr:street": "rue Principale",
      "amenity": "restaurant",
      "cuisine": "french",
      "drink:wine": "served",
      "fixme": "check location with GPS",
      "name": "Le Zinc",
      "note": "French bistro food",
      "phone": "+212(0) 5 24 33 59 69",
      "website": "https://www.durand-traiteur.com/lezinc.html"
    }
  },
  {
    "type": "node",
    "id": 3278709042,
    "lat": 31.6215726,
    "lon": -8.0075473,
    "timestamp": "2015-02-26T15:11:29Z",
    "version": 2,
    "changeset": 29115616,
    "user": "Niels Elgaard Larsen",
    "uid": 1288,
    "tags": {
      "addr:city": "Marrakech",
      "addr:street": "Rue Ksar El Kebir",
      "amenity": "restaurant",
      "capacity": "30",
      "cuisine": "french",
      "drink:wine": "served",
      "name": "La Villa Canaille",
      "note": "French gourmet restaurant, good selection of wines.",
      "phone": "+212 0650929742"
    }
  },
  {
    "type": "node",
    "id": 3340899390,
    "lat": 31.641627,
    "lon": -8.0176066,
    "timestamp": "2017-06-21T19:38:54Z",
    "version": 4,
    "changeset": 49729158,
    "user": "Gumeg",
    "uid": 467526,
    "tags": {
      "amenity": "restaurant",
      "cuisine": "burger",
      "name": "Kechburger",
      "wheelchair": "yes"
    }
  },
  {
    "type": "node",
    "id": 3350414898,
    "lat": 31.631811,
    "lon": -7.9931581,
    "timestamp": "2023-10-17T02:47:29Z",
    "version": 2,
    "changeset": 142690457,
    "user": "b-jazz-bot",
    "uid": 9451067,
    "tags": {
      "amenity": "restaurant",
      "name": "Dar Marjana",
      "website": "https://www.darmarjana.com/"
    }
  },
  {
    "type": "node",
    "id": 3353787896,
    "lat": 31.6349003,
    "lon": -8.0104773,
    "timestamp": "2015-02-16T12:48:14Z",
    "version": 1,
    "changeset": 28884745,
    "user": "seba85",
    "uid": 607947,
    "tags": {
      "amenity": "restaurant",
      "cuisine": "italian",
      "name": "Catanzaro"
    }
  },
  {
    "type": "node",
    "id": 3368557818,
    "lat": 31.6337316,
    "lon": -8.0151322,
    "timestamp": "2015-02-23T17:46:50Z",
    "version": 1,
    "changeset": 29049857,
    "user": "seba85",
    "uid": 607947,
    "tags": {
      "amenity": "restaurant",
      "name": "Jo's"
    }
  },
  {
    "type": "node",
    "id": 3368557819,
    "lat": 31.6345916,
    "lon": -8.0131709,
    "timestamp": "2015-06-03T18:38:58Z",
    "version": 2,
    "changeset": 31699960,
    "user": "seba85",
    "uid": 607947,
    "tags": {
      "amenity": "restaurant",
      "cuisine": "italian",
      "name": "Mamma Mia"
    }
  },
  {
    "type": "node",
    "id": 3368557820,
    "lat": 31.6324814,
    "lon": -8.0116256,
    "timestamp": "2015-02-23T17:46:50Z",
    "version": 1,
    "changeset": 29049857,
    "user": "seba85",
    "uid": 607947,
    "tags": {
      "amenity": "restaurant",
      "name": "Winoo"
    }
  },
  {
    "type": "node",
    "id": 3370583713,
    "lat": 31.6227127,
    "lon": -7.9838891,
    "timestamp": "2024-10-12T15:45:23Z",
    "version": 6,
    "changeset": 157802142,
    "user": "Claudius Henrichs",
    "uid": 18069,
    "tags": {
      "amenity": "restaurant",
      "cuisine": "thai;moroccan",
      "drink:wine": "served",
      "name": "Angsana Si Said",
      "opening_hours": "12:00-15:00;19:30-23:00",
      "website": "https://www.angsana.com/en/web/angsana/em-morocco-riad-collection/restaurant-si-said"
    }
  },
  {
    "type": "node",
    "id": 3370583725,
    "lat": 31.6262683,
    "lon": -7.9867501,
    "timestamp": "2018-05-24T16:59:52Z",
    "version": 3,
    "changeset": 59247226,
    "user": "Mateusz Konieczny",
    "uid": 1722488,
    "tags": {
      "amenity": "restaurant",
      "drink:wine": "served",
      "name": "Le Salama"
    }
  },
  {
    "type": "node",
    "id": 3370584423,
    "lat": 31.626188,
    "lon": -7.9917683,
    "timestamp": "2015-02-26T14:42:34Z",
    "version": 3,
    "changeset": 29114977,
    "user": "Niels Elgaard Larsen",
    "uid": 1288,
    "tags": {
      "amenity": "restaurant",
      "cuisine": "french",
      "drink:wine": "served",
      "name": "Imlil Snack Bar",
      "opening_hours": "12:30-16:00",
      "website": "http://news.lesjardinsdelakoutoubia.com/lesjardinsdelakoutoubia/uk/carte-bar-imlil.asp"
    }
  },
  {
    "type": "node",
    "id": 3370584840,
    "lat": 31.6258677,
    "lon": -7.992162,
    "timestamp": "2023-10-22T14:29:53Z",
    "version": 3,
    "changeset": 142970965,
    "user": "Plumf",
    "uid": 3304272,
    "tags": {
      "amenity": "restaurant",
      "indoor_seating": "yes",
      "name": "Relais de Paris",
      "outdoor_seating": "yes"
    }
  },
  {
    "type": "node",
    "id": 3370584843,
    "lat": 31.6202259,
    "lon": -7.985379,
    "timestamp": "2023-01-27T18:05:04Z",
    "version": 5,
    "changeset": 131783372,
    "user": "Kristjan ESPERANTO",
    "uid": 77904,
    "tags": {
      "addr:street": "Derb Nakous",
      "amenity": "restaurant",
      "contact:facebook": "https://www.facebook.com/people/EARTH-CAFE-MARRAKECH-vegan-vegetarian-cafe-restaurant/100067470667574/",
      "diet:vegan": "yes",
      "fixme": "The Facebook page has not been updated for years and the website (http://www.earthcafemarrakech.com/) is no longer working. Is the place closed?",
      "name": "Earth Cafe",
      "opening_hours": "11:00+",
      "phone": "+212 660544992"
    }
  },
  {
    "type": "node",
    "id": 3370585096,
    "lat": 31.6220875,
    "lon": -7.9831205,
    "timestamp": "2015-07-04T17:24:03Z",
    "version": 5,
    "changeset": 32411374,
    "user": "Mamadou15",
    "uid": 3031510,
    "tags": {
      "addr:city": "Marrakech",
      "addr:housenumber": "5",
      "addr:postcode": "40000",
      "addr:street": "Derb El Arsa Riad Zitoun Jdid",
      "amenity": "restaurant",
      "cuisine": "moroccan",
      "drink:wine": "served",
      "name": "Palais Gharnata",
      "phone": "+212 524 389 615",
      "website": "http://gharnata.com/"
    }
  },
  {
    "type": "node",
    "id": 3370585425,
    "lat": 31.6252725,
    "lon": -7.9839116,
    "timestamp": "2022-05-26T22:08:11Z",
    "version": 6,
    "changeset": 121547548,
    "user": "b-jazz-bot",
    "uid": 9451067,
    "tags": {
      "addr:city": "Marrakech",
      "addr:housenumber": "17",
      "addr:postcode": "40000",
      "addr:street": "Derb Cherkaoui",
      "alt_name": "PepeNero",
      "amenity": "restaurant",
      "cuisine": "italian",
      "drink:wine": "bottled;served",
      "name": "Pepe Nero",
      "opening_hours": "Tu-Su 12:00-14:30,19:30-23:00",
      "phone": "+212 (0) 524 389067",
      "website": "https://www.pepenero-marrakech.com/"
    }
  },
  {
    "type": "node",
    "id": 3372027959,
    "lat": 31.6259426,
    "lon": -7.9913994,
    "timestamp": "2015-02-25T17:05:11Z",
    "version": 1,
    "changeset": 29095987,
    "user": "Niels Elgaard Larsen",
    "uid": 1288,
    "tags": {
      "amenity": "restaurant",
      "cuisine": "indian",
      "name": "Les Jardins des Bala"
    }
  },
  {
    "type": "node",
    "id": 3372315226,
    "lat": 31.6271592,
    "lon": -7.9938419,
    "timestamp": "2019-08-06T09:02:58Z",
    "version": 3,
    "changeset": 73055524,
    "user": "thetornado76",
    "uid": 1624486,
    "tags": {
      "addr:city": "Marrakech",
      "addr:housenumber": "1",
      "addr:street": "Rue Jebel Lakhdar",
      "amenity": "restaurant",
      "cuisine": "moroccan",
      "drink:wine": "served",
      "name": "Diaffa",
      "phone": "+ 212 44 38 68 98",
      "website": "http://www.restaurant-diaffa.ma/"
    }
  },
  {
    "type": "node",
    "id": 3387425700,
    "lat": 31.6535031,
    "lon": -8.0318416,
    "timestamp": "2021-02-05T06:33:50Z",
    "version": 2,
    "changeset": 98745089,
    "user": "PantherStrix",
    "uid": 1468248,
    "tags": {
      "amenity": "restaurant",
      "cuisine": "burger;pizza",
      "name": "Pescara"
    }
  },
  {
    "type": "node",
    "id": 3469388729,
    "lat": 31.6415492,
    "lon": -8.0175662,
    "timestamp": "2016-07-18T14:02:08Z",
    "version": 3,
    "changeset": 40818727,
    "user": "wheelmap_visitor",
    "uid": 290680,
    "tags": {
      "addr:housenumber": "41",
      "addr:street": "Rue Med el Bakkal",
      "amenity": "restaurant",
      "cuisine": "italian",
      "name": "Pasta Delice",
      "wheelchair": "yes"
    }
  },
  {
    "type": "node",
    "id": 3498492938,
    "lat": 31.6574986,
    "lon": -8.0042776,
    "timestamp": "2023-04-16T09:53:25Z",
    "version": 3,
    "changeset": 134967707,
    "user": "LudovicG",
    "uid": 209796,
    "tags": {
      "amenity": "restaurant",
      "cuisine": "pizza;shawarma;sandwich",
      "delivery": "no",
      "name": "Vis ta vie"
    }
  },
  {
    "type": "node",
    "id": 3646559578,
    "lat": 31.6498343,
    "lon": -7.9369256,
    "timestamp": "2015-07-11T18:05:49Z",
    "version": 1,
    "changeset": 32568433,
    "user": "osmgspot",
    "uid": 143002,
    "tags": {
      "amenity": "restaurant"
    }
  },
  {
    "type": "node",
    "id": 3646559579,
    "lat": 31.6495192,
    "lon": -7.9368076,
    "timestamp": "2015-07-11T18:05:49Z",
    "version": 1,
    "changeset": 32568433,
    "user": "osmgspot",
    "uid": 143002,
    "tags": {
      "amenity": "restaurant"
    }
  },
  {
    "type": "node",
    "id": 3646559580,
    "lat": 31.6492292,
    "lon": -7.9367647,
    "timestamp": "2015-07-11T18:05:49Z",
    "version": 1,
    "changeset": 32568433,
    "user": "osmgspot",
    "uid": 143002,
    "tags": {
      "amenity": "restaurant"
    }
  },
  {
    "type": "node",
    "id": 3646684685,
    "lat": 31.6214429,
    "lon": -7.9855272,
    "timestamp": "2019-05-17T10:43:23Z",
    "version": 4,
    "changeset": 70351191,
    "user": "StopConsuming_StartProducing",
    "uid": 5592573,
    "tags": {
      "amenity": "restaurant",
      "cuisine": "moroccan",
      "internet_access": "wlan",
      "name": "Riad KaÏss",
      "name:en": "Riad Kaiss",
      "name:ru": "Риад Каисс",
      "tourism": "guest_house"
    }
  },
  {
    "type": "node",
    "id": 3703564659,
    "lat": 31.6864032,
    "lon": -7.9679195,
    "timestamp": "2015-08-18T20:13:31Z",
    "version": 1,
    "changeset": 33425412,
    "user": "ABZ_OSM",
    "uid": 1940003,
    "tags": {
      "amenity": "restaurant",
      "name": "Le Grand Bleu – International cuisine"
    }
  },
  {
    "type": "node",
    "id": 3703591804,
    "lat": 31.6867599,
    "lon": -7.969729,
    "timestamp": "2019-06-24T12:01:48Z",
    "version": 3,
    "changeset": 71558876,
    "user": "AlanBarrett",
    "uid": 154897,
    "tags": {
      "amenity": "restaurant",
      "name": "La Brasserie"
    }
  },
  {
    "type": "node",
    "id": 3714280872,
    "lat": 31.6232457,
    "lon": -7.9897078,
    "timestamp": "2016-12-05T19:53:36Z",
    "version": 2,
    "changeset": 44191106,
    "user": "occitan",
    "uid": 1450757,
    "tags": {
      "amenity": "restaurant",
      "name": "Riad Omar Hotel restaurant"
    }
  },
  {
    "type": "node",
    "id": 3768087496,
    "lat": 31.627463,
    "lon": -7.9884092,
    "timestamp": "2019-08-06T09:02:58Z",
    "version": 2,
    "changeset": 73055524,
    "user": "thetornado76",
    "uid": 1624486,
    "tags": {
      "amenity": "restaurant",
      "cuisine": "moroccan",
      "name": "Cafe Chez ZaZa",
      "smoking": "outside",
      "takeaway": "no",
      "view": "Rooftop"
    }
  },
  {
    "type": "node",
    "id": 3774988251,
    "lat": 31.6425384,
    "lon": -8.0188211,
    "timestamp": "2020-12-26T10:57:12Z",
    "version": 2,
    "changeset": 96446875,
    "user": "PantherStrix",
    "uid": 1468248,
    "tags": {
      "amenity": "restaurant",
      "cuisine": "asian",
      "name": "Le Bol de Saigon"
    }
  },
  {
    "type": "node",
    "id": 3774988253,
    "lat": 31.6360115,
    "lon": -8.0157672,
    "timestamp": "2024-10-28T21:37:20Z",
    "version": 3,
    "changeset": 158475236,
    "user": "Claudius Henrichs",
    "uid": 18069,
    "tags": {
      "amenity": "restaurant",
      "cuisine": "moroccan",
      "name": "Le Colisee"
    }
  },
  {
    "type": "node",
    "id": 3774988254,
    "lat": 31.6380956,
    "lon": -8.0135958,
    "timestamp": "2015-10-06T13:11:15Z",
    "version": 1,
    "changeset": 34468833,
    "user": "seba85",
    "uid": 607947,
    "tags": {
      "amenity": "restaurant",
      "cuisine": "italian",
      "name": "Vita Nova"
    }
  },
  {
    "type": "node",
    "id": 3834505758,
    "lat": 31.6355095,
    "lon": -8.0152299,
    "timestamp": "2024-10-28T21:37:20Z",
    "version": 2,
    "changeset": 158475236,
    "user": "Claudius Henrichs",
    "uid": 18069,
    "tags": {
      "amenity": "restaurant",
      "cuisine": "moroccan",
      "name": "La Taverne"
    }
  },
  {
    "type": "node",
    "id": 3856130208,
    "lat": 31.6032701,
    "lon": -7.9514624,
    "timestamp": "2015-11-24T09:58:19Z",
    "version": 1,
    "changeset": 35546883,
    "user": "seba85",
    "uid": 607947,
    "tags": {
      "amenity": "restaurant"
    }
  },
  {
    "type": "node",
    "id": 3880421794,
    "lat": 31.6281147,
    "lon": -7.9918345,
    "timestamp": "2015-12-06T15:54:44Z",
    "version": 1,
    "changeset": 35788487,
    "user": "clwacker",
    "uid": 208020,
    "tags": {
      "addr:street": "Rue El Ksour, Derb El Messoudyenne",
      "amenity": "restaurant",
      "name": "Ksar Essaoussan",
      "phone": "+212 524 44 06 32",
      "website": "http://www.essaoussane.com"
    }
  },
  {
    "type": "node",
    "id": 3902670394,
    "lat": 31.6306685,
    "lon": -7.9864894,
    "timestamp": "2022-12-29T15:18:59Z",
    "version": 2,
    "changeset": 130650885,
    "user": "woolfesss",
    "uid": 16738479,
    "tags": {
      "amenity": "restaurant",
      "indoor_seating": "yes",
      "name": "Medina Saveurs",
      "outdoor_seating": "yes"
    }
  },
  {
    "type": "node",
    "id": 3902675106,
    "lat": 31.6281723,
    "lon": -7.9895846,
    "timestamp": "2017-03-02T19:35:33Z",
    "version": 2,
    "changeset": 46531153,
    "user": "Matthieu Gaudé",
    "uid": 538381,
    "tags": {
      "amenity": "restaurant",
      "cuisine": "arab;coffee_shop;moroccan",
      "internet_access": "wlan",
      "name": "Café Fnaque Berbere",
      "name:en": "Fnaque pub Berbere"
    }
  },
  {
    "type": "node",
    "id": 3965803310,
    "lat": 31.6265501,
    "lon": -8.2733674,
    "timestamp": "2023-08-10T13:05:59Z",
    "version": 2,
    "changeset": 139706454,
    "user": "pstng",
    "uid": 120926,
    "tags": {
      "amenity": "restaurant",
      "indoor_seating": "yes",
      "outdoor_seating": "yes"
    }
  },
  {
    "type": "node",
    "id": 3978377920,
    "lat": 31.6222903,
    "lon": -7.9863196,
    "timestamp": "2016-01-30T18:58:46Z",
    "version": 1,
    "changeset": 36903846,
    "user": "ecatmur",
    "uid": 352985,
    "tags": {
      "amenity": "restaurant",
      "name": "Dar es Salam"
    }
  },
  {
    "type": "node",
    "id": 4065506096,
    "lat": 31.6297335,
    "lon": -7.9905069,
    "timestamp": "2024-09-01T12:49:58Z",
    "version": 6,
    "changeset": 156052904,
    "user": "Fendoel",
    "uid": 378460,
    "tags": {
      "addr:city": "Marrakech",
      "addr:housenumber": "63",
      "addr:postcode": "40000",
      "addr:street": "Rue Sidi El Yamani",
      "amenity": "restaurant",
      "capacity": "50",
      "cuisine": "regionale_et_internationale",
      "description:en": "The restaurant is located in the central courtyard of a palace built in the 1920s",
      "name": "La table du Palais",
      "opening_hours": "Th-Tu 12:00-14:30,18:30-21:30",
      "phone": "+212 524385051",
      "smoking": "outside",
      "takeaway": "no",
      "website": "https://www.palaislamrani.com/"
    }
  },
  {
    "type": "node",
    "id": 4109806296,
    "lat": 31.6272127,
    "lon": -7.9878494,
    "timestamp": "2017-02-15T12:58:50Z",
    "version": 2,
    "changeset": 46106125,
    "user": "Зелёный Кошак",
    "uid": 362126,
    "tags": {
      "amenity": "restaurant",
      "name": "Guerrab"
    }
  },
  {
    "type": "node",
    "id": 4144584389,
    "lat": 31.6290615,
    "lon": -7.9875634,
    "timestamp": "2016-04-24T15:10:08Z",
    "version": 1,
    "changeset": 38835522,
    "user": "Teun Janssen",
    "uid": 3870524,
    "tags": {
      "amenity": "restaurant",
      "name": "Café Bakshish"
    }
  },
  {
    "type": "node",
    "id": 4159086789,
    "lat": 31.6326246,
    "lon": -7.9884564,
    "timestamp": "2020-09-06T23:00:04Z",
    "version": 3,
    "changeset": 90495266,
    "user": "Zandu",
    "uid": 7605410,
    "tags": {
      "amenity": "restaurant",
      "changing_table": "no",
      "name": "Atay Cafe Food",
      "toilets": "unisex",
      "toilets:wheelchair": "no"
    }
  },
  {
    "type": "node",
    "id": 4159103989,
    "lat": 31.6267829,
    "lon": -7.9862666,
    "timestamp": "2019-11-19T15:11:10Z",
    "version": 3,
    "changeset": 77279778,
    "user": "SHAGALOV",
    "uid": 5528391,
    "tags": {
      "amenity": "restaurant",
      "internet_access": "wlan",
      "name": "Roti D'or",
      "opening_hours": "Mo-Su 12:00-16:30, 18:30-21:00"
    }
  },
  {
    "type": "node",
    "id": 4312350315,
    "lat": 31.6315541,
    "lon": -8.0118249,
    "timestamp": "2016-07-20T09:37:41Z",
    "version": 1,
    "changeset": 40891932,
    "user": "Imcl11",
    "uid": 4290005,
    "tags": {
      "addr:housenumber": "84",
      "addr:street": "Avenue Hassan II",
      "amenity": "restaurant",
      "cuisine": "american;african;arab;asian",
      "name": "Amaia"
    }
  },
  {
    "type": "node",
    "id": 4312385398,
    "lat": 31.6129955,
    "lon": -7.9872485,
    "timestamp": "2018-06-02T15:15:28Z",
    "version": 2,
    "changeset": 59487869,
    "user": "Bernardo Gomes Marques",
    "uid": 8360501,
    "tags": {
      "addr:housenumber": "224",
      "addr:street": "Derb Chtouka",
      "amenity": "restaurant",
      "name": "Cafe clock",
      "name:en": "Café Clock",
      "opening_hours": "Mo-Su 09:00-22:00"
    }
  },
  {
    "type": "node",
    "id": 4314723591,
    "lat": 31.6309567,
    "lon": -8.004067,
    "timestamp": "2016-07-23T17:39:02Z",
    "version": 2,
    "changeset": 40976269,
    "user": "johnparis",
    "uid": 2126146,
    "tags": {
      "addr:street": "Rue Oum Errabia",
      "amenity": "restaurant",
      "cuisine": "asian",
      "name": "Katsura"
    }
  },
  {
    "type": "node",
    "id": 4352846303,
    "lat": 31.5881694,
    "lon": -8.0091691,
    "timestamp": "2019-04-19T20:51:42Z",
    "version": 2,
    "changeset": 69388971,
    "user": "ulrichm",
    "uid": 192829,
    "tags": {
      "amenity": "restaurant",
      "name": "various restsurants"
    }
  },
  {
    "type": "node",
    "id": 4374170590,
    "lat": 31.6325547,
    "lon": -8.0118035,
    "timestamp": "2017-05-08T16:22:03Z",
    "version": 2,
    "changeset": 48506563,
    "user": "johnparis",
    "uid": 2126146,
    "tags": {
      "amenity": "restaurant",
      "name": "Bahreya بحرية",
      "name:ar": "بحرية",
      "name:fr": "Bahreya"
    }
  },
  {
    "type": "node",
    "id": 4379761789,
    "lat": 31.6311433,
    "lon": -7.9884785,
    "timestamp": "2019-06-27T21:52:40Z",
    "version": 3,
    "changeset": 71687822,
    "user": "vbertola",
    "uid": 4347030,
    "tags": {
      "amenity": "restaurant",
      "name": "Beats Burger"
    }
  },
  {
    "type": "node",
    "id": 4425032095,
    "lat": 31.6315444,
    "lon": -8.0069639,
    "timestamp": "2018-05-24T19:06:05Z",
    "version": 2,
    "changeset": 59250657,
    "user": "Te-Ika",
    "uid": 3742941,
    "tags": {
      "addr:street": "Boulevard Mohammed V",
      "amenity": "restaurant",
      "name:en": "l'Adresse Café Restaurant"
    }
  },
  {
    "type": "node",
    "id": 4442221392,
    "lat": 31.6350578,
    "lon": -7.9953547,
    "timestamp": "2016-12-19T22:32:37Z",
    "version": 2,
    "changeset": 44526899,
    "user": "johnparis",
    "uid": 2126146,
    "tags": {
      "amenity": "restaurant",
      "name": "Latitude31"
    }
  },
  {
    "type": "node",
    "id": 4463287193,
    "lat": 31.6314736,
    "lon": -7.9866198,
    "timestamp": "2025-01-05T11:26:21Z",
    "version": 6,
    "changeset": 161016428,
    "user": "Terence Eden",
    "uid": 98672,
    "tags": {
      "addr:housenumber": "91",
      "addr:street": "Ibn Youssef",
      "amenity": "restaurant",
      "changing_table": "no",
      "cuisine": "arab",
      "diet:vegetarian": "yes",
      "email": "jad.jamal.resto@gmail.com",
      "internet_access": "wlan",
      "internet_access:fee": "no",
      "mobile": "0633396969",
      "name": "Jad jamal",
      "name:en": "Jad Jamal",
      "phone": "0524375623"
    }
  },
  {
    "type": "node",
    "id": 4486825290,
    "lat": 31.6259112,
    "lon": -7.9903183,
    "timestamp": "2024-06-03T13:55:37Z",
    "version": 7,
    "changeset": 152202193,
    "user": "Tobias235",
    "uid": 14827393,
    "tags": {
      "addr:city": "Marrakech",
      "addr:housenumber": "1",
      "addr:postcode": "40000",
      "addr:street": "Place Jamâa El Fna،",
      "amenity": "restaurant",
      "cuisine": "moroccan",
      "email": "marrakech@albaraka.to",
      "name": "Restaurant Al Baraka",
      "name:en": "Al Baraka Restaurant",
      "name:fr": "Restaurant Al Baraka",
      "opening_hours": "Mo-Su 10:00-15:00,19:00-23:00",
      "phone": "+212 5244-42341",
      "website": "https://www.albaraka-marrakech.com/"
    }
  },
  {
    "type": "node",
    "id": 4496526647,
    "lat": 31.6272777,
    "lon": -8.0170979,
    "timestamp": "2016-11-12T10:40:24Z",
    "version": 1,
    "changeset": 43578477,
    "user": "devincia1",
    "uid": 2949841,
    "tags": {
      "amenity": "restaurant",
      "name": "Azyr"
    }
  },
  {
    "type": "node",
    "id": 4509918789,
    "lat": 31.6351386,
    "lon": -7.9954689,
    "timestamp": "2020-09-06T23:02:12Z",
    "version": 4,
    "changeset": 90495299,
    "user": "Zandu",
    "uid": 7605410,
    "tags": {
      "amenity": "restaurant",
      "changing_table:location": "no",
      "highchair": "yes",
      "name": "Latitude31",
      "toilets": "unisex",
      "toilets:access": "customers",
      "toilets:wheelchair": "no"
    }
  },
  {
    "type": "node",
    "id": 4560946794,
    "lat": 31.635339,
    "lon": -7.9889649,
    "timestamp": "2016-12-19T02:09:57Z",
    "version": 1,
    "changeset": 44504966,
    "user": "Andrew Tam",
    "uid": 4987358,
    "tags": {
      "addr:housenumber": "40",
      "addr:postcode": "40030",
      "addr:street": "Avenue Dyour Saboun",
      "amenity": "restaurant",
      "cuisine": "moroccan;italian",
      "name:en": "I Limoni",
      "phone": "+212524383030"
    }
  },
  {
    "type": "node",
    "id": 4565739715,
    "lat": 31.6286777,
    "lon": -7.9874376,
    "timestamp": "2017-12-30T16:14:00Z",
    "version": 5,
    "changeset": 55038275,
    "user": "plumbley",
    "uid": 58298,
    "tags": {
      "addr:housenumber": "1",
      "addr:street": "Derb Aarjane",
      "amenity": "restaurant",
      "contact:email": "info@nomadmarrakech.com",
      "contact:phone": "+212 5 24 38 16 09",
      "contact:website": "https://nomadmarrakech.com",
      "name": "Nomad",
      "opening_hours": "Mo-Su 12:00-23:00",
      "wheelchair": "no"
    }
  },
  {
    "type": "node",
    "id": 4574167590,
    "lat": 31.6173077,
    "lon": -7.9829561,
    "timestamp": "2016-12-27T00:30:20Z",
    "version": 1,
    "changeset": 44694642,
    "user": "RashidaRichardson",
    "uid": 5027686,
    "tags": {
      "addr:housenumber": "108",
      "addr:street": "Rue de Berrima",
      "amenity": "restaurant",
      "name:en": "salt Marrakech"
    }
  },
  {
    "type": "node",
    "id": 4577270191,
    "lat": 31.6338422,
    "lon": -8.0094561,
    "timestamp": "2019-11-24T16:18:52Z",
    "version": 2,
    "changeset": 77486215,
    "user": "sissou",
    "uid": 13303,
    "tags": {
      "addr:housenumber": "66",
      "addr:street": "Rue Tariq Bnou Ziad",
      "amenity": "restaurant",
      "cuisine": "indian",
      "name": "India",
      "name:en": "INDIA restaurant in Marrakech",
      "phone": "212670526495"
    }
  },
  {
    "type": "node",
    "id": 4579789997,
    "lat": 31.627734,
    "lon": -7.9796759,
    "timestamp": "2016-12-29T17:09:02Z",
    "version": 1,
    "changeset": 44763035,
    "user": "Andreas Themessl",
    "uid": 4984040,
    "tags": {
      "amenity": "restaurant",
      "name": "Sidi Ydub"
    }
  },
  {
    "type": "node",
    "id": 4595262460,
    "lat": 31.6321254,
    "lon": -7.9926718,
    "timestamp": "2017-01-07T21:08:50Z",
    "version": 1,
    "changeset": 44988457,
    "user": "morray",
    "uid": 91790,
    "tags": {
      "amenity": "restaurant",
      "name": "Dar Mama"
    }
  },
  {
    "type": "node",
    "id": 4595262468,
    "lat": 31.6378043,
    "lon": -8.010163,
    "timestamp": "2017-01-07T21:08:57Z",
    "version": 1,
    "changeset": 44988457,
    "user": "morray",
    "uid": 91790,
    "tags": {
      "amenity": "restaurant",
      "name": "Dreamland"
    }
  },
  {
    "type": "node",
    "id": 4595262471,
    "lat": 31.6363054,
    "lon": -8.0118316,
    "timestamp": "2022-09-09T20:23:34Z",
    "version": 2,
    "changeset": 125995316,
    "user": "NovaVanta",
    "uid": 17014690,
    "tags": {
      "amenity": "restaurant",
      "cuisine": "japanese",
      "name": "Soto"
    }
  },
  {
    "type": "node",
    "id": 4595262853,
    "lat": 31.6284352,
    "lon": -7.9862501,
    "timestamp": "2020-08-09T21:56:49Z",
    "version": 3,
    "changeset": 89166741,
    "user": "G1asshouse",
    "uid": 8563184,
    "tags": {
      "amenity": "restaurant",
      "changing_table": "no",
      "internet_access": "wlan",
      "internet_access:fee": "no",
      "name": "Riad dar Timtam"
    }
  },
  {
    "type": "node",
    "id": 4595266655,
    "lat": 31.6349423,
    "lon": -7.9938415,
    "timestamp": "2017-01-07T21:09:28Z",
    "version": 1,
    "changeset": 44988457,
    "user": "morray",
    "uid": 91790,
    "tags": {
      "amenity": "restaurant"
    }
  },
  {
    "type": "node",
    "id": 4595268268,
    "lat": 31.6320699,
    "lon": -7.9841818,
    "timestamp": "2020-09-06T23:00:51Z",
    "version": 4,
    "changeset": 90495278,
    "user": "Zandu",
    "uid": 7605410,
    "tags": {
      "addr:city": "Marrakech",
      "addr:housenumber": "44",
      "addr:street": "Rue de Fassis",
      "amenity": "restaurant",
      "changing_table": "no",
      "cuisine": "moroccan",
      "email": "dartazi@outlook.fr",
      "internet_access": "wlan",
      "internet_access:fee": "no",
      "name": "Dar Tazi",
      "phone": "0524378382",
      "toilets": "unisex",
      "toilets:wheelchair": "no",
      "website": "www.restaurantdartazi.com"
    }
  },
  {
    "type": "node",
    "id": 4595269910,
    "lat": 31.629188,
    "lon": -7.9902862,
    "timestamp": "2025-01-04T14:44:21Z",
    "version": 6,
    "changeset": 160988560,
    "user": "SColchester",
    "uid": 2708355,
    "tags": {
      "addr:housenumber": "8",
      "addr:street": "Derb Chorfa Lakbir",
      "amenity": "restaurant",
      "changing_table": "no",
      "email": "cafelitterataire@marrakech-riads.com",
      "fee": "no",
      "indoor_seating": "yes",
      "name": "Dar Cherifa",
      "outdoor_seating": "no",
      "phone": "+212524426463",
      "shop": "books",
      "tourism": "gallery",
      "website": "https://darcherifa.com/",
      "wheelchair": "limited"
    }
  },
  {
    "type": "node",
    "id": 4598854191,
    "lat": 31.6374464,
    "lon": -7.9922645,
    "timestamp": "2017-01-13T14:27:21Z",
    "version": 2,
    "changeset": 45133696,
    "user": "johnparis",
    "uid": 2126146,
    "tags": {
      "amenity": "restaurant",
      "cuisine": "moroccan",
      "internet_access": "wlan",
      "name": "Dar Zellij",
      "name:fr": "Dar Zellij"
    }
  },
  {
    "type": "node",
    "id": 4694974090,
    "lat": 31.6320809,
    "lon": -7.9886628,
    "timestamp": "2022-05-24T21:05:28Z",
    "version": 4,
    "changeset": 121445473,
    "user": "Nithin Kumar Padavu",
    "uid": 420515,
    "tags": {
      "amenity": "restaurant",
      "cuisine": "breakfast;mediterranean;moroccan",
      "internet_access": "wlan",
      "name": "Le Jardin",
      "opening_hours": "Mo-Su 10:00-22:30",
      "phone": "+212524378295",
      "website": "https://lejardinmarrakech.com/"
    }
  },
  {
    "type": "node",
    "id": 4733306622,
    "lat": 31.620818,
    "lon": -7.9841361,
    "timestamp": "2018-03-17T21:56:12Z",
    "version": 4,
    "changeset": 57277211,
    "user": "courtieux",
    "uid": 437839,
    "tags": {
      "addr:postcode": "40000",
      "addr:street": "Rue Riad Zitoun El Jedid",
      "amenity": "restaurant",
      "cuisine": "regional",
      "name": "La Table de Marrakech",
      "phone": "212 524 78679"
    }
  },
  {
    "type": "node",
    "id": 4737093525,
    "lat": 31.6340804,
    "lon": -8.0110451,
    "timestamp": "2017-03-20T19:58:15Z",
    "version": 2,
    "changeset": 47021603,
    "user": "johnparis",
    "uid": 2126146,
    "tags": {
      "amenity": "restaurant",
      "name": "Central Food"
    }
  },
  {
    "type": "node",
    "id": 4751653224,
    "lat": 31.6326366,
    "lon": -8.0064482,
    "timestamp": "2020-11-24T01:06:46Z",
    "version": 3,
    "changeset": 94668480,
    "user": "MustafaQasim",
    "uid": 9535554,
    "tags": {
      "addr:city": "Marrakech",
      "addr:postcode": "40000",
      "addr:street": "Rue Badr / Av. des Nations Unies",
      "addr:suburb": "Gueliz",
      "alt_name": "ltachine",
      "amenity": "restaurant",
      "cuisine": "regional",
      "name": "l'tachine",
      "opening_hours": "Mo-Su 07:00-23:30",
      "phone": "+212 524 43 89 80",
      "website": "http://www.ltchine-restaurant.com/"
    }
  },
  {
    "type": "node",
    "id": 4751653225,
    "lat": 31.6321342,
    "lon": -8.0059735,
    "timestamp": "2020-11-24T01:06:46Z",
    "version": 3,
    "changeset": 94668480,
    "user": "MustafaQasim",
    "uid": 9535554,
    "tags": {
      "addr:city": "Marrakesch",
      "addr:housenumber": "32",
      "addr:street": "Rue Ibn Atya",
      "addr:suburb": "Gueliz",
      "amenity": "restaurant",
      "cuisine": "regional",
      "internet_access": "wlan",
      "internet_access:fee": "no",
      "name": "Eveil des Sens",
      "outdoor_seating": "yes",
      "phone": "+212 524 45 86 17",
      "website": "https://www.facebook.com/restauranteveildessens"
    }
  },
  {
    "type": "node",
    "id": 4768728421,
    "lat": 31.6255664,
    "lon": -7.9862179,
    "timestamp": "2018-11-30T21:44:58Z",
    "version": 2,
    "changeset": 65059000,
    "user": "Lorenz Simon",
    "uid": 7140429,
    "tags": {
      "addr:housenumber": "118",
      "addr:street": "Rue Kennaria",
      "amenity": "restaurant",
      "cuisine": "moroccan",
      "name": "Cuisine de terroir",
      "name:en": "Cuisine De Terroir",
      "phone": "0610193183"
    }
  },
  {
    "type": "node",
    "id": 4796441722,
    "lat": 31.6342595,
    "lon": -7.9907346,
    "timestamp": "2018-02-26T02:21:19Z",
    "version": 2,
    "changeset": 56675226,
    "user": "StreetSailor",
    "uid": 1950076,
    "tags": {
      "amenity": "restaurant",
      "name:en": "La Ferme"
    }
  },
  {
    "type": "node",
    "id": 4823130032,
    "lat": 31.6285094,
    "lon": -8.0075125,
    "timestamp": "2017-04-30T19:49:30Z",
    "version": 2,
    "changeset": 48291159,
    "user": "johnparis",
    "uid": 2126146,
    "tags": {
      "amenity": "restaurant",
      "delivery": "yes",
      "name": "SushiStore",
      "takeaway": "yes"
    }
  },
  {
    "type": "node",
    "id": 4823130033,
    "lat": 31.6284865,
    "lon": -8.0074857,
    "timestamp": "2017-04-30T19:49:30Z",
    "version": 2,
    "changeset": 48291159,
    "user": "johnparis",
    "uid": 2126146,
    "tags": {
      "amenity": "restaurant",
      "delivery": "yes",
      "name": "Billy's Burger",
      "takeaway": "yes"
    }
  },
  {
    "type": "node",
    "id": 4833655921,
    "lat": 31.6167981,
    "lon": -7.989288,
    "timestamp": "2018-10-22T10:19:25Z",
    "version": 2,
    "changeset": 63753564,
    "user": "johnparis",
    "uid": 2126146,
    "tags": {
      "amenity": "restaurant",
      "name": "Nid D'cigogne",
      "name:fr": "Nid D'cigogne"
    }
  },
  {
    "type": "node",
    "id": 4833660223,
    "lat": 31.629072,
    "lon": -8.0067162,
    "timestamp": "2019-04-07T20:18:46Z",
    "version": 3,
    "changeset": 68986144,
    "user": "casiosmu",
    "uid": 111555,
    "tags": {
      "amenity": "restaurant",
      "name": "La Grillardière",
      "name:fr": "La Grillardière"
    }
  },
  {
    "type": "node",
    "id": 4833661522,
    "lat": 31.6247356,
    "lon": -8.0035592,
    "timestamp": "2018-10-22T10:19:25Z",
    "version": 2,
    "changeset": 63753564,
    "user": "johnparis",
    "uid": 2126146,
    "tags": {
      "amenity": "restaurant",
      "name": "Mai Thai",
      "name:fr": "Mai Thai"
    }
  },
  {
    "type": "node",
    "id": 4839570433,
    "lat": 31.6327675,
    "lon": -8.0117013,
    "timestamp": "2017-05-08T16:20:59Z",
    "version": 2,
    "changeset": 48506540,
    "user": "johnparis",
    "uid": 2126146,
    "tags": {
      "amenity": "restaurant",
      "name": "Poissons"
    }
  },
  {
    "type": "node",
    "id": 4840996728,
    "lat": 31.6383766,
    "lon": -8.015952,
    "timestamp": "2017-05-08T06:21:36Z",
    "version": 1,
    "changeset": 48491732,
    "user": "Marco&Mare",
    "uid": 5797929,
    "tags": {
      "amenity": "restaurant",
      "name": "Plata Hai Boujemaa"
    }
  },
  {
    "type": "node",
    "id": 4840996947,
    "lat": 31.6169912,
    "lon": -7.9893991,
    "timestamp": "2017-05-08T06:21:33Z",
    "version": 1,
    "changeset": 48491732,
    "user": "Marco&Mare",
    "uid": 5797929,
    "tags": {
      "amenity": "restaurant",
      "name": "Nid'Cigogne"
    }
  },
  {
    "type": "node",
    "id": 4840996949,
    "lat": 31.6323235,
    "lon": -8.0132812,
    "timestamp": "2017-05-08T06:21:35Z",
    "version": 1,
    "changeset": 48491732,
    "user": "Marco&Mare",
    "uid": 5797929,
    "tags": {
      "amenity": "restaurant",
      "name": "Azar"
    }
  },
  {
    "type": "node",
    "id": 4851287123,
    "lat": 31.6324404,
    "lon": -7.9885322,
    "timestamp": "2023-10-06T00:36:10Z",
    "version": 3,
    "changeset": 142210449,
    "user": "b-jazz-bot",
    "uid": 9451067,
    "tags": {
      "addr:city": "Marrakech",
      "addr:housenumber": "12",
      "addr:street": "Rue Amsafah",
      "amenity": "restaurant",
      "drink:wine": "no",
      "internet_access": "wlan",
      "internet_access:fee": "no",
      "name": "Kui-Zin",
      "opening_hours": "Mo-Su 11:00-23:00",
      "phone": "+212 524390984;+212 653100088",
      "website": "https://www.kui-zin.com/"
    }
  },
  {
    "type": "node",
    "id": 4920585523,
    "lat": 31.6322134,
    "lon": -8.0115543,
    "timestamp": "2017-06-22T17:29:43Z",
    "version": 2,
    "changeset": 49752541,
    "user": "johnparis",
    "uid": 2126146,
    "tags": {
      "amenity": "restaurant"
    }
  },
  {
    "type": "node",
    "id": 4985131021,
    "lat": 31.6271132,
    "lon": -7.9871283,
    "timestamp": "2017-07-21T15:14:40Z",
    "version": 1,
    "changeset": 50461704,
    "user": "Hagenek",
    "uid": 5317237,
    "tags": {
      "amenity": "restaurant",
      "name": "Labachi"
    }
  },
  {
    "type": "node",
    "id": 5024570121,
    "lat": 31.6238326,
    "lon": -7.9897977,
    "timestamp": "2023-07-13T16:58:51Z",
    "version": 4,
    "changeset": 138472428,
    "user": "ironspock",
    "uid": 10728241,
    "tags": {
      "addr:housenumber": "20",
      "addr:street": "Rue Bani Marine",
      "amenity": "restaurant",
      "cuisine": "moroccan",
      "name": "Oscar Progrès",
      "opening_hours": "Mo-Su 12:00-23:00",
      "opening_hours:signed": "no"
    }
  },
  {
    "type": "node",
    "id": 5034065921,
    "lat": 31.6321689,
    "lon": -7.9858588,
    "timestamp": "2017-08-14T09:13:13Z",
    "version": 1,
    "changeset": 51104076,
    "user": "WyrM HS",
    "uid": 6480252,
    "tags": {
      "amenity": "restaurant",
      "name:es": "Terrasse la Medersa"
    }
  },
  {
    "type": "node",
    "id": 5050353450,
    "lat": 31.6275471,
    "lon": -7.9815133,
    "timestamp": "2017-08-22T08:22:43Z",
    "version": 1,
    "changeset": 51330007,
    "user": "cbeddow",
    "uid": 2611295,
    "tags": {
      "amenity": "restaurant",
      "cuisine": "pizza"
    }
  },
  {
    "type": "node",
    "id": 5054180378,
    "lat": 31.6366513,
    "lon": -8.0147879,
    "timestamp": "2017-08-23T16:29:44Z",
    "version": 1,
    "changeset": 51380771,
    "user": "cbeddow",
    "uid": 2611295,
    "tags": {
      "amenity": "restaurant",
      "cuisine": "regional",
      "name": "La Siréne"
    }
  },
  {
    "type": "node",
    "id": 5054180381,
    "lat": 31.6366413,
    "lon": -8.0152831,
    "timestamp": "2024-03-22T17:00:54Z",
    "version": 2,
    "changeset": 149022897,
    "user": "94621",
    "uid": 8225234,
    "tags": {
      "amenity": "restaurant",
      "cuisine": "regional",
      "name": "Agdal"
    }
  },
  {
    "type": "node",
    "id": 5054466172,
    "lat": 31.6364284,
    "lon": -8.0119782,
    "timestamp": "2017-08-23T18:58:30Z",
    "version": 1,
    "changeset": 51385163,
    "user": "cbeddow",
    "uid": 2611295,
    "tags": {
      "amenity": "restaurant",
      "cuisine": "thai",
      "name": "Le Petit Thai"
    }
  },
  {
    "type": "node",
    "id": 5054466176,
    "lat": 31.6351547,
    "lon": -8.0106506,
    "timestamp": "2017-08-23T18:58:31Z",
    "version": 1,
    "changeset": 51385163,
    "user": "cbeddow",
    "uid": 2611295,
    "tags": {
      "addr:housenumber": "44",
      "addr:street": "Rue Tariq Bnou Ziad",
      "amenity": "restaurant",
      "cuisine": "international",
      "name": "Cafe du Livre",
      "smoking": "yes"
    }
  },
  {
    "type": "node",
    "id": 5147530921,
    "lat": 31.6230215,
    "lon": -7.9903077,
    "timestamp": "2021-01-31T16:54:14Z",
    "version": 2,
    "changeset": 98457418,
    "user": "Jordan Mann",
    "uid": 1876487,
    "tags": {
      "amenity": "restaurant",
      "name:en": "PIK NIK"
    }
  },
  {
    "type": "node",
    "id": 5149635023,
    "lat": 31.6270278,
    "lon": -7.9876932,
    "timestamp": "2017-10-05T12:31:50Z",
    "version": 1,
    "changeset": 52653345,
    "user": "lostandfoundswifty",
    "uid": 5370562,
    "tags": {
      "addr:street": "Mechoui Alley",
      "amenity": "restaurant",
      "cuisine": "arab",
      "name": "Mechoui Alley",
      "name:en": "Lamb Alley, slow cooked lamb. Underground Oven. Mechoui Alley."
    }
  },
  {
    "type": "node",
    "id": 5194595563,
    "lat": 31.6320971,
    "lon": -7.9855182,
    "timestamp": "2019-07-30T02:59:34Z",
    "version": 3,
    "changeset": 72792196,
    "user": "HubMiner",
    "uid": 238419,
    "tags": {
      "addr:city": "Marrakech",
      "addr:housenumber": "39",
      "addr:postcode": "40000",
      "addr:street": "Derb Farnatchi",
      "amenity": "restaurant",
      "capacity": "75",
      "cuisine": "regional;international;Moroccan",
      "name": "Le Trou au Mur",
      "opening_hours": "18:00-00:00",
      "outdoor_seating": "yes",
      "takeaway": "no"
    }
  },
  {
    "type": "node",
    "id": 5214856821,
    "lat": 31.6228783,
    "lon": -7.9846187,
    "timestamp": "2018-05-06T06:43:35Z",
    "version": 2,
    "changeset": 58722083,
    "user": "MatthiasMatthias",
    "uid": 579262,
    "tags": {
      "addr:housenumber": "42",
      "addr:postcode": "40000",
      "addr:street": "Rue Riad Zitoun El Jedid",
      "amenity": "restaurant",
      "name": "La famille, Cantine au Jardin",
      "opening_hours": "Tu-Su 12:00-17:00",
      "phone": "+212 524 385 295"
    }
  },
  {
    "type": "node",
    "id": 5250392722,
    "lat": 31.6275236,
    "lon": -7.9840566,
    "timestamp": "2017-11-27T14:09:40Z",
    "version": 1,
    "changeset": 54123063,
    "user": "adrumillon",
    "uid": 5780790,
    "tags": {
      "amenity": "restaurant",
      "name": "Cafe Restaurant Dabachi"
    }
  },
  {
    "type": "node",
    "id": 5250404522,
    "lat": 31.6334384,
    "lon": -8.0136846,
    "timestamp": "2017-11-27T14:11:33Z",
    "version": 1,
    "changeset": 54123093,
    "user": "adrumillon",
    "uid": 5780790,
    "tags": {
      "amenity": "restaurant",
      "name": "Delices Strouza"
    }
  },
  {
    "type": "node",
    "id": 5250411821,
    "lat": 31.6366979,
    "lon": -8.012379,
    "timestamp": "2017-11-27T14:13:16Z",
    "version": 1,
    "changeset": 54123136,
    "user": "adrumillon",
    "uid": 5780790,
    "tags": {
      "amenity": "restaurant",
      "name": "Snacking Delyse"
    }
  },
  {
    "type": "node",
    "id": 5288597707,
    "lat": 31.6229886,
    "lon": -7.9897603,
    "timestamp": "2017-12-16T23:54:09Z",
    "version": 1,
    "changeset": 54692982,
    "user": "johnparis",
    "uid": 2126146,
    "tags": {
      "addr:city": "Marrakech",
      "addr:street": "rue Bab Agnaou",
      "amenity": "restaurant",
      "name": "Café Snack Bab Agnaou"
    }
  },
  {
    "type": "node",
    "id": 5298556521,
    "lat": 31.6232663,
    "lon": -7.9848375,
    "timestamp": "2017-12-22T00:32:39Z",
    "version": 1,
    "changeset": 54829607,
    "user": "Mouksit Jhd",
    "uid": 5616535,
    "tags": {
      "amenity": "restaurant",
      "name": "Black&Chich",
      "name:en": "Black&chich"
    }
  },
  {
    "type": "node",
    "id": 5323262943,
    "lat": 31.6261933,
    "lon": -8.0199193,
    "timestamp": "2018-01-06T07:27:02Z",
    "version": 1,
    "changeset": 55204479,
    "user": "rabon",
    "uid": 1972608,
    "tags": {
      "amenity": "restaurant",
      "name": "Restaurant Café Manal"
    }
  },
  {
    "type": "node",
    "id": 5382888226,
    "lat": 31.6395216,
    "lon": -8.0199162,
    "timestamp": "2018-02-03T13:13:00Z",
    "version": 1,
    "changeset": 56028813,
    "user": "Pitou VDW",
    "uid": 7539594,
    "tags": {
      "amenity": "restaurant",
      "name": "La cuisine de Mona",
      "name:en": "Mona's Kitchen"
    }
  },
  {
    "type": "node",
    "id": 5451227722,
    "lat": 31.6269407,
    "lon": -7.9862982,
    "timestamp": "2019-11-19T15:11:10Z",
    "version": 3,
    "changeset": 77279778,
    "user": "SHAGALOV",
    "uid": 5528391,
    "tags": {
      "amenity": "restaurant",
      "cuisine": "moroccan",
      "diet:vegetarian": "yes",
      "internet_access": "wlan",
      "name:en": "Corner Cafe"
    }
  },
  {
    "type": "node",
    "id": 5455210621,
    "lat": 31.627549,
    "lon": -7.9818839,
    "timestamp": "2018-03-04T21:17:16Z",
    "version": 1,
    "changeset": 56882221,
    "user": "myxor",
    "uid": 1183974,
    "tags": {
      "amenity": "restaurant",
      "cuisine": "pizza",
      "name": "Pizzeria Jannat Medina"
    }
  },
  {
    "type": "node",
    "id": 5456758965,
    "lat": 31.6277559,
    "lon": -7.9834013,
    "timestamp": "2018-03-05T13:10:30Z",
    "version": 1,
    "changeset": 56902919,
    "user": "myxor",
    "uid": 1183974,
    "tags": {
      "amenity": "restaurant",
      "name": "Dar Touria"
    }
  },
  {
    "type": "node",
    "id": 5457502436,
    "lat": 31.6261959,
    "lon": -7.9866357,
    "timestamp": "2024-06-02T13:32:30Z",
    "version": 3,
    "changeset": 152160150,
    "user": "adster546",
    "uid": 18624923,
    "tags": {
      "amenity": "restaurant",
      "internet_access": "wlan",
      "name": "Cafe Snack Badouck"
    }
  },
  {
    "type": "node",
    "id": 5459363988,
    "lat": 31.5558488,
    "lon": -7.976017,
    "timestamp": "2018-03-06T13:46:15Z",
    "version": 1,
    "changeset": 56936399,
    "user": "myxor",
    "uid": 1183974,
    "tags": {
      "amenity": "restaurant"
    }
  },
  {
    "type": "node",
    "id": 5459365228,
    "lat": 31.5883264,
    "lon": -7.9846565,
    "timestamp": "2018-03-06T13:46:19Z",
    "version": 1,
    "changeset": 56936399,
    "user": "myxor",
    "uid": 1183974,
    "tags": {
      "amenity": "restaurant"
    }
  },
  {
    "type": "node",
    "id": 5527210121,
    "lat": 31.6327385,
    "lon": -7.9888481,
    "timestamp": "2024-07-05T12:30:07Z",
    "version": 4,
    "changeset": 153586938,
    "user": "manahel mahmedfaruok nazmi",
    "uid": 16906094,
    "tags": {
      "addr:street": "Rue Riad Laarous",
      "amenity": "restaurant",
      "cuisine": "moroccan",
      "internet_access": "wlan",
      "name": "La Terrasse Ben Youssef",
      "name:en": "La Terrasse Ben Youssef",
      "name:fr": "La Terrasse Ben Youssef"
    }
  },
  {
    "type": "node",
    "id": 5529573324,
    "lat": 31.6318726,
    "lon": -8.011507,
    "timestamp": "2020-11-24T01:06:46Z",
    "version": 3,
    "changeset": 94668480,
    "user": "MustafaQasim",
    "uid": 9535554,
    "tags": {
      "addr:postcode": "40000",
      "addr:street": "Rue Mauritanie",
      "amenity": "restaurant",
      "cuisine": "moroccan;barbecue;chicken;arab;breakfast;coffee_shop;diner;grill;kebab;local;regional;soba",
      "diet:vegan": "yes",
      "diet:vegetarian": "yes",
      "name": "عند حسن",
      "name:ar": "عند حسن",
      "name:en": "chez Hassan",
      "opening_hours": "24/7",
      "operator": "Bihi"
    }
  },
  {
    "type": "node",
    "id": 5529573326,
    "lat": 31.6312148,
    "lon": -8.0119426,
    "timestamp": "2022-12-26T21:40:58Z",
    "version": 3,
    "changeset": 130531806,
    "user": "Kristjan ESPERANTO",
    "uid": 77904,
    "tags": {
      "addr:postcode": "40000",
      "addr:street": "Avenue Hassan II",
      "amenity": "restaurant",
      "cuisine": "american;arab;asian;barbecue;breakfast;burger;cake;chicken;coffee_shop;crepe;curry;diner;donut;oriental;fish;french;friture;hotdog;international;italian;italian_pizza;kebab;moroccan;pizza;sandwich;sausage;spanish;tea",
      "diet:vegan": "yes",
      "diet:vegetarian": "yes",
      "internet_access": "wlan",
      "name": "Bistro La Comedie",
      "opening_hours": "Mo-Su 06:00-00:00",
      "operator": "Alae",
      "phone": "+212 658 699685"
    }
  },
  {
    "type": "node",
    "id": 5579241530,
    "lat": 31.6269053,
    "lon": -7.9869355,
    "timestamp": "2018-04-25T21:16:31Z",
    "version": 1,
    "changeset": 58423169,
    "user": "MatthiasMatthias",
    "uid": 579262,
    "tags": {
      "amenity": "restaurant",
      "name": "Café Kessabine Medina",
      "phone": "0665293796"
    }
  },
  {
    "type": "node",
    "id": 5579242304,
    "lat": 31.6271152,
    "lon": -7.9870872,
    "timestamp": "2018-04-25T21:16:30Z",
    "version": 1,
    "changeset": 58423169,
    "user": "MatthiasMatthias",
    "uid": 579262,
    "tags": {
      "amenity": "restaurant",
      "name": "Café Kessabine"
    }
  },
  {
    "type": "node",
    "id": 5593396921,
    "lat": 31.6268208,
    "lon": -8.0159257,
    "timestamp": "2022-12-26T21:40:32Z",
    "version": 4,
    "changeset": 130531792,
    "user": "Kristjan ESPERANTO",
    "uid": 77904,
    "tags": {
      "addr:housenumber": "1",
      "addr:postcode": "40 000",
      "addr:street": "Rue Abou Bakr Seddik",
      "amenity": "restaurant",
      "cuisine": "french;asian;american;crepe;ice_cream;coffee_shop;barbecue;international;italian;moroccan;oriental;thai;curry;seafood;friture;grill;cake;steak_house;burger;italian_pizza;breakfast;pizza;chicken;pasta;fish;sandwich;tea;tapas",
      "diet:vegetarian": "yes",
      "email": "newscafemarrakech@gmail.com",
      "internet_access": "wlan",
      "name": "News Café نيوز كافيه",
      "name:ar": "نيوز كافيه",
      "name:en": "News Café",
      "name:fr": "News Café",
      "opening_hours": "Mo-Su 08:00-00:00",
      "phone": "+212 5244 49999"
    }
  },
  {
    "type": "node",
    "id": 5632919455,
    "lat": 31.623924,
    "lon": -7.9891654,
    "timestamp": "2018-05-21T15:42:41Z",
    "version": 1,
    "changeset": 59154755,
    "user": "Mateusz Konieczny",
    "uid": 1722488,
    "tags": {
      "amenity": "restaurant",
      "name": "Snack Amir"
    }
  },
  {
    "type": "node",
    "id": 5636095022,
    "lat": 31.6297986,
    "lon": -8.0188424,
    "timestamp": "2018-05-22T21:55:49Z",
    "version": 1,
    "changeset": 59193416,
    "user": "łapa ciemności",
    "uid": 4665784,
    "tags": {
      "amenity": "restaurant",
      "name": "Restaurail"
    }
  },
  {
    "type": "node",
    "id": 5636104721,
    "lat": 31.6301185,
    "lon": -8.012529,
    "timestamp": "2018-05-22T21:55:47Z",
    "version": 1,
    "changeset": 59193416,
    "user": "łapa ciemności",
    "uid": 4665784,
    "tags": {
      "amenity": "restaurant",
      "name": "Bali"
    }
  },
  {
    "type": "node",
    "id": 5639855511,
    "lat": 31.6315007,
    "lon": -7.9942972,
    "timestamp": "2018-05-24T13:50:17Z",
    "version": 1,
    "changeset": 59242607,
    "user": "timmmichaud",
    "uid": 4213591,
    "tags": {
      "addr:city": "Marrakech",
      "addr:housenumber": "218",
      "addr:street": "Arset Aouzal",
      "amenity": "restaurant",
      "cuisine": "french;mediterranean;moroccan",
      "name": "Le Comptoir du Pacha",
      "phone": "+212 524 38 39 16",
      "website": "http://www.lecomptoirdupacha.com"
    }
  },
  {
    "type": "node",
    "id": 5640112827,
    "lat": 31.6245633,
    "lon": -7.9894524,
    "timestamp": "2018-05-24T16:26:41Z",
    "version": 1,
    "changeset": 59246436,
    "user": "łapa ciemności",
    "uid": 4665784,
    "tags": {
      "amenity": "restaurant"
    }
  },
  {
    "type": "node",
    "id": 5640112829,
    "lat": 31.6245374,
    "lon": -7.985213,
    "timestamp": "2023-11-15T10:12:50Z",
    "version": 11,
    "changeset": 144044951,
    "user": "osminng",
    "uid": 20448644,
    "tags": {
      "addr:housenumber": "84",
      "addr:postcode": "40000",
      "addr:street": "Rue Riad Zitoun El Jedid",
      "amenity": "restaurant",
      "check_date": "2023-03-27",
      "contact:facebook": "100050344039879",
      "contact:instagram": "naranj_marrakech",
      "cuisine": "lebanese",
      "diet:vegan": "yes",
      "diet:vegetarian": "yes",
      "email": "office@naranj.ma",
      "internet_access": "wlan",
      "internet_access:fee": "customers",
      "name": "Naranj Libanese",
      "opening_hours": "Mo-Sa 12:30-22:30",
      "phone": "+212 524 386 805;+212 602 439 515;+212 635 902 704",
      "website": "http://www.naranj.ma/"
    }
  },
  {
    "type": "node",
    "id": 5640115921,
    "lat": 31.624074,
    "lon": -7.9850545,
    "timestamp": "2018-05-24T16:26:57Z",
    "version": 1,
    "changeset": 59246436,
    "user": "łapa ciemności",
    "uid": 4665784,
    "tags": {
      "amenity": "restaurant"
    }
  },
  {
    "type": "node",
    "id": 5641904101,
    "lat": 31.6577297,
    "lon": -8.0157495,
    "timestamp": "2021-03-12T00:54:05Z",
    "version": 2,
    "changeset": 100870110,
    "user": "DNA FR",
    "uid": 12829014,
    "tags": {
      "addr:street": "Avenue 18 Novembre",
      "amenity": "restaurant",
      "name": "Ayman",
      "source": "Kaart Ground Survey 2018"
    }
  },
  {
    "type": "node",
    "id": 5652517722,
    "lat": 31.6221941,
    "lon": -7.9878179,
    "timestamp": "2018-05-30T21:43:37Z",
    "version": 1,
    "changeset": 59411114,
    "user": "CmdrChakotay",
    "uid": 4441456,
    "tags": {
      "amenity": "restaurant",
      "cuisine": "moroccan",
      "name": "Dar Nejjarine"
    }
  },
  {
    "type": "node",
    "id": 5658595924,
    "lat": 31.622221,
    "lon": -7.9877593,
    "timestamp": "2018-06-02T12:30:03Z",
    "version": 1,
    "changeset": 59484441,
    "user": "CmdrChakotay",
    "uid": 4441456,
    "tags": {
      "amenity": "restaurant",
      "cuisine": "moroccan"
    }
  },
  {
    "type": "node",
    "id": 5658600821,
    "lat": 31.622218,
    "lon": -7.9877946,
    "timestamp": "2018-06-02T12:30:02Z",
    "version": 1,
    "changeset": 59484441,
    "user": "CmdrChakotay",
    "uid": 4441456,
    "tags": {
      "amenity": "restaurant"
    }
  },
  {
    "type": "node",
    "id": 5669924550,
    "lat": 31.6276062,
    "lon": -8.0070423,
    "timestamp": "2018-06-06T14:50:39Z",
    "version": 1,
    "changeset": 59605254,
    "user": "Corban8",
    "uid": 4240913,
    "tags": {
      "addr:street": "Rue Imam Chaffii",
      "amenity": "restaurant",
      "name": "Salad Box",
      "source": "Kaart Ground Survey 2018"
    }
  },
  {
    "type": "node",
    "id": 5670648284,
    "lat": 31.6279659,
    "lon": -8.0064878,
    "timestamp": "2018-06-06T21:04:22Z",
    "version": 1,
    "changeset": 59615131,
    "user": "Corban8",
    "uid": 4240913,
    "tags": {
      "addr:street": "Rue Moulay el Hassan",
      "amenity": "restaurant",
      "name": "Restaurant Orgnaza",
      "source": "Kaart Ground Survey 2018"
    }
  },
  {
    "type": "node",
    "id": 5724312323,
    "lat": 31.587415,
    "lon": -8.0448596,
    "timestamp": "2018-06-28T00:23:36Z",
    "version": 1,
    "changeset": 60231583,
    "user": "Robert86us",
    "uid": 6533292,
    "tags": {
      "amenity": "restaurant",
      "name": "Rayhane Snack & Pizzeria"
    }
  },
  {
    "type": "node",
    "id": 5724312332,
    "lat": 31.5904869,
    "lon": -8.0460102,
    "timestamp": "2018-06-28T00:23:37Z",
    "version": 1,
    "changeset": 60231583,
    "user": "Robert86us",
    "uid": 6533292,
    "tags": {
      "amenity": "restaurant",
      "name": "Snack Oussama"
    }
  },
  {
    "type": "node",
    "id": 5726036957,
    "lat": 31.5879685,
    "lon": -8.0498278,
    "timestamp": "2018-06-28T15:00:03Z",
    "version": 1,
    "changeset": 60251878,
    "user": "Robert86us",
    "uid": 6533292,
    "tags": {
      "amenity": "restaurant",
      "name": "Snack Doha"
    }
  },
  {
    "type": "node",
    "id": 5726153622,
    "lat": 31.6030747,
    "lon": -8.0137407,
    "timestamp": "2018-06-28T15:57:22Z",
    "version": 1,
    "changeset": 60253530,
    "user": "Robert86us",
    "uid": 6533292,
    "tags": {
      "amenity": "restaurant",
      "name": "Restaurant K Marrakech"
    }
  },
  {
    "type": "node",
    "id": 5726153623,
    "lat": 31.6006806,
    "lon": -8.0173027,
    "timestamp": "2018-06-28T15:57:22Z",
    "version": 1,
    "changeset": 60253530,
    "user": "Robert86us",
    "uid": 6533292,
    "tags": {
      "amenity": "restaurant",
      "name": "Myah Bay"
    }
  },
  {
    "type": "node",
    "id": 5730397699,
    "lat": 31.6409811,
    "lon": -8.0150729,
    "timestamp": "2024-08-28T09:39:41Z",
    "version": 3,
    "changeset": 155870567,
    "user": "nona mostafa",
    "uid": 9515203,
    "tags": {
      "amenity": "restaurant",
      "name": "CosaMia"
    }
  },
  {
    "type": "node",
    "id": 5882990385,
    "lat": 31.624715,
    "lon": -8.0044537,
    "timestamp": "2018-09-04T21:46:39Z",
    "version": 1,
    "changeset": 62292886,
    "user": "Ju Vin",
    "uid": 5637689,
    "tags": {
      "addr:postcode": "40000",
      "addr:street": "Rue Ahmed Chaouqi",
      "amenity": "restaurant",
      "name": "Lotus Club Marrakech"
    }
  },
  {
    "type": "node",
    "id": 5899238460,
    "lat": 31.6307949,
    "lon": -7.9870581,
    "timestamp": "2018-09-11T12:13:26Z",
    "version": 1,
    "changeset": 62486486,
    "user": "Larifari77",
    "uid": 423330,
    "tags": {
      "amenity": "restaurant"
    }
  },
  {
    "type": "node",
    "id": 5907294385,
    "lat": 31.6348276,
    "lon": -7.9911272,
    "timestamp": "2018-09-14T22:49:44Z",
    "version": 1,
    "changeset": 62597839,
    "user": "Ella Foster",
    "uid": 8646152,
    "tags": {
      "amenity": "restaurant",
      "name:en": "Dar el walidine"
    }
  },
  {
    "type": "node",
    "id": 5941333185,
    "lat": 31.6267399,
    "lon": -7.9862537,
    "timestamp": "2018-09-30T20:21:33Z",
    "version": 1,
    "changeset": 63075066,
    "user": "Schwammerhans",
    "uid": 6434329,
    "tags": {
      "amenity": "restaurant",
      "name:en": "Roti D'or"
    }
  },
  {
    "type": "node",
    "id": 5941333285,
    "lat": 31.6251535,
    "lon": -7.9923876,
    "timestamp": "2018-09-30T20:21:34Z",
    "version": 1,
    "changeset": 63075066,
    "user": "Schwammerhans",
    "uid": 6434329,
    "tags": {
      "amenity": "restaurant",
      "name:en": "Cafe Kif-Kif"
    }
  },
  {
    "type": "node",
    "id": 5979144385,
    "lat": 31.6306241,
    "lon": -7.9862296,
    "timestamp": "2019-06-13T15:23:34Z",
    "version": 2,
    "changeset": 71222685,
    "user": "mapman44",
    "uid": 2888253,
    "tags": {
      "addr:postcode": "40000",
      "addr:street": "Kaat Benahid",
      "amenity": "restaurant",
      "diet:vegetarian": "yes",
      "name:en": "Green Vegetarian",
      "opening_hours": "Mo-Su 10:00-22:00"
    }
  },
  {
    "type": "node",
    "id": 5985332688,
    "lat": 31.6351888,
    "lon": -8.0156887,
    "timestamp": "2018-10-15T12:47:15Z",
    "version": 1,
    "changeset": 63541073,
    "user": "Kristen Daniels",
    "uid": 8955190,
    "tags": {
      "addr:postcode": "40000",
      "amenity": "restaurant",
      "name:en": "+61"
    }
  },
  {
    "type": "node",
    "id": 5985366187,
    "lat": 31.635162,
    "lon": -8.015502,
    "timestamp": "2018-10-15T12:47:15Z",
    "version": 1,
    "changeset": 63541073,
    "user": "Kristen Daniels",
    "uid": 8955190,
    "tags": {
      "addr:postcode": "40000",
      "amenity": "restaurant",
      "name:en": "+61"
    }
  },
  {
    "type": "node",
    "id": 5995644188,
    "lat": 31.6205064,
    "lon": -7.9858588,
    "timestamp": "2018-10-18T13:43:10Z",
    "version": 1,
    "changeset": 63645514,
    "user": "Holly1",
    "uid": 94025,
    "tags": {
      "amenity": "restaurant",
      "name": "Dar Anika"
    }
  },
  {
    "type": "node",
    "id": 6005696785,
    "lat": 31.6336801,
    "lon": -8.0124917,
    "timestamp": "2018-10-22T19:19:12Z",
    "version": 1,
    "changeset": 63770261,
    "user": "Kristen Daniels",
    "uid": 8955190,
    "tags": {
      "addr:housenumber": "76",
      "addr:street": "Boulevard el Mansour Eddahbi",
      "amenity": "restaurant",
      "name:en": "Some Slow Concept Store"
    }
  },
  {
    "type": "node",
    "id": 6012940885,
    "lat": 31.623416,
    "lon": -7.9900065,
    "timestamp": "2018-10-25T14:20:44Z",
    "version": 1,
    "changeset": 63869348,
    "user": "Simon Käsermann",
    "uid": 3508344,
    "tags": {
      "amenity": "restaurant",
      "name:en": "Adam"
    }
  },
  {
    "type": "node",
    "id": 6017330519,
    "lat": 31.6232845,
    "lon": -7.9867068,
    "timestamp": "2024-10-13T08:26:23Z",
    "version": 2,
    "changeset": 157824108,
    "user": "Claudius Henrichs",
    "uid": 18069,
    "tags": {
      "amenity": "restaurant",
      "cuisine": "moroccan",
      "name": "Restaurant Mimoun"
    }
  },
  {
    "type": "node",
    "id": 6077264822,
    "lat": 31.6173944,
    "lon": -7.990067,
    "timestamp": "2018-11-20T19:35:54Z",
    "version": 1,
    "changeset": 64711955,
    "user": "Hooloovoo",
    "uid": 19630,
    "tags": {
      "addr:housenumber": "14",
      "addr:street": "derb el hajra",
      "amenity": "restaurant",
      "name": "La Table de la Kasbah",
      "phone": "+212524389439"
    }
  },
  {
    "type": "node",
    "id": 6116774546,
    "lat": 31.6269724,
    "lon": -7.987707,
    "timestamp": "2018-12-04T19:51:37Z",
    "version": 1,
    "changeset": 65172568,
    "user": "OpusTerra",
    "uid": 1764718,
    "tags": {
      "amenity": "restaurant",
      "name": "Chez Lamine Hadj"
    }
  },
  {
    "type": "node",
    "id": 6156085689,
    "lat": 31.6274041,
    "lon": -7.9846585,
    "timestamp": "2018-12-23T14:16:33Z",
    "version": 1,
    "changeset": 65716278,
    "user": "Christoph Windhövel",
    "uid": 8361322,
    "tags": {
      "amenity": "restaurant",
      "cuisine": "moroccan",
      "internet_access": "wlan",
      "name:en": "Andalus"
    }
  },
  {
    "type": "node",
    "id": 6159010085,
    "lat": 31.6292209,
    "lon": -7.9866029,
    "timestamp": "2021-03-14T12:13:10Z",
    "version": 2,
    "changeset": 100986680,
    "user": "Traktorbek",
    "uid": 7370308,
    "tags": {
      "amenity": "restaurant",
      "internet_access": "wlan",
      "name": "Shtatto",
      "name:en": "Shtatto"
    }
  },
  {
    "type": "node",
    "id": 6181040385,
    "lat": 31.617604,
    "lon": -7.9898773,
    "timestamp": "2022-12-31T07:33:37Z",
    "version": 3,
    "changeset": 130710965,
    "user": "tangogolf",
    "uid": 5116174,
    "tags": {
      "addr:housenumber": "14",
      "addr:postcode": "40000",
      "addr:street": "Bab Agnou",
      "amenity": "restaurant",
      "cuisine": "moroccan",
      "internet_access": "wlan",
      "name:en": "Zeitoun Café Kasbah",
      "name:fr": "Zeitoun Café Kasbah",
      "opening_hours": "Mo-Su 09:00-01:00",
      "phone": "+212 5244-44244",
      "website": "https://www.zeitouncafe.com/"
    }
  },
  {
    "type": "node",
    "id": 6181963785,
    "lat": 31.6325485,
    "lon": -8.011723,
    "timestamp": "2019-01-03T20:43:08Z",
    "version": 1,
    "changeset": 66001289,
    "user": "theskywalker",
    "uid": 2234150,
    "tags": {
      "addr:housenumber": "75",
      "addr:street": "Boulevard Moulay Rachid",
      "amenity": "restaurant",
      "cuisine": "fish;moroccan",
      "name": "El Bahriya",
      "name:en": "Snack al-Bahriya",
      "phone": "0766778172"
    }
  },
  {
    "type": "node",
    "id": 6188520685,
    "lat": 31.6291276,
    "lon": -8.0052925,
    "timestamp": "2019-01-06T20:27:37Z",
    "version": 1,
    "changeset": 66079720,
    "user": "Paulius Mielinis",
    "uid": 5741372,
    "tags": {
      "amenity": "restaurant",
      "name": "Djelabar"
    }
  },
  {
    "type": "node",
    "id": 6188520785,
    "lat": 31.6217997,
    "lon": -7.9862192,
    "timestamp": "2024-03-25T18:08:10Z",
    "version": 6,
    "changeset": 149143512,
    "user": "w_oertl",
    "uid": 40341,
    "tags": {
      "addr:housenumber": "12",
      "addr:postcode": "40040",
      "addr:street": "Riad Zitoun Lakdim رياض الزيتون القديم",
      "amenity": "restaurant",
      "cuisine": "arab;diner;fine_dining;moroccan;regional",
      "diet:vegan": "yes",
      "diet:vegetarian": "yes",
      "name": "Koulchi Zine - Rooftop Restaurant",
      "opening_hours": "Mo-Su 11:00-23:00",
      "phone": "05243-77580",
      "website": "https://koulchizine.com/"
    }
  },
  {
    "type": "node",
    "id": 6192675386,
    "lat": 31.632008,
    "lon": -7.9924978,
    "timestamp": "2019-01-08T16:03:45Z",
    "version": 1,
    "changeset": 66132804,
    "user": "theskywalker",
    "uid": 2234150,
    "tags": {
      "amenity": "restaurant",
      "cuisine": "moroccan",
      "name": "L'atelier des Saveurs"
    }
  },
  {
    "type": "node",
    "id": 6196369689,
    "lat": 31.6397515,
    "lon": -8.0160334,
    "timestamp": "2020-06-15T20:02:19Z",
    "version": 4,
    "changeset": 86686030,
    "user": "OmSweetOm",
    "uid": 11073812,
    "tags": {
      "addr:housenumber": "7",
      "addr:street": "Rue Ibn Zaidoun",
      "amenity": "restaurant",
      "contact:facebook": "https://www.facebook.com/Bombay-Halal-Marrakech-1570524899857968/",
      "email": "indian.maroc@gmail.com",
      "name": "Bombay Halal",
      "opening_hours": "09:00-23:30",
      "phone": "+212 613 727 362; +212 699 39 43 39",
      "website": "http://bombaymarrakech.com"
    }
  },
  {
    "type": "node",
    "id": 6311278285,
    "lat": 31.6309613,
    "lon": -7.9869017,
    "timestamp": "2019-03-01T17:32:20Z",
    "version": 1,
    "changeset": 67693948,
    "user": "Rafael Raposo Pires",
    "uid": 4317402,
    "tags": {
      "amenity": "restaurant",
      "name:en": "Falafel Mohamed Salama"
    }
  },
  {
    "type": "node",
    "id": 6311657985,
    "lat": 31.6260548,
    "lon": -7.9866615,
    "timestamp": "2019-03-01T21:06:08Z",
    "version": 1,
    "changeset": 67700218,
    "user": "Rafael Raposo Pires",
    "uid": 4317402,
    "tags": {
      "amenity": "restaurant",
      "name": "Dar Pastilla"
    }
  },
  {
    "type": "node",
    "id": 6316902186,
    "lat": 31.625692,
    "lon": -7.9878371,
    "timestamp": "2022-12-18T17:20:44Z",
    "version": 2,
    "changeset": 130219141,
    "user": "R3gi",
    "uid": 873469,
    "tags": {
      "amenity": "restaurant",
      "internet_access": "wlan",
      "name": "Taj'inDarna"
    }
  },
  {
    "type": "node",
    "id": 6316910185,
    "lat": 31.6305986,
    "lon": -7.9863879,
    "timestamp": "2024-09-29T20:16:03Z",
    "version": 2,
    "changeset": 157269821,
    "user": "Ver_de_terre",
    "uid": 12872975,
    "tags": {
      "amenity": "restaurant",
      "indoor_seating": "yes",
      "name": "Falafel",
      "outdoor_seating": "yes",
      "wifi": "yes"
    }
  },
  {
    "type": "node",
    "id": 6322847706,
    "lat": 31.6370832,
    "lon": -8.0140387,
    "timestamp": "2019-03-07T11:37:44Z",
    "version": 1,
    "changeset": 67879617,
    "user": "Stéphanie Chanson",
    "uid": 9507429,
    "tags": {
      "addr:postcode": "40000",
      "addr:street": "Rue Moulay Ali",
      "amenity": "restaurant",
      "name": "Baromètre Marrakech"
    }
  },
  {
    "type": "node",
    "id": 6331473086,
    "lat": 31.6409091,
    "lon": -8.0173079,
    "timestamp": "2019-03-11T17:50:05Z",
    "version": 1,
    "changeset": 68032337,
    "user": "Aleksandra Mar'ina",
    "uid": 9520257,
    "tags": {
      "addr:housenumber": "65",
      "addr:postcode": "40000",
      "addr:street": "Rue Mohammed el Bekal",
      "amenity": "restaurant",
      "name:en": "Plats Haj Boujemaa",
      "phone": "+212 5 24 42 18 62"
    }
  },
  {
    "type": "node",
    "id": 6338560785,
    "lat": 31.579898,
    "lon": -8.0272918,
    "timestamp": "2019-03-14T20:57:23Z",
    "version": 1,
    "changeset": 68151943,
    "user": "Peter Schalburg",
    "uid": 9531408,
    "tags": {
      "amenity": "restaurant",
      "name:en": "Grenadine, Ble de Gre"
    }
  },
  {
    "type": "node",
    "id": 6368733485,
    "lat": 31.6376961,
    "lon": -8.0132507,
    "timestamp": "2019-03-28T19:41:54Z",
    "version": 1,
    "changeset": 68641230,
    "user": "Spitfire31",
    "uid": 9573924,
    "tags": {
      "amenity": "restaurant",
      "name:de": "Restaurant Libzar"
    }
  },
  {
    "type": "node",
    "id": 6372916285,
    "lat": 31.6293568,
    "lon": -8.0081043,
    "timestamp": "2019-03-30T19:25:45Z",
    "version": 1,
    "changeset": 68707666,
    "user": "Spitfire31",
    "uid": 9573924,
    "tags": {
      "amenity": "restaurant",
      "name:de": "Patron de la mer"
    }
  },
  {
    "type": "node",
    "id": 6372943787,
    "lat": 31.6301821,
    "lon": -8.0078565,
    "timestamp": "2019-03-30T20:00:14Z",
    "version": 1,
    "changeset": 68708418,
    "user": "Spitfire31",
    "uid": 9573924,
    "tags": {
      "amenity": "restaurant",
      "name:de": "Projet M (Meeresfrüchte)"
    }
  },
  {
    "type": "node",
    "id": 6374409345,
    "lat": 31.631959,
    "lon": -7.9890249,
    "timestamp": "2019-03-31T18:21:16Z",
    "version": 1,
    "changeset": 68731939,
    "user": "diversa",
    "uid": 3795629,
    "tags": {
      "amenity": "restaurant",
      "name": "Table de la Medina",
      "phone": "05 25 08 37 65"
    }
  },
  {
    "type": "node",
    "id": 6378232085,
    "lat": 31.6311393,
    "lon": -8.0086003,
    "timestamp": "2019-04-02T11:35:21Z",
    "version": 1,
    "changeset": 68789638,
    "user": "Spitfire31",
    "uid": 9573924,
    "tags": {
      "amenity": "restaurant",
      "name": "Le Jardins de Guéliz"
    }
  },
  {
    "type": "node",
    "id": 6389240590,
    "lat": 31.6376087,
    "lon": -8.0133305,
    "timestamp": "2019-04-07T17:12:21Z",
    "version": 1,
    "changeset": 68981594,
    "user": "A81D",
    "uid": 9607920,
    "tags": {
      "addr:housenumber": "28",
      "addr:street": "Rue Moulay Ali",
      "amenity": "restaurant",
      "name": "Libzar"
    }
  },
  {
    "type": "node",
    "id": 6389290587,
    "lat": 31.6241525,
    "lon": -7.9850907,
    "timestamp": "2019-04-07T17:12:23Z",
    "version": 1,
    "changeset": 68981594,
    "user": "A81D",
    "uid": 9607920,
    "tags": {
      "addr:street": "Rue Riad Zitoun El Jedid",
      "amenity": "restaurant",
      "name": "Porte du monde"
    }
  },
  {
    "type": "node",
    "id": 6389290685,
    "lat": 31.6321524,
    "lon": -7.9878536,
    "timestamp": "2019-04-07T17:12:23Z",
    "version": 1,
    "changeset": 68981594,
    "user": "A81D",
    "uid": 9607920,
    "tags": {
      "amenity": "restaurant",
      "name": "Chez Abdelhay"
    }
  },
  {
    "type": "node",
    "id": 6389543383,
    "lat": 31.6298659,
    "lon": -8.0055242,
    "timestamp": "2019-04-07T20:18:46Z",
    "version": 1,
    "changeset": 68986144,
    "user": "casiosmu",
    "uid": 111555,
    "tags": {
      "addr:city": "Marrakech",
      "addr:housenumber": "9",
      "addr:postcode": "40200",
      "addr:street": "Rue Yakoub el Marini",
      "amenity": "restaurant",
      "cuisine": "american",
      "name": "Le Warner"
    }
  },
  {
    "type": "node",
    "id": 6389550185,
    "lat": 31.6325066,
    "lon": -7.9890059,
    "timestamp": "2019-04-07T20:18:46Z",
    "version": 1,
    "changeset": 68986144,
    "user": "casiosmu",
    "uid": 111555,
    "tags": {
      "amenity": "restaurant",
      "cuisine": "regional",
      "name": "La Maison Berbere"
    }
  },
  {
    "type": "node",
    "id": 6389623788,
    "lat": 31.7070225,
    "lon": -7.989551,
    "timestamp": "2019-04-07T21:21:46Z",
    "version": 1,
    "changeset": 68987660,
    "user": "casiosmu",
    "uid": 111555,
    "tags": {
      "amenity": "restaurant",
      "cuisine": "regional",
      "name": "Le Relais de Marrakech"
    }
  },
  {
    "type": "node",
    "id": 6418186088,
    "lat": 31.6338136,
    "lon": -8.0041205,
    "timestamp": "2019-04-20T16:49:28Z",
    "version": 1,
    "changeset": 69406642,
    "user": "Planetgravy",
    "uid": 3950326,
    "tags": {
      "amenity": "restaurant",
      "cuisine": "italian_pizza;pizza;moroccan;local",
      "name:en": "Four seasons"
    }
  },
  {
    "type": "node",
    "id": 6418186786,
    "lat": 31.6464741,
    "lon": -7.4759733,
    "timestamp": "2023-01-11T11:28:15Z",
    "version": 2,
    "changeset": 131141402,
    "user": "grelus",
    "uid": 813385,
    "tags": {
      "amenity": "restaurant",
      "name:en": "Al Fath"
    }
  },
  {
    "type": "node",
    "id": 6418186885,
    "lat": 31.6262209,
    "lon": -7.988433,
    "timestamp": "2023-12-15T22:16:09Z",
    "version": 2,
    "changeset": 145168267,
    "user": "Matti Schneider",
    "uid": 520233,
    "tags": {
      "amenity": "restaurant",
      "cuisine": "pizza;moroccan;local",
      "name": "Snack La Place"
    }
  },
  {
    "type": "node",
    "id": 6418186886,
    "lat": 31.6308838,
    "lon": -7.9869434,
    "timestamp": "2019-04-20T16:49:33Z",
    "version": 1,
    "changeset": 69406642,
    "user": "Planetgravy",
    "uid": 3950326,
    "tags": {
      "amenity": "restaurant",
      "cuisine": "moroccan;local",
      "internet_access": "wlan",
      "name:en": "Chez Bakchich",
      "opening_hours": "Mo-Su 10:00-18:00"
    }
  },
  {
    "type": "node",
    "id": 6420546324,
    "lat": 31.6341373,
    "lon": -8.0137132,
    "timestamp": "2019-04-22T09:47:43Z",
    "version": 1,
    "changeset": 69446479,
    "user": "Ravrol",
    "uid": 4512222,
    "tags": {
      "amenity": "restaurant",
      "cuisine": "spanish",
      "name": "Sinatra"
    }
  },
  {
    "type": "node",
    "id": 6420558310,
    "lat": 31.6326612,
    "lon": -8.0148724,
    "timestamp": "2019-04-22T09:55:08Z",
    "version": 1,
    "changeset": 69446670,
    "user": "Ravrol",
    "uid": 4512222,
    "tags": {
      "amenity": "restaurant",
      "contact:mobile": "+212 675912122",
      "contact:phone": "+212 5244 32367",
      "cuisine": "local",
      "name": "Snack Abderrahim",
      "opening_hours": "24/7",
      "outdoor_seating": "yes"
    }
  },
  {
    "type": "node",
    "id": 6420587358,
    "lat": 31.6349273,
    "lon": -8.0139884,
    "timestamp": "2019-04-22T10:11:03Z",
    "version": 1,
    "changeset": 69447190,
    "user": "Ravrol",
    "uid": 4512222,
    "tags": {
      "amenity": "restaurant",
      "name": "Lounge Le Maestro"
    }
  },
  {
    "type": "node",
    "id": 6421817085,
    "lat": 31.6272956,
    "lon": -7.9884904,
    "timestamp": "2019-04-22T19:19:47Z",
    "version": 1,
    "changeset": 69465404,
    "user": "Ennio Scuderi",
    "uid": 9653929,
    "tags": {
      "amenity": "restaurant",
      "cuisine": "moroccan",
      "internet_access": "wlan",
      "name:it": "knock knock restaurant"
    }
  },
  {
    "type": "node",
    "id": 6430722485,
    "lat": 31.6338709,
    "lon": -7.9913618,
    "timestamp": "2019-04-26T12:43:25Z",
    "version": 1,
    "changeset": 69598747,
    "user": "TheFoodieRudy",
    "uid": 4436946,
    "tags": {
      "amenity": "restaurant",
      "internet_access": "wlan",
      "name:de": "Riad Laârouss Café-Snack"
    }
  },
  {
    "type": "node",
    "id": 6457297187,
    "lat": 31.6243263,
    "lon": -7.9888705,
    "timestamp": "2022-12-26T21:26:31Z",
    "version": 2,
    "changeset": 130531489,
    "user": "R3gi",
    "uid": 873469,
    "tags": {
      "amenity": "restaurant",
      "check_date": "2022-12-26",
      "cuisine": "regional;sandwich;chicken;juice;salad"
    }
  },
  {
    "type": "node",
    "id": 6463146786,
    "lat": 31.6335219,
    "lon": -7.9902149,
    "timestamp": "2019-05-09T22:25:04Z",
    "version": 1,
    "changeset": 70091330,
    "user": "marionvgr",
    "uid": 9642379,
    "tags": {
      "amenity": "restaurant",
      "name:fr": "Caravan Café"
    }
  },
  {
    "type": "node",
    "id": 6475563822,
    "lat": 31.626647,
    "lon": -8.0267826,
    "timestamp": "2019-05-15T14:10:09Z",
    "version": 1,
    "changeset": 70277828,
    "user": "StopConsuming_StartProducing",
    "uid": 5592573,
    "tags": {
      "amenity": "restaurant",
      "cuisine": "pizza"
    }
  },
  {
    "type": "node",
    "id": 6475678428,
    "lat": 31.622832,
    "lon": -7.9857005,
    "timestamp": "2019-05-15T15:09:38Z",
    "version": 1,
    "changeset": 70280554,
    "user": "StopConsuming_StartProducing",
    "uid": 5592573,
    "tags": {
      "amenity": "restaurant",
      "name": "Restaurant Ksar El Hamra"
    }
  },
  {
    "type": "node",
    "id": 6475678435,
    "lat": 31.6231883,
    "lon": -7.9890326,
    "timestamp": "2019-05-15T15:09:38Z",
    "version": 1,
    "changeset": 70280554,
    "user": "StopConsuming_StartProducing",
    "uid": 5592573,
    "tags": {
      "amenity": "restaurant",
      "cuisine": "pizza"
    }
  },
  {
    "type": "node",
    "id": 6475747814,
    "lat": 31.6335048,
    "lon": -7.9894545,
    "timestamp": "2019-05-15T15:50:24Z",
    "version": 1,
    "changeset": 70282086,
    "user": "StopConsuming_StartProducing",
    "uid": 5592573,
    "tags": {
      "amenity": "restaurant",
      "name": "Exotic Bai"
    }
  },
  {
    "type": "node",
    "id": 6475747817,
    "lat": 31.6326565,
    "lon": -7.9876544,
    "timestamp": "2019-05-15T15:50:24Z",
    "version": 1,
    "changeset": 70282086,
    "user": "StopConsuming_StartProducing",
    "uid": 5592573,
    "tags": {
      "amenity": "restaurant",
      "name": "Chez Rachid"
    }
  },
  {
    "type": "node",
    "id": 6475747831,
    "lat": 31.5783005,
    "lon": -7.9828023,
    "timestamp": "2019-05-15T15:50:25Z",
    "version": 1,
    "changeset": 70282086,
    "user": "StopConsuming_StartProducing",
    "uid": 5592573,
    "tags": {
      "addr:city": "Marrakech ⵎⵕⵕⴰⴽⵯⵛ مراكش",
      "addr:postcode": "40000",
      "addr:street": "Boulevard Mohamed VI",
      "amenity": "restaurant",
      "name": "Relais de Paris & Lounge Marrakech",
      "phone": "+212524459898"
    }
  },
  {
    "type": "node",
    "id": 6564889285,
    "lat": 31.6305819,
    "lon": -8.0082107,
    "timestamp": "2021-11-08T13:44:14Z",
    "version": 2,
    "changeset": 113523336,
    "user": "Traktorbek",
    "uid": 7370308,
    "tags": {
      "amenity": "restaurant",
      "name": "Casa José"
    }
  },
  {
    "type": "node",
    "id": 6578352885,
    "lat": 31.6377248,
    "lon": -8.0130445,
    "timestamp": "2019-06-29T11:39:29Z",
    "version": 1,
    "changeset": 71733845,
    "user": "Delphinelev",
    "uid": 10118725,
    "tags": {
      "amenity": "restaurant",
      "name": "le petit cornichon"
    }
  },
  {
    "type": "node",
    "id": 6578352985,
    "lat": 31.6377005,
    "lon": -8.0163861,
    "timestamp": "2019-06-29T11:39:30Z",
    "version": 1,
    "changeset": 71733845,
    "user": "Delphinelev",
    "uid": 10118725,
    "tags": {
      "amenity": "restaurant",
      "name": "Spicy"
    }
  },
  {
    "type": "node",
    "id": 6578353085,
    "lat": 31.6348566,
    "lon": -8.0126639,
    "timestamp": "2019-06-29T11:39:30Z",
    "version": 1,
    "changeset": 71733845,
    "user": "Delphinelev",
    "uid": 10118725,
    "tags": {
      "amenity": "restaurant",
      "name": "bazar gourmand"
    }
  },
  {
    "type": "node",
    "id": 6578353089,
    "lat": 31.6342962,
    "lon": -8.0099975,
    "timestamp": "2022-09-06T10:48:33Z",
    "version": 2,
    "changeset": 125851965,
    "user": "NovaVanta",
    "uid": 17014690,
    "tags": {
      "amenity": "restaurant",
      "name:fr": "entrepotes"
    }
  },
  {
    "type": "node",
    "id": 6655973247,
    "lat": 31.5936706,
    "lon": -7.9887779,
    "timestamp": "2019-07-28T21:42:06Z",
    "version": 3,
    "changeset": 72747951,
    "user": "Medmez",
    "uid": 10158190,
    "tags": {
      "addr:city": "marrakech",
      "addr:postcode": "40000",
      "addr:street": "Avenue du 7eme Art",
      "air_conditioning": "yes",
      "amenity": "restaurant",
      "bar": "yes",
      "cuisine": "pizza;burger;italian;coffee_shop;sandwich;american;kebab",
      "name": "VERSACE Restaurant & Lounge",
      "phone": "+212707900900",
      "smoking": "yes",
      "takeaway": "yes",
      "wheelchair": "yes"
    }
  },
  {
    "type": "node",
    "id": 6661993485,
    "lat": 31.657651,
    "lon": -8.0160651,
    "timestamp": "2020-11-24T01:06:46Z",
    "version": 2,
    "changeset": 94668480,
    "user": "MustafaQasim",
    "uid": 9535554,
    "tags": {
      "amenity": "restaurant",
      "name": "دار الطاجين",
      "name:ar": "دار الطاجين",
      "name:en": "Dar Tajine",
      "name:es": "la cas del Tajin",
      "name:fr": "Dar Tajine"
    }
  },
  {
    "type": "node",
    "id": 6815621185,
    "lat": 31.6306826,
    "lon": -8.0082164,
    "timestamp": "2019-11-24T16:18:53Z",
    "version": 2,
    "changeset": 77486215,
    "user": "sissou",
    "uid": 13303,
    "tags": {
      "amenity": "restaurant",
      "cuisine": "spanish",
      "name": "Safra de Gueliz",
      "name:fr": "Casa José"
    }
  },
  {
    "type": "node",
    "id": 6838455364,
    "lat": 31.6303772,
    "lon": -8.0059907,
    "timestamp": "2019-09-30T18:48:41Z",
    "version": 1,
    "changeset": 75116414,
    "user": "蔚大官人",
    "uid": 10334211,
    "tags": {
      "amenity": "restaurant",
      "name:zh": "缘来餐厅"
    }
  },
  {
    "type": "node",
    "id": 6854357585,
    "lat": 31.6306236,
    "lon": -7.9948593,
    "timestamp": "2019-10-05T21:45:59Z",
    "version": 1,
    "changeset": 75328649,
    "user": "Samaulnays",
    "uid": 5753908,
    "tags": {
      "amenity": "restaurant",
      "name:fr": "La Table du Riad at 72 Riad Living"
    }
  },
  {
    "type": "node",
    "id": 6883646785,
    "lat": 31.6353404,
    "lon": -8.0649224,
    "timestamp": "2019-10-15T20:45:11Z",
    "version": 2,
    "changeset": 75743843,
    "user": "Cristiana86",
    "uid": 9429300,
    "tags": {
      "addr:housenumber": "1 KISSARIAT",
      "addr:postcode": "4000",
      "addr:street": "Rue Fatima Zahra",
      "amenity": "restaurant",
      "cuisine": "japanese;african;moroccan;international",
      "internet_access": "wlan",
      "name": "KABANA ROOFTOP FOOD & COCKTAILS",
      "opening_hours": "Mo-Su 11:00-02:00",
      "phone": "+212 637-304556"
    }
  },
  {
    "type": "node",
    "id": 6939440885,
    "lat": 31.6254683,
    "lon": -7.9861714,
    "timestamp": "2019-11-02T15:58:19Z",
    "version": 1,
    "changeset": 76531355,
    "user": "virgiotero",
    "uid": 4561887,
    "tags": {
      "addr:housenumber": "123",
      "addr:street": "Route Kennaria Dbchi",
      "amenity": "restaurant",
      "name": "Dar Chef"
    }
  },
  {
    "type": "node",
    "id": 6993611185,
    "lat": 31.6340021,
    "lon": -7.9907756,
    "timestamp": "2025-01-03T12:50:02Z",
    "version": 8,
    "changeset": 160947588,
    "user": "LateNightTone",
    "uid": 4003485,
    "tags": {
      "addr:housenumber": "300",
      "addr:street": "Rue Riad Laarous",
      "amenity": "restaurant",
      "contact:facebook": "100034857380951",
      "cuisine": "arab;burger;diner;moroccan",
      "description": "Vegetarian Restaurant with rooftop bar and street tables.",
      "diet:vegan": "yes",
      "diet:vegetarian": "yes",
      "email": "brocthekasbah@gmail.com",
      "internet_access": "wlan",
      "internet_access:fee": "no",
      "name": "Broc The Kasbah",
      "name:en": "Broc The Kasbah",
      "opening_hours": "Mo-Su 12:00-22:00",
      "outdoor_seating": "yes",
      "payment:cash": "yes",
      "payment:credit_cards": "yes",
      "payment:debit_cards": "yes",
      "phone": "+212 605-305687",
      "toilets": "yes",
      "toilets:access": "customers",
      "toilets:wheelchair": "no",
      "wheelchair": "limited"
    }
  },
  {
    "type": "node",
    "id": 7005851587,
    "lat": 31.62587,
    "lon": -7.9862336,
    "timestamp": "2019-11-24T10:40:07Z",
    "version": 1,
    "changeset": 77478647,
    "user": "Jose Luis 131313",
    "uid": 4510873,
    "tags": {
      "amenity": "restaurant",
      "name": "La Cantine des Gacelles"
    }
  },
  {
    "type": "node",
    "id": 7008652586,
    "lat": 31.6315262,
    "lon": -7.9828184,
    "timestamp": "2019-11-25T15:28:21Z",
    "version": 1,
    "changeset": 77532339,
    "user": "droidsam",
    "uid": 10482883,
    "tags": {
      "addr:postcode": "40030",
      "addr:street": "Derb el Hamam Issebtyine",
      "amenity": "restaurant",
      "cuisine": "african;mediterranean;moroccan",
      "name:en": "Dar L’hssira",
      "phone": "212600756845"
    }
  },
  {
    "type": "node",
    "id": 7016647066,
    "lat": 31.6308462,
    "lon": -7.9867265,
    "timestamp": "2022-12-29T15:18:59Z",
    "version": 2,
    "changeset": 130650885,
    "user": "woolfesss",
    "uid": 16738479,
    "tags": {
      "amenity": "restaurant",
      "indoor_seating": "yes",
      "name": "Restaurant Falafil",
      "outdoor_seating": "yes"
    }
  },
  {
    "type": "node",
    "id": 7020244140,
    "lat": 31.6325585,
    "lon": -8.0119563,
    "timestamp": "2019-11-29T17:11:11Z",
    "version": 1,
    "changeset": 77738782,
    "user": "Florian DuDu",
    "uid": 6964085,
    "tags": {
      "addr:housenumber": "75",
      "addr:street": "Boulevard Moulay Rachid",
      "amenity": "restaurant",
      "cuisine": "fish;moroccan",
      "name:fr": "Samak al-Bahriya"
    }
  },
  {
    "type": "node",
    "id": 7022371544,
    "lat": 31.6271837,
    "lon": -7.9876473,
    "timestamp": "2023-06-30T17:57:14Z",
    "version": 2,
    "changeset": 137968757,
    "user": "ironspock",
    "uid": 10728241,
    "tags": {
      "amenity": "restaurant",
      "name": "Restaurant Mythe",
      "opening_hours:signed": "no",
      "phone": "+212 5 24381624"
    }
  },
  {
    "type": "node",
    "id": 7022468647,
    "lat": 31.6222402,
    "lon": -8.0043179,
    "timestamp": "2019-11-30T21:50:26Z",
    "version": 1,
    "changeset": 77768238,
    "user": "osm915",
    "uid": 3245367,
    "tags": {
      "amenity": "restaurant",
      "name": "Le Saadi",
      "website": "https://www.essaadi.com/restaurants-marrakech/restaurants-hotel/saadi"
    }
  },
  {
    "type": "node",
    "id": 7035777651,
    "lat": 31.6402251,
    "lon": -8.0017427,
    "timestamp": "2022-12-13T19:28:57Z",
    "version": 2,
    "changeset": 130047977,
    "user": "Cale_xox",
    "uid": 4041099,
    "tags": {
      "amenity": "restaurant",
      "cuisine": "mexican;moroccan;pizza",
      "internet_access": "wlan",
      "name": "La bonne adresse"
    }
  },
  {
    "type": "node",
    "id": 7035794189,
    "lat": 31.5838376,
    "lon": -7.8764684,
    "timestamp": "2019-12-05T12:03:08Z",
    "version": 1,
    "changeset": 77992272,
    "user": "sissou",
    "uid": 13303,
    "tags": {
      "amenity": "restaurant"
    }
  },
  {
    "type": "node",
    "id": 7055961985,
    "lat": 31.6175499,
    "lon": -8.009942,
    "timestamp": "2019-12-14T05:31:35Z",
    "version": 1,
    "changeset": 78399539,
    "user": "Jack-paglia",
    "uid": 10556023,
    "tags": {
      "amenity": "restaurant",
      "name:it": "Malak emeraude"
    }
  },
  {
    "type": "node",
    "id": 7055962085,
    "lat": 31.6176347,
    "lon": -8.0097124,
    "timestamp": "2019-12-14T05:31:35Z",
    "version": 1,
    "changeset": 78399539,
    "user": "Jack-paglia",
    "uid": 10556023,
    "tags": {
      "amenity": "restaurant",
      "name:it": "Buddha bar"
    }
  },
  {
    "type": "node",
    "id": 7114481688,
    "lat": 31.6203906,
    "lon": -7.9845787,
    "timestamp": "2020-01-07T13:38:43Z",
    "version": 1,
    "changeset": 79296011,
    "user": "Tollerleon",
    "uid": 7920714,
    "tags": {
      "amenity": "restaurant",
      "name:de": "La Casa Berbere"
    }
  },
  {
    "type": "node",
    "id": 7137489585,
    "lat": 31.6340791,
    "lon": -7.9906886,
    "timestamp": "2020-01-16T20:01:38Z",
    "version": 1,
    "changeset": 79664286,
    "user": "Tollerleon",
    "uid": 7920714,
    "tags": {
      "amenity": "restaurant",
      "cuisine": "moroccan",
      "name:en": "12Cool"
    }
  },
  {
    "type": "node",
    "id": 7140767285,
    "lat": 31.6336166,
    "lon": -7.9891467,
    "timestamp": "2024-06-25T01:27:35Z",
    "version": 2,
    "changeset": 153134824,
    "user": "b-jazz-bot",
    "uid": 9451067,
    "tags": {
      "addr:housenumber": "56",
      "addr:postcode": "40030",
      "addr:street": "Derb Chentouf",
      "amenity": "restaurant",
      "cuisine": "asian;seafood",
      "email": "exoticbalifood@gmail.com",
      "internet_access": "wlan",
      "name": "Exotic Bali",
      "opening_hours": "Tu-Su 17:00-22:00",
      "phone": "0666044882",
      "website": "https://exotic-bali.com/"
    }
  },
  {
    "type": "node",
    "id": 7164499885,
    "lat": 31.6310044,
    "lon": -8.0055562,
    "timestamp": "2020-01-27T17:19:04Z",
    "version": 1,
    "changeset": 80154949,
    "user": "Pws15",
    "uid": 10704276,
    "tags": {
      "amenity": "restaurant",
      "internet_access": "wlan",
      "name:en": "Vertmidi"
    }
  },
  {
    "type": "node",
    "id": 7194001085,
    "lat": 31.6205636,
    "lon": -7.9925654,
    "timestamp": "2020-02-07T19:16:01Z",
    "version": 1,
    "changeset": 80706037,
    "user": "Margariiitaaa",
    "uid": 10232604,
    "tags": {
      "amenity": "restaurant",
      "name:fr": "Association Caravane d’Avenir"
    }
  },
  {
    "type": "node",
    "id": 7223048185,
    "lat": 31.6312402,
    "lon": -7.9827191,
    "timestamp": "2020-02-18T16:06:22Z",
    "version": 1,
    "changeset": 81179447,
    "user": "Hendrik64Smits",
    "uid": 10459473,
    "tags": {
      "amenity": "restaurant",
      "name": "Dat L'hssira"
    }
  },
  {
    "type": "node",
    "id": 7261735985,
    "lat": 31.6243747,
    "lon": -7.9853096,
    "timestamp": "2020-03-03T19:36:10Z",
    "version": 1,
    "changeset": 81742566,
    "user": "frannzzzi",
    "uid": 10852998,
    "tags": {
      "addr:street": "Rue Riad Zitoun El Jedid",
      "amenity": "restaurant",
      "cuisine": "moroccan",
      "internet_access": "wlan",
      "name:de": "Restaurant Jama",
      "name:en": "Restaurant Jama"
    }
  },
  {
    "type": "node",
    "id": 7272867098,
    "lat": 31.6301435,
    "lon": -7.9894245,
    "timestamp": "2020-03-06T20:47:19Z",
    "version": 1,
    "changeset": 81884187,
    "user": "promotheus1",
    "uid": 3917554,
    "tags": {
      "amenity": "restaurant",
      "name:en": "the Moorish"
    }
  },
  {
    "type": "node",
    "id": 7285654385,
    "lat": 31.631894,
    "lon": -8.0064152,
    "timestamp": "2024-06-25T01:27:40Z",
    "version": 2,
    "changeset": 153134824,
    "user": "b-jazz-bot",
    "uid": 9451067,
    "tags": {
      "addr:housenumber": "2",
      "addr:postcode": "40000",
      "addr:street": "Rue Badr",
      "amenity": "restaurant",
      "cuisine": "indonesian",
      "email": "exoticbalifood@gmail.com",
      "internet_access": "wlan",
      "name": "Exotic Bali",
      "phone": "0666044882",
      "website": "https://www.exotic-bali.com/"
    }
  },
  {
    "type": "node",
    "id": 7297385672,
    "lat": 31.5766114,
    "lon": -7.8137228,
    "timestamp": "2020-03-15T18:34:02Z",
    "version": 1,
    "changeset": 82224887,
    "user": "keithonearth",
    "uid": 154287,
    "tags": {
      "amenity": "restaurant"
    }
  },
  {
    "type": "node",
    "id": 7297386497,
    "lat": 31.5765131,
    "lon": -7.8127827,
    "timestamp": "2020-03-15T18:34:02Z",
    "version": 1,
    "changeset": 82224887,
    "user": "keithonearth",
    "uid": 154287,
    "tags": {
      "amenity": "restaurant"
    }
  },
  {
    "type": "node",
    "id": 7297410885,
    "lat": 31.5542954,
    "lon": -7.6763491,
    "timestamp": "2024-01-19T00:18:57Z",
    "version": 2,
    "changeset": 146424593,
    "user": "hongngan",
    "uid": 11321334,
    "tags": {
      "amenity": "restaurant"
    }
  },
  {
    "type": "node",
    "id": 7297410914,
    "lat": 31.5540092,
    "lon": -7.6795882,
    "timestamp": "2020-03-15T18:51:17Z",
    "version": 1,
    "changeset": 82225269,
    "user": "keithonearth",
    "uid": 154287,
    "tags": {
      "amenity": "restaurant"
    }
  },
  {
    "type": "node",
    "id": 7297410942,
    "lat": 31.5559257,
    "lon": -7.6854569,
    "timestamp": "2020-03-15T18:51:17Z",
    "version": 1,
    "changeset": 82225269,
    "user": "keithonearth",
    "uid": 154287,
    "tags": {
      "amenity": "restaurant"
    }
  },
  {
    "type": "node",
    "id": 7918206986,
    "lat": 31.625492,
    "lon": -7.9877985,
    "timestamp": "2020-09-17T20:11:43Z",
    "version": 1,
    "changeset": 91069133,
    "user": "Plasenda",
    "uid": 10323142,
    "tags": {
      "amenity": "restaurant",
      "name": "Chez Ben Driss",
      "opening_hours": "Mo-Su 07:30-00:00"
    }
  },
  {
    "type": "node",
    "id": 8388134617,
    "lat": 31.6315072,
    "lon": -7.9827201,
    "timestamp": "2021-02-02T17:43:06Z",
    "version": 1,
    "changeset": 98593470,
    "user": "Arabiaanclass",
    "uid": 12593986,
    "tags": {
      "addr:postcode": "40000",
      "addr:street": "Rue Tachenbacht",
      "amenity": "restaurant",
      "name": "دار الحصيرة",
      "name:en": "Dar L’hssira",
      "opening_hours": "Mo-Su 10:00-23:00",
      "phone": "+212600756845"
    }
  },
  {
    "type": "node",
    "id": 8388134717,
    "lat": 31.6175652,
    "lon": -8.0096799,
    "timestamp": "2021-04-10T08:19:41Z",
    "version": 2,
    "changeset": 102685823,
    "user": "b-jazz-bot",
    "uid": 9451067,
    "tags": {
      "addr:postcode": "40000",
      "addr:street": "Avenue Prince Moulay Rachid",
      "amenity": "restaurant",
      "cuisine": "asian;sushi",
      "name:en": "Buddha-Bar",
      "opening_hours": "Mo-Sa 20:00-03:00; Su 20:00-00:00",
      "phone": "+212666773932",
      "website": "https://www.buddhabarmarrakech.com/"
    }
  },
  {
    "type": "node",
    "id": 8388177318,
    "lat": 31.6259383,
    "lon": -7.9928622,
    "timestamp": "2024-06-25T01:27:32Z",
    "version": 2,
    "changeset": 153134824,
    "user": "b-jazz-bot",
    "uid": 9451067,
    "tags": {
      "addr:housenumber": "1",
      "addr:postcode": "40000",
      "addr:street": "Kissariat Ben Khaled R’Mila, Rue Lalla Fatima Zahra",
      "amenity": "restaurant",
      "cuisine": "international;moroccan;sushi",
      "name:en": "KABANA ROOFTOP FOOD & COCKTAILS",
      "opening_hours": "Mo-Su 11:00-02:00",
      "phone": "+212664464450",
      "website": "https://www.kabana-marrakech.com/"
    }
  },
  {
    "type": "node",
    "id": 8390240117,
    "lat": 31.6219572,
    "lon": -7.986285,
    "timestamp": "2021-02-03T11:09:37Z",
    "version": 1,
    "changeset": 98640098,
    "user": "Arabiaanclass",
    "uid": 12593986,
    "tags": {
      "addr:housenumber": "4",
      "addr:postcode": "40000",
      "addr:street": "Riad Zitoun Lakdim رياض الزيتون القديم",
      "amenity": "restaurant",
      "cuisine": "coffee_shop;moroccan;pizza",
      "name": "دار دار",
      "name:en": "Restaurant dardar",
      "opening_hours": "Mo-Su 10:00-00:00",
      "phone": "+212623615131",
      "website": "http://restaurantdardar.com"
    }
  },
  {
    "type": "node",
    "id": 8392299718,
    "lat": 31.6388935,
    "lon": -8.0218763,
    "timestamp": "2021-02-03T23:13:39Z",
    "version": 1,
    "changeset": 98669848,
    "user": "Arabiaanclass",
    "uid": 12593986,
    "tags": {
      "addr:housenumber": "7",
      "addr:postcode": "40000",
      "addr:street": "Boulevard Mohammed VI شارع محمد السادس",
      "amenity": "restaurant",
      "name:en": "The GoodBun",
      "opening_hours": "Mo-Su 12:00-20:00",
      "phone": "+212524457730",
      "website": "http://thegoodbun.com"
    }
  },
  {
    "type": "node",
    "id": 8508643017,
    "lat": 31.6292107,
    "lon": -7.9863575,
    "timestamp": "2023-10-17T02:47:51Z",
    "version": 4,
    "changeset": 142690471,
    "user": "b-jazz-bot",
    "uid": 9451067,
    "tags": {
      "amenity": "restaurant",
      "check_date": "2023-03-27",
      "internet_access": "wlan",
      "internet_access:fee": "customers",
      "name": "L'Mida",
      "name:ar": "L'mida",
      "name:en": "L'mida",
      "website": "https://lmidamarrakech.com/"
    }
  },
  {
    "type": "node",
    "id": 8573249608,
    "lat": 31.6400919,
    "lon": -8.0202364,
    "timestamp": "2021-03-30T23:36:48Z",
    "version": 2,
    "changeset": 102013148,
    "user": "OmSweetOm",
    "uid": 11073812,
    "tags": {
      "amenity": "restaurant",
      "contact:instagram": "https://www.instagram.com/metou_cuisine_d_asie.ma/",
      "cuisine": "asian",
      "email": "contact@metoucusinedasie.com",
      "name": "METOU",
      "opening_hours": "11:00-23:00",
      "phone": "+212 6 49 99 53 54",
      "website": "https://metoucuisinedasie.com"
    }
  },
  {
    "type": "node",
    "id": 8905746617,
    "lat": 31.630702,
    "lon": -8.0071088,
    "timestamp": "2021-07-09T00:19:36Z",
    "version": 1,
    "changeset": 107665170,
    "user": "AxelllD",
    "uid": 12412557,
    "tags": {
      "addr:housenumber": "3",
      "addr:postcode": "40000",
      "addr:street": "Rue Yakoub El Marini",
      "amenity": "restaurant",
      "cuisine": "burger;crepe;french;ice_cream;pizza;sandwich",
      "email": "larecettecreperie@gmail.com",
      "internet_access": "wlan",
      "name:en": "LA RECETTE Crêperie",
      "opening_hours": "Mo-Sa 09:00-23:00; Su 09:00-18:00",
      "phone": "+212 620-505484",
      "website": "http://larecettecreperie.com/"
    }
  },
  {
    "type": "node",
    "id": 9246946117,
    "lat": 31.6268331,
    "lon": -7.9870132,
    "timestamp": "2021-11-12T20:27:18Z",
    "version": 1,
    "changeset": 113711023,
    "user": "Humbie",
    "uid": 4107650,
    "tags": {
      "amenity": "restaurant",
      "name:en": "Amor n Akoch"
    }
  },
  {
    "type": "node",
    "id": 9251017616,
    "lat": 31.5790726,
    "lon": -8.0154678,
    "timestamp": "2021-11-14T17:37:53Z",
    "version": 1,
    "changeset": 113772489,
    "user": "Deschamps 66",
    "uid": 10212725,
    "tags": {
      "amenity": "restaurant",
      "name": "la paillote"
    }
  },
  {
    "type": "node",
    "id": 9358021217,
    "lat": 31.6203602,
    "lon": -7.9851472,
    "timestamp": "2022-12-13T19:28:58Z",
    "version": 2,
    "changeset": 130047977,
    "user": "Cale_xox",
    "uid": 4041099,
    "tags": {
      "amenity": "restaurant",
      "cuisine": "moroccan",
      "name": "Terrasse des palais"
    }
  },
  {
    "type": "node",
    "id": 9521267117,
    "lat": 31.637285,
    "lon": -8.0142105,
    "timestamp": "2022-02-20T09:27:30Z",
    "version": 1,
    "changeset": 117630223,
    "user": "Ksusha Lapotnikova",
    "uid": 9620242,
    "tags": {
      "amenity": "restaurant",
      "name:en": "la palette"
    }
  },
  {
    "type": "node",
    "id": 9521274617,
    "lat": 31.6306094,
    "lon": -8.0114185,
    "timestamp": "2022-02-20T09:29:08Z",
    "version": 1,
    "changeset": 117630284,
    "user": "Ksusha Lapotnikova",
    "uid": 9620242,
    "tags": {
      "amenity": "restaurant",
      "name:en": "dameh"
    }
  },
  {
    "type": "node",
    "id": 9521276218,
    "lat": 31.6300061,
    "lon": -7.9893705,
    "timestamp": "2022-02-20T09:30:52Z",
    "version": 1,
    "changeset": 117630332,
    "user": "Ksusha Lapotnikova",
    "uid": 9620242,
    "tags": {
      "amenity": "restaurant",
      "name:en": "terrasse de la fountain"
    }
  },
  {
    "type": "node",
    "id": 9627203917,
    "lat": 31.6269914,
    "lon": -7.9861421,
    "timestamp": "2022-03-31T18:19:07Z",
    "version": 1,
    "changeset": 119172758,
    "user": "Love Her Travels",
    "uid": 7740960,
    "tags": {
      "addr:street": "Derb Dabachi",
      "amenity": "restaurant",
      "cuisine": "pizza",
      "name": "Yamani Food"
    }
  },
  {
    "type": "node",
    "id": 9701215817,
    "lat": 31.6333765,
    "lon": -7.9921178,
    "timestamp": "2022-04-28T17:43:08Z",
    "version": 1,
    "changeset": 120316761,
    "user": "Gabriel et Victoria BAROILLER",
    "uid": 4553408,
    "tags": {
      "addr:housenumber": "9",
      "addr:postcode": "40000",
      "addr:street": "Derb Sidi Ben Hamdouche",
      "amenity": "restaurant",
      "cuisine": "moroccan",
      "name": "Lotus Privilege",
      "opening_hours": "Mo-Su 19:30-01:00"
    }
  },
  {
    "type": "node",
    "id": 9732823176,
    "lat": 31.6204903,
    "lon": -7.9852027,
    "timestamp": "2022-05-11T14:26:57Z",
    "version": 1,
    "changeset": 120844115,
    "user": "Pan Perníček",
    "uid": 9641379,
    "tags": {
      "amenity": "restaurant",
      "contact:email": "issam.chark@gmail.com",
      "contact:facebook": "https://www.facebook.com/CHARKAOUi2020/",
      "contact:phone": "+212 660 776077",
      "name": "Restaurant Café Charkaoui"
    }
  },
  {
    "type": "node",
    "id": 9767408217,
    "lat": 31.6311479,
    "lon": -8.0119588,
    "timestamp": "2023-10-17T02:45:33Z",
    "version": 4,
    "changeset": 142690395,
    "user": "b-jazz-bot",
    "uid": 9451067,
    "tags": {
      "addr:housenumber": "35",
      "addr:street": "Avenue Hassan II شارع الحسن الثاني",
      "amenity": "restaurant",
      "cuisine": "indian",
      "email": "info@clayoven.ma",
      "internet_access": "wlan",
      "name:en": "Clay Oven",
      "opening_hours": "Tu-Su 12:00-22:30; Mo 16:00-22:30",
      "phone": "+212672638553",
      "website": "https://www.clayoven.ma/"
    }
  },
  {
    "type": "node",
    "id": 9772748518,
    "lat": 31.631578,
    "lon": -8.0168271,
    "timestamp": "2022-05-26T13:45:48Z",
    "version": 3,
    "changeset": 121527080,
    "user": "Nithin Kumar Padavu",
    "uid": 420515,
    "tags": {
      "addr:street": "Boulevard Mohammed VI شارع محمد السادس",
      "amenity": "restaurant",
      "cuisine": "asian",
      "internet_access": "wlan",
      "name:en": "Zushi Marrakech",
      "opening_hours": "Mo-Su 12:00-00:00",
      "phone": "+212 524 201 885;+212 700 791 717",
      "website": "https://zushi.ma/"
    }
  },
  {
    "type": "node",
    "id": 9775118818,
    "lat": 31.8189598,
    "lon": -7.5063619,
    "timestamp": "2022-05-27T13:50:32Z",
    "version": 1,
    "changeset": 121577905,
    "user": "Bobster177",
    "uid": 16110464,
    "tags": {
      "amenity": "restaurant"
    }
  },
  {
    "type": "node",
    "id": 9775119917,
    "lat": 31.818853,
    "lon": -7.5062014,
    "timestamp": "2022-05-27T13:50:32Z",
    "version": 1,
    "changeset": 121577905,
    "user": "Bobster177",
    "uid": 16110464,
    "tags": {
      "amenity": "restaurant",
      "cuisine": "moroccan",
      "internet_access": "wlan",
      "name:en": "Akhawain (western toilet)"
    }
  },
  {
    "type": "node",
    "id": 9776645917,
    "lat": 31.628849,
    "lon": -7.9869686,
    "timestamp": "2024-08-30T20:14:45Z",
    "version": 2,
    "changeset": 155990535,
    "user": "Fendoel",
    "uid": 378460,
    "tags": {
      "amenity": "restaurant",
      "name": "Ayaso"
    }
  },
  {
    "type": "node",
    "id": 9824974417,
    "lat": 31.6332222,
    "lon": -7.9920436,
    "timestamp": "2022-06-17T09:38:04Z",
    "version": 1,
    "changeset": 122500158,
    "user": "CatherineMac",
    "uid": 8284173,
    "tags": {
      "amenity": "restaurant",
      "name:en": "Les Jardins Du Lotus"
    }
  },
  {
    "type": "node",
    "id": 9959969217,
    "lat": 31.62001,
    "lon": -7.9852058,
    "timestamp": "2022-08-17T18:08:52Z",
    "version": 1,
    "changeset": 125029814,
    "user": "IvFdez",
    "uid": 16853215,
    "tags": {
      "amenity": "restaurant",
      "name:en": "Places des Saboirs"
    }
  },
  {
    "type": "node",
    "id": 10000389936,
    "lat": 31.637265,
    "lon": -8.007473,
    "timestamp": "2022-09-04T19:29:49Z",
    "version": 1,
    "changeset": 125786013,
    "user": "NovaVanta",
    "uid": 17014690,
    "tags": {
      "amenity": "restaurant",
      "name": "Black Pan Pizzaria"
    }
  },
  {
    "type": "node",
    "id": 10002971263,
    "lat": 31.635335,
    "lon": -8.0093466,
    "timestamp": "2022-09-05T21:45:36Z",
    "version": 2,
    "changeset": 125832181,
    "user": "NovaVanta",
    "uid": 17014690,
    "tags": {
      "amenity": "restaurant",
      "cuisine": "thai",
      "internet_access": "wlan",
      "internet_access:fee": "no",
      "name": "Eat Me Kech",
      "opening_hours": "Mo, Tu, Th-Su 12:00-16:00, 19:00-23:00",
      "toilets": "yes"
    }
  },
  {
    "type": "node",
    "id": 10003084991,
    "lat": 31.5601009,
    "lon": -7.6932847,
    "timestamp": "2022-09-05T21:49:23Z",
    "version": 1,
    "changeset": 125832227,
    "user": "NovaVanta",
    "uid": 17014690,
    "tags": {
      "amenity": "restaurant",
      "name": "Borjel Baraka"
    }
  },
  {
    "type": "node",
    "id": 10003105237,
    "lat": 31.6338268,
    "lon": -8.0082043,
    "timestamp": "2022-09-05T21:49:35Z",
    "version": 1,
    "changeset": 125832227,
    "user": "NovaVanta",
    "uid": 17014690,
    "tags": {
      "amenity": "restaurant"
    }
  },
  {
    "type": "node",
    "id": 10005309582,
    "lat": 31.6336853,
    "lon": -8.0100341,
    "timestamp": "2022-09-06T23:30:06Z",
    "version": 1,
    "changeset": 125878287,
    "user": "NovaVanta",
    "uid": 17014690,
    "tags": {
      "amenity": "restaurant",
      "name": "Green Midi"
    }
  },
  {
    "type": "node",
    "id": 10005336653,
    "lat": 31.6350384,
    "lon": -8.009895,
    "timestamp": "2022-09-06T23:30:07Z",
    "version": 1,
    "changeset": 125878287,
    "user": "NovaVanta",
    "uid": 17014690,
    "tags": {
      "amenity": "restaurant",
      "name": "Le Tire Bouchon"
    }
  },
  {
    "type": "node",
    "id": 10005336654,
    "lat": 31.6357375,
    "lon": -8.0114916,
    "timestamp": "2022-09-06T23:30:13Z",
    "version": 1,
    "changeset": 125878287,
    "user": "NovaVanta",
    "uid": 17014690,
    "tags": {
      "amenity": "restaurant"
    }
  },
  {
    "type": "node",
    "id": 10005341002,
    "lat": 31.6360427,
    "lon": -8.0100738,
    "timestamp": "2022-09-06T23:30:15Z",
    "version": 1,
    "changeset": 125878287,
    "user": "NovaVanta",
    "uid": 17014690,
    "tags": {
      "amenity": "restaurant",
      "name": "Le Lab Gourmana"
    }
  },
  {
    "type": "node",
    "id": 10005363759,
    "lat": 31.6360792,
    "lon": -8.0109562,
    "timestamp": "2022-09-06T23:30:08Z",
    "version": 1,
    "changeset": 125878287,
    "user": "NovaVanta",
    "uid": 17014690,
    "tags": {
      "amenity": "restaurant",
      "name": "La Table Espagnole"
    }
  },
  {
    "type": "node",
    "id": 10012204661,
    "lat": 31.63246,
    "lon": -8.0037937,
    "timestamp": "2022-09-09T20:23:39Z",
    "version": 1,
    "changeset": 125995316,
    "user": "NovaVanta",
    "uid": 17014690,
    "tags": {
      "amenity": "restaurant",
      "cuisine": "hawaiian",
      "name": "Poka"
    }
  },
  {
    "type": "node",
    "id": 10109080917,
    "lat": 31.6356415,
    "lon": -8.0111946,
    "timestamp": "2025-01-06T16:03:19Z",
    "version": 2,
    "changeset": 161064537,
    "user": "anttit",
    "uid": 606416,
    "tags": {
      "addr:street": "Sis 36 angle rue la liberté et rue Tarik Ibnou Ziad N° 3 rez-de-chaussée",
      "amenity": "restaurant",
      "cuisine": "moroccan",
      "email": "info@lekilim.com",
      "name": "Le Kilim",
      "opening_hours": "Mo-Su 08:00-23:00",
      "phone": "+212 6 61 45 15 19",
      "website": "https://lekilim.com/en/"
    }
  },
  {
    "type": "node",
    "id": 10268250409,
    "lat": 31.6335811,
    "lon": -7.9986398,
    "timestamp": "2022-12-16T18:21:16Z",
    "version": 1,
    "changeset": 130166284,
    "user": "brandisbrandisbrand",
    "uid": 17092710,
    "tags": {
      "amenity": "restaurant",
      "name": "Pizzeria Bab Doukkala"
    }
  },
  {
    "type": "node",
    "id": 10281314394,
    "lat": 31.6347044,
    "lon": -8.0097612,
    "timestamp": "2023-01-06T23:59:27Z",
    "version": 2,
    "changeset": 130965942,
    "user": "BigRockMapologist",
    "uid": 16754447,
    "tags": {
      "amenity": "restaurant",
      "name": "شيلو كافيه و مطعم",
      "name:en": "Cello Cafe and Restaurant"
    }
  },
  {
    "type": "node",
    "id": 10300861509,
    "lat": 31.6311294,
    "lon": -7.9884288,
    "timestamp": "2025-01-02T17:14:28Z",
    "version": 3,
    "changeset": 160917752,
    "user": "spiregrain",
    "uid": 251221,
    "tags": {
      "amenity": "restaurant",
      "internet_access": "wlan",
      "name": "Le Mart"
    }
  },
  {
    "type": "node",
    "id": 10310777320,
    "lat": 31.6284578,
    "lon": -7.9915536,
    "timestamp": "2023-01-06T12:18:53Z",
    "version": 1,
    "changeset": 130945250,
    "user": "rriemann",
    "uid": 2066198,
    "tags": {
      "amenity": "restaurant",
      "description": "Rooftop Food Restaurant",
      "name": "Medina Sky"
    }
  },
  {
    "type": "node",
    "id": 10581658490,
    "lat": 31.646388,
    "lon": -7.4726131,
    "timestamp": "2023-01-25T13:02:11Z",
    "version": 1,
    "changeset": 131694690,
    "user": "grelus",
    "uid": 813385,
    "tags": {
      "amenity": "restaurant"
    }
  },
  {
    "type": "node",
    "id": 10594967806,
    "lat": 31.6202377,
    "lon": -7.9856786,
    "timestamp": "2023-01-30T21:02:35Z",
    "version": 1,
    "changeset": 131896745,
    "user": "plantico",
    "uid": 13664661,
    "tags": {
      "amenity": "restaurant",
      "name": "Cesina Snack"
    }
  },
  {
    "type": "node",
    "id": 10612141444,
    "lat": 31.630239,
    "lon": -7.9855424,
    "timestamp": "2023-02-06T17:58:40Z",
    "version": 1,
    "changeset": 132168799,
    "user": "jacques wallef",
    "uid": 8979718,
    "tags": {
      "addr:city": "Marrakech Medina",
      "addr:housenumber": "109",
      "addr:street": "Rue Azbezd",
      "amenity": "restaurant",
      "cuisine": "regional",
      "internet_access": "yes",
      "name": "Marrakchia",
      "phone": "+212 667-943954"
    }
  },
  {
    "type": "node",
    "id": 10724579405,
    "lat": 31.6411015,
    "lon": -8.0276096,
    "timestamp": "2024-12-21T23:24:17Z",
    "version": 6,
    "changeset": 160486600,
    "user": "yetzt",
    "uid": 26734,
    "tags": {
      "addr:postcode": "40010",
      "addr:street": "residence Saida, rue Av. 4ème D.M.M., Marrakech 40010",
      "amenity": "restaurant",
      "cuisine": "arab;burger;moroccan",
      "diet:vegan": "yes",
      "diet:vegetarian": "yes",
      "name": "PATTIZ",
      "opening_hours": "Mo-Su 08:30-23:00",
      "phone": "+2120661-169332",
      "website": "http://www.pattiz.ma/menu"
    }
  },
  {
    "type": "node",
    "id": 10731694205,
    "lat": 31.630447,
    "lon": -8.0049618,
    "timestamp": "2023-03-12T22:58:35Z",
    "version": 1,
    "changeset": 133603950,
    "user": "Nick Evers",
    "uid": 4659237,
    "tags": {
      "amenity": "restaurant",
      "name": "Zeitoun Restaurant"
    }
  },
  {
    "type": "node",
    "id": 10758525406,
    "lat": 31.7043578,
    "lon": -8.0195479,
    "timestamp": "2023-03-24T09:32:43Z",
    "version": 1,
    "changeset": 134057455,
    "user": "EPT30",
    "uid": 18788847,
    "tags": {
      "amenity": "restaurant",
      "name:fr": "Chez Ali (fantasia)"
    }
  },
  {
    "type": "node",
    "id": 10777027005,
    "lat": 31.6275773,
    "lon": -7.991812,
    "timestamp": "2023-04-01T02:20:42Z",
    "version": 1,
    "changeset": 134366765,
    "user": "Patrick Lou",
    "uid": 10123674,
    "tags": {
      "addr:housenumber": "58",
      "addr:street": "Rue El Ksour",
      "amenity": "restaurant",
      "name:en": "M Rooftop by Medina Heritage"
    }
  },
  {
    "type": "node",
    "id": 10822520505,
    "lat": 31.6307961,
    "lon": -8.0040734,
    "timestamp": "2023-04-18T18:15:23Z",
    "version": 1,
    "changeset": 135071629,
    "user": "ScooterScotty",
    "uid": 15925913,
    "tags": {
      "addr:street": "Rue Oum Errabia زنقة أم الربيع",
      "amenity": "restaurant",
      "cuisine": "african",
      "name": "Mamá Africa",
      "name:ar": "Mama Afrika",
      "name:en": "Mama Afrika",
      "opening_hours": "24/7"
    }
  },
  {
    "type": "node",
    "id": 10893274105,
    "lat": 31.6207648,
    "lon": -7.9841237,
    "timestamp": "2023-05-13T12:22:14Z",
    "version": 1,
    "changeset": 136051057,
    "user": "Huhuw",
    "uid": 16165410,
    "tags": {
      "amenity": "restaurant",
      "internet_access": "wlan",
      "name:fr": "La menara snack café"
    }
  },
  {
    "type": "node",
    "id": 11139021607,
    "lat": 31.62906,
    "lon": -7.98318,
    "timestamp": "2023-08-23T13:44:40Z",
    "version": 1,
    "changeset": 140277453,
    "user": "Patrice باتريس",
    "uid": 20107908,
    "tags": {
      "addr:postcode": "40000",
      "addr:street": "Taoulat ben Saleh",
      "amenity": "restaurant",
      "name:fr": "Amasia Rooftop",
      "opening_hours": "24/7",
      "phone": "00212614829622"
    }
  },
  {
    "type": "node",
    "id": 11228992833,
    "lat": 31.6741477,
    "lon": -8.0560515,
    "timestamp": "2023-10-10T17:26:42Z",
    "version": 2,
    "changeset": 142403909,
    "user": "ZaiDev",
    "uid": 20372318,
    "tags": {
      "amenity": "restaurant",
      "cuisine": "sandwich;pizza;middle_eastern;moroccan",
      "diet:halal": "yes",
      "name": "Snack Al-Masjid",
      "opening_hours": "Mo-Su 09:00-00:00"
    }
  },
  {
    "type": "node",
    "id": 11238521037,
    "lat": 31.6208548,
    "lon": -7.9866658,
    "timestamp": "2023-10-04T15:02:52Z",
    "version": 1,
    "changeset": 142149444,
    "user": "[HERE]",
    "uid": 7161471,
    "tags": {
      "addr:street": "Medina Mall",
      "amenity": "restaurant",
      "cuisine": "breakfast;diner;ice_cream;pancake;pasta;sandwich;savory_pancakes",
      "level": "+1",
      "name:en": "Fluffy"
    }
  },
  {
    "type": "node",
    "id": 11253482419,
    "lat": 31.6708661,
    "lon": -8.0617678,
    "timestamp": "2023-10-10T17:49:34Z",
    "version": 1,
    "changeset": 142405158,
    "user": "ZaiDev",
    "uid": 20372318,
    "tags": {
      "amenity": "restaurant"
    }
  },
  {
    "type": "node",
    "id": 11258209037,
    "lat": 31.6344928,
    "lon": -8.0100238,
    "timestamp": "2023-10-12T18:50:45Z",
    "version": 1,
    "changeset": 142493140,
    "user": "Rosie163",
    "uid": 16817271,
    "tags": {
      "amenity": "restaurant",
      "name:en": "Entrepotes"
    }
  },
  {
    "type": "node",
    "id": 11331319069,
    "lat": 31.6233595,
    "lon": -7.9893741,
    "timestamp": "2023-11-07T15:24:00Z",
    "version": 1,
    "changeset": 143742062,
    "user": "12042016",
    "uid": 2543904,
    "tags": {
      "addr:street": "Derb Sekaia",
      "amenity": "restaurant",
      "name:fr": "Agnaou"
    }
  },
  {
    "type": "node",
    "id": 11356610480,
    "lat": 31.637489,
    "lon": -8.0223879,
    "timestamp": "2023-11-16T18:43:41Z",
    "version": 1,
    "changeset": 144108087,
    "user": "Butter on the moon",
    "uid": 20597027,
    "tags": {
      "amenity": "restaurant",
      "name": "najib"
    }
  },
  {
    "type": "node",
    "id": 11393127771,
    "lat": 31.6342066,
    "lon": -7.9907249,
    "timestamp": "2023-12-03T23:19:49Z",
    "version": 1,
    "changeset": 144735348,
    "user": "259bd",
    "uid": 5302291,
    "tags": {
      "amenity": "restaurant",
      "name": "Coin D'or"
    }
  },
  {
    "type": "node",
    "id": 11418290170,
    "lat": 31.5933936,
    "lon": -8.0307385,
    "timestamp": "2023-12-14T20:49:39Z",
    "version": 1,
    "changeset": 145127116,
    "user": "259bd",
    "uid": 5302291,
    "tags": {
      "amenity": "restaurant",
      "name:en": "Fish Restaurant"
    }
  },
  {
    "type": "node",
    "id": 11418291869,
    "lat": 31.5935939,
    "lon": -8.0304876,
    "timestamp": "2023-12-14T20:49:33Z",
    "version": 1,
    "changeset": 145127116,
    "user": "259bd",
    "uid": 5302291,
    "tags": {
      "amenity": "restaurant",
      "name:en": "Fish Restaurant"
    }
  },
  {
    "type": "node",
    "id": 11420184673,
    "lat": 31.5926635,
    "lon": -8.0326215,
    "timestamp": "2023-12-15T12:19:36Z",
    "version": 1,
    "changeset": 145148439,
    "user": "259bd",
    "uid": 5302291,
    "tags": {
      "amenity": "restaurant",
      "name:en": "Chick & Pizz"
    }
  },
  {
    "type": "node",
    "id": 11420189074,
    "lat": 31.5913107,
    "lon": -8.0342827,
    "timestamp": "2023-12-15T12:19:42Z",
    "version": 1,
    "changeset": 145148439,
    "user": "259bd",
    "uid": 5302291,
    "tags": {
      "amenity": "restaurant",
      "name:en": "Challenge"
    }
  },
  {
    "type": "node",
    "id": 11420836079,
    "lat": 31.5960155,
    "lon": -8.0349445,
    "timestamp": "2023-12-15T18:28:38Z",
    "version": 1,
    "changeset": 145161627,
    "user": "259bd",
    "uid": 5302291,
    "tags": {
      "amenity": "restaurant"
    }
  },
  {
    "type": "node",
    "id": 11420838069,
    "lat": 31.5944305,
    "lon": -8.033859,
    "timestamp": "2023-12-15T18:26:11Z",
    "version": 1,
    "changeset": 145161627,
    "user": "259bd",
    "uid": 5302291,
    "tags": {
      "amenity": "restaurant"
    }
  },
  {
    "type": "node",
    "id": 11420840969,
    "lat": 31.5953216,
    "lon": -8.0342862,
    "timestamp": "2023-12-15T18:28:34Z",
    "version": 1,
    "changeset": 145161627,
    "user": "259bd",
    "uid": 5302291,
    "tags": {
      "amenity": "restaurant",
      "name:en": "La Familia"
    }
  },
  {
    "type": "node",
    "id": 11425322177,
    "lat": 31.5915755,
    "lon": -8.0499806,
    "timestamp": "2023-12-17T10:04:29Z",
    "version": 1,
    "changeset": 145208655,
    "user": "259bd",
    "uid": 5302291,
    "tags": {
      "amenity": "restaurant"
    }
  },
  {
    "type": "node",
    "id": 11425322396,
    "lat": 31.5973375,
    "lon": -8.0408894,
    "timestamp": "2023-12-17T10:05:04Z",
    "version": 1,
    "changeset": 145208655,
    "user": "259bd",
    "uid": 5302291,
    "tags": {
      "amenity": "restaurant",
      "name:en": "Al Assil"
    }
  },
  {
    "type": "node",
    "id": 11511483769,
    "lat": 31.6201874,
    "lon": -7.9856625,
    "timestamp": "2024-01-12T16:46:36Z",
    "version": 1,
    "changeset": 146188407,
    "user": "WillemShips",
    "uid": 8898249,
    "tags": {
      "amenity": "restaurant",
      "name:en": "Cesina Snack"
    }
  },
  {
    "type": "node",
    "id": 11549256541,
    "lat": 32.4816921,
    "lon": -7.9188837,
    "timestamp": "2024-01-25T09:27:08Z",
    "version": 1,
    "changeset": 146664550,
    "user": "Victor Geißler",
    "uid": 8188318,
    "tags": {
      "addr:city": "Skhour Rhamna صخور الرحامنة",
      "addr:postcode": "43402",
      "addr:street": "Avenue Mohamed V",
      "amenity": "restaurant",
      "cuisine": "traditional",
      "name": "Complexe Ecologique Rhamna",
      "website": "https://complexeecologiquerhamna.com/index.php"
    }
  },
  {
    "type": "node",
    "id": 11634625245,
    "lat": 31.6554601,
    "lon": -8.0163345,
    "timestamp": "2024-02-17T14:47:43Z",
    "version": 1,
    "changeset": 147574874,
    "user": "a00aa",
    "uid": 18716383,
    "tags": {
      "amenity": "restaurant",
      "name": "Grillade"
    }
  },
  {
    "type": "node",
    "id": 11684634796,
    "lat": 31.6330078,
    "lon": -8.0135063,
    "timestamp": "2024-03-02T13:22:10Z",
    "version": 1,
    "changeset": 148131419,
    "user": "Atlas Media Agency",
    "uid": 21137917,
    "tags": {
      "addr:city": "Marrakech",
      "addr:housenumber": "101",
      "addr:postcode": "40000",
      "addr:street": "Rue Yougoslavie زنقة يوغوسلافيا",
      "amenity": "restaurant",
      "cuisine": "french",
      "name": "Paname Lounge Marrakech",
      "opening_hours": "24/7",
      "phone": "+212763104111",
      "website": "https://www.panamelounge.com"
    }
  },
  {
    "type": "node",
    "id": 11766610769,
    "lat": 31.6268155,
    "lon": -7.9896513,
    "timestamp": "2024-04-12T20:37:39Z",
    "version": 3,
    "changeset": 149928233,
    "user": "b-jazz-bot",
    "uid": 9451067,
    "tags": {
      "amenity": "restaurant",
      "name:en": "L’Adresse",
      "phone": "0620945555",
      "website": "https://groupe-ladresse.com/"
    }
  },
  {
    "type": "node",
    "id": 11845511670,
    "lat": 31.6408889,
    "lon": -7.9997309,
    "timestamp": "2024-04-24T21:06:40Z",
    "version": 1,
    "changeset": 150467627,
    "user": "Andrew T McAllister",
    "uid": 5027395,
    "tags": {
      "addr:street": "Avenue Yacoub El Mansour",
      "amenity": "restaurant",
      "cuisine": "seafood",
      "name:en": "Fish House al Aachabe",
      "opening_hours": "Mo-Su 12:30-23:00",
      "phone": "+212664553381"
    }
  },
  {
    "type": "node",
    "id": 11845524485,
    "lat": 31.6204606,
    "lon": -7.9865299,
    "timestamp": "2024-04-26T18:25:25Z",
    "version": 2,
    "changeset": 150552352,
    "user": "b-jazz-bot",
    "uid": 9451067,
    "tags": {
      "addr:housenumber": "91",
      "addr:postcode": "40000",
      "addr:street": "Avenue Houman El Fetouaki",
      "amenity": "restaurant",
      "cuisine": "moroccan",
      "name:en": "La Table Ocre",
      "opening_hours": "Mo-Su 12:00-01:00",
      "phone": "+212667576209",
      "website": "https://medinamall.ma/"
    }
  },
  {
    "type": "node",
    "id": 11879761369,
    "lat": 31.6229256,
    "lon": -7.9851515,
    "timestamp": "2024-05-04T20:41:03Z",
    "version": 1,
    "changeset": 150897471,
    "user": "Andrew T McAllister",
    "uid": 5027395,
    "tags": {
      "addr:housenumber": "13",
      "addr:postcode": "40040",
      "addr:street": "Rue Riad Zitoun El Jedid",
      "amenity": "restaurant",
      "cuisine": "moroccan",
      "name:en": "Cafe Restaurant Dar L’hssira",
      "opening_hours": "We-Mo 11:00-17:00, 18:00-22:30",
      "phone": "+212600756845"
    }
  },
  {
    "type": "node",
    "id": 11879781269,
    "lat": 31.6325698,
    "lon": -8.0117612,
    "timestamp": "2024-05-04T20:49:18Z",
    "version": 1,
    "changeset": 150897731,
    "user": "Andrew T McAllister",
    "uid": 5027395,
    "tags": {
      "addr:housenumber": "73",
      "addr:postcode": "40000",
      "addr:street": "Boulevard Moulay Rachid شارع مولاي رشيد",
      "amenity": "restaurant",
      "cuisine": "moroccan;seafood",
      "name:en": "Bistro Fish",
      "opening_hours": "Su-Fr 09:00-03:00; Sa 09:00-03:30",
      "phone": "+212660060059"
    }
  },
  {
    "type": "node",
    "id": 11879792469,
    "lat": 31.6260637,
    "lon": -7.9867691,
    "timestamp": "2024-05-04T20:55:13Z",
    "version": 1,
    "changeset": 150897979,
    "user": "Andrew T McAllister",
    "uid": 5027395,
    "tags": {
      "addr:housenumber": "9",
      "addr:postcode": "40000",
      "addr:street": "Rue des Banques",
      "amenity": "restaurant",
      "cuisine": "moroccan",
      "name:en": "My Taher",
      "opening_hours": "Mo-Su 10:00-00:00",
      "phone": "+212661142012"
    }
  },
  {
    "type": "node",
    "id": 11879872369,
    "lat": 31.6244439,
    "lon": -7.9870149,
    "timestamp": "2024-05-04T21:08:58Z",
    "version": 1,
    "changeset": 150898371,
    "user": "Andrew T McAllister",
    "uid": 5027395,
    "tags": {
      "addr:housenumber": "7/8",
      "addr:postcode": "40000",
      "addr:street": "Rue Riad Zitoun el Kdim",
      "amenity": "restaurant",
      "cuisine": "moroccan",
      "name:en": "Le Bistro Arabe - Moroccan Jazz Restaurant in Marrakech",
      "opening_hours": "Mo-Su 06:30-23:00",
      "phone": "+212524429646",
      "website": "https://www.riad-monceau.com/le-bistro-arabe/"
    }
  },
  {
    "type": "node",
    "id": 11879877869,
    "lat": 31.6274283,
    "lon": -7.9841347,
    "timestamp": "2024-05-04T21:14:14Z",
    "version": 1,
    "changeset": 150898494,
    "user": "Andrew T McAllister",
    "uid": 5027395,
    "tags": {
      "addr:housenumber": "203",
      "addr:postcode": "40000",
      "addr:street": "Derb Jdid",
      "amenity": "restaurant",
      "cuisine": "moroccan",
      "name:en": "Chez Cherif"
    }
  },
  {
    "type": "node",
    "id": 11879887069,
    "lat": 31.625773,
    "lon": -7.9862408,
    "timestamp": "2024-05-04T21:21:36Z",
    "version": 1,
    "changeset": 150898680,
    "user": "Andrew T McAllister",
    "uid": 5027395,
    "tags": {
      "addr:housenumber": "3",
      "addr:postcode": "40000",
      "addr:street": "Rue des Banques",
      "amenity": "restaurant",
      "cuisine": "moroccan",
      "name:en": "Votre Table",
      "opening_hours": "Mo-Su 10:30-23:00",
      "phone": "+212524441644",
      "website": "https://www.votretablemarrakech.com/"
    }
  },
  {
    "type": "node",
    "id": 11879902069,
    "lat": 31.6314655,
    "lon": -7.9901691,
    "timestamp": "2024-05-04T21:31:59Z",
    "version": 1,
    "changeset": 150898924,
    "user": "Andrew T McAllister",
    "uid": 5027395,
    "tags": {
      "addr:housenumber": "76",
      "addr:postcode": "40000",
      "addr:street": "Rue Dar El Bacha",
      "amenity": "restaurant",
      "cuisine": "moroccan",
      "name:en": "Food Fatima",
      "opening_hours": "Mo-Su 10:00-21:00",
      "phone": "+212656232626"
    }
  },
  {
    "type": "node",
    "id": 11879913569,
    "lat": 31.6340749,
    "lon": -8.0145815,
    "timestamp": "2024-05-22T22:16:27Z",
    "version": 2,
    "changeset": 151698646,
    "user": "b-jazz-bot",
    "uid": 9451067,
    "tags": {
      "addr:housenumber": "37",
      "addr:postcode": "40000",
      "addr:street": "Boulevard El Mansour Eddahbi",
      "amenity": "restaurant",
      "cuisine": "moroccan",
      "name:en": "Sahbi Sahbi",
      "opening_hours": "Tu-Su 19:00-01:00",
      "phone": "+212662682312",
      "website": "https://sahbisahbi.com/"
    }
  },
  {
    "type": "node",
    "id": 11920364044,
    "lat": 31.6315526,
    "lon": -8.0071371,
    "timestamp": "2024-05-20T18:40:28Z",
    "version": 1,
    "changeset": 151595378,
    "user": "Atlas Media Agency",
    "uid": 21137917,
    "tags": {
      "addr:city": "Marrakech",
      "addr:housenumber": "Atar 1 Mag N 2 Angle Av Med",
      "addr:postcode": "40000",
      "addr:street": "57 Rue Mouatamid Ibn Abaad",
      "amenity": "restaurant",
      "cuisine": "italian_pizza;italian",
      "diet:halal": "yes",
      "name": "Baba Pizza",
      "opening_hours": "Mo-Su 11:30-02:00",
      "phone": "+212661825613",
      "website": "https://babapizza.ma/"
    }
  },
  {
    "type": "node",
    "id": 11920959384,
    "lat": 31.6321313,
    "lon": -8.0048346,
    "timestamp": "2024-05-21T00:58:05Z",
    "version": 1,
    "changeset": 151604938,
    "user": "Atlas Media Agency",
    "uid": 21137917,
    "tags": {
      "addr:city": "Marrakesch",
      "addr:postcode": "40000",
      "addr:street": "Rue Ibn Atya",
      "amenity": "restaurant",
      "cuisine": "mexican",
      "name": "Manzil",
      "opening_hours": "Mo-Su 12:00-03:00",
      "phone": "+212673732084",
      "website": "https://www.manzilmarrakech.com/"
    }
  },
  {
    "type": "node",
    "id": 11934785387,
    "lat": 31.6114787,
    "lon": -7.8960451,
    "timestamp": "2024-05-26T11:25:07Z",
    "version": 1,
    "changeset": 151846765,
    "user": "mustaphaaitomar",
    "uid": 21061477,
    "tags": {
      "amenity": "restaurant",
      "cuisine": "indian",
      "name": "Rivayat, The Oberoi, Marakkech"
    }
  },
  {
    "type": "node",
    "id": 12004808469,
    "lat": 31.6323042,
    "lon": -7.9885668,
    "timestamp": "2024-06-23T23:54:06Z",
    "version": 1,
    "changeset": 153089339,
    "user": "Skerp",
    "uid": 21045672,
    "tags": {
      "amenity": "restaurant",
      "name": "Soul Food"
    }
  },
  {
    "type": "node",
    "id": 12007388369,
    "lat": 31.6311251,
    "lon": -7.9853577,
    "timestamp": "2024-06-24T18:22:23Z",
    "version": 1,
    "changeset": 153125173,
    "user": "Skerp",
    "uid": 21045672,
    "tags": {
      "amenity": "restaurant",
      "name": "Le Slimana"
    }
  },
  {
    "type": "node",
    "id": 12009776350,
    "lat": 31.5664638,
    "lon": -8.0108352,
    "timestamp": "2024-06-25T15:39:32Z",
    "version": 1,
    "changeset": 153163237,
    "user": "Atlas Media Agency",
    "uid": 21137917,
    "tags": {
      "addr:city": "Marrakech",
      "addr:postcode": "40000",
      "addr:street": "Rue d'amezmiz",
      "amenity": "restaurant",
      "cuisine": "asian;international",
      "name": "Argan Garden Marrakech",
      "opening_hours": "24/7",
      "phone": "+212606729019",
      "website": "https://www.instagram.com/argan__garden?utm_source=ig_web_button_share_sheet&igsh=ZDNlZDc0MzIxNw=="
    }
  },
  {
    "type": "node",
    "id": 12099235426,
    "lat": 31.6271153,
    "lon": -7.9879667,
    "timestamp": "2024-08-08T17:53:43Z",
    "version": 1,
    "changeset": 154991061,
    "user": "lecolibri258",
    "uid": 9396646,
    "tags": {
      "addr:city": "Marrakech Medina",
      "addr:housenumber": "28",
      "addr:postcode": "40000",
      "addr:street": "Place Jamaâ Lefna",
      "amenity": "restaurant",
      "cuisine": "local",
      "name": "Tiznit",
      "opening_hours": "Mo-Su 12:00-00:00",
      "phone": "+212524427204"
    }
  },
  {
    "type": "node",
    "id": 12467240401,
    "lat": 31.6317896,
    "lon": -7.9966791,
    "timestamp": "2025-01-06T05:10:53Z",
    "version": 2,
    "changeset": 161044408,
    "user": "b-jazz-bot",
    "uid": 9451067,
    "tags": {
      "addr:housenumber": "2",
      "addr:postcode": "40000",
      "addr:street": "Derb Dekkak",
      "amenity": "restaurant",
      "cuisine": "japanese;moroccan",
      "name": "M Bacha Restaurant",
      "opening_hours": "Mo-Su 12:00-00:00",
      "phone": "+212 646-384722",
      "website": "https://mbacha.net/",
      "website:menu": "https://www.mbacha.net/menu"
    }
  },
  {
    "type": "node",
    "id": 12469280218,
    "lat": 31.6273429,
    "lon": -7.9851708,
    "timestamp": "2025-01-02T17:14:28Z",
    "version": 1,
    "changeset": 160917752,
    "user": "spiregrain",
    "uid": 251221,
    "tags": {
      "addr:city": "Marrakech",
      "addr:street": "Derb Dabachi",
      "amenity": "restaurant",
      "name": "Dabachi Chez Cherif"
    }
  },
  {
    "type": "node",
    "id": 12469280219,
    "lat": 31.6318575,
    "lon": -7.9849065,
    "timestamp": "2025-01-02T17:14:28Z",
    "version": 1,
    "changeset": 160917752,
    "user": "spiregrain",
    "uid": 251221,
    "tags": {
      "addr:city": "Marrakech",
      "addr:street": "Rue du Souk des Fassis",
      "amenity": "restaurant",
      "diet:vegan": "only",
      "name": "Storytelling Cafe"
    }
  },
  {
    "type": "node",
    "id": 12478758529,
    "lat": 31.6196463,
    "lon": -7.9896527,
    "timestamp": "2025-01-06T16:03:20Z",
    "version": 1,
    "changeset": 161064537,
    "user": "anttit",
    "uid": 606416,
    "tags": {
      "amenity": "restaurant",
      "name": "Villa Aaron",
      "opening_hours": "Mo-Su 10:00-00:00",
      "phone": "+212 6 69 09 08 28",
      "website": "https://villa-aaron.com"
    }
  },
  {
    "type": "node",
    "id": 12478768248,
    "lat": 31.6268758,
    "lon": -7.9869834,
    "timestamp": "2025-01-06T16:03:21Z",
    "version": 1,
    "changeset": 161064537,
    "user": "anttit",
    "uid": 606416,
    "tags": {
      "amenity": "restaurant",
      "name": "Le Grand Bazar Marrakech"
    }
  },
  {
    "type": "node",
    "id": 12478771346,
    "lat": 31.6244209,
    "lon": -7.9869115,
    "timestamp": "2025-01-06T16:03:20Z",
    "version": 1,
    "changeset": 161064537,
    "user": "anttit",
    "uid": 606416,
    "tags": {
      "addr:housenumber": "7/8",
      "addr:street": "Derb Chaabane",
      "amenity": "restaurant",
      "name": "La Pergola rooftop jazz bar"
    }
  },
  {
    "type": "node",
    "id": 12496732872,
    "lat": 31.6190685,
    "lon": -7.9868005,
    "timestamp": "2025-01-12T20:24:36Z",
    "version": 1,
    "changeset": 161286604,
    "user": "Tobias235",
    "uid": 14827393,
    "tags": {
      "amenity": "restaurant",
      "name": "La main de Fatima"
    }
  },
  {
    "type": "node",
    "id": 12602067385,
    "lat": 31.6326435,
    "lon": -7.9889899,
    "timestamp": "2025-02-19T23:11:44Z",
    "version": 1,
    "changeset": 162720091,
    "user": "marius851000",
    "uid": 6658891,
    "tags": {
      "amenity": "restaurant",
      "name": "Chez Mariama Berbère",
      "todo": "site: www.chezmariamaberbere.com\ntéléphone: +212 6 60 39 62 92\nhoraire: \"daily from 9am - 23pm\" (quotidiennement de 9 à 23h)\nindique \"terrasse, salle climatisé, wifi gratuit\""
    }
  },
  {
    "type": "node",
    "id": 12602098610,
    "lat": 31.6314004,
    "lon": -7.9890373,
    "timestamp": "2025-02-19T23:08:45Z",
    "version": 1,
    "changeset": 162720046,
    "user": "marius851000",
    "uid": 6658891,
    "tags": {
      "amenity": "restaurant",
      "noname": "yes",
      "note": "propose de la pastilla, tajine, tanjia, burger beldi et sandwich poulet, en plus de café et thé. Prix des ces plats entre 30 et 60 dirams\n(en date du 19 février 2025)"
    }
  },
  {
    "type": "node",
    "id": 12606949732,
    "lat": 31.6196099,
    "lon": -7.9849929,
    "timestamp": "2025-02-21T13:28:59Z",
    "version": 1,
    "changeset": 162780628,
    "user": "marius851000",
    "uid": 6658891,
    "tags": {
      "amenity": "restaurant",
      "name": "Chez Ali"
    }
  },
  {
    "type": "node",
    "id": 12618244924,
    "lat": 31.6328318,
    "lon": -7.9887404,
    "timestamp": "2025-02-25T13:52:09Z",
    "version": 1,
    "changeset": 162933303,
    "user": "j_lht94",
    "uid": 14253152,
    "tags": {
      "amenity": "restaurant",
      "name": "Le Jardin Ben Youssef"
    }
  },
  {
    "type": "node",
    "id": 12639136295,
    "lat": 31.6310214,
    "lon": -7.9893989,
    "timestamp": "2025-03-05T18:38:49Z",
    "version": 1,
    "changeset": 163256133,
    "user": "andi_osm",
    "uid": 3186104,
    "tags": {
      "amenity": "restaurant",
      "name": "Yazel"
    }
  },
  {
    "type": "node",
    "id": 12733016411,
    "lat": 31.5632673,
    "lon": -7.6577213,
    "timestamp": "2025-04-06T11:27:34Z",
    "version": 1,
    "changeset": 164585835,
    "user": "mikr2019",
    "uid": 9485264,
    "tags": {
      "amenity": "restaurant",
      "cuisine": "fast_food",
      "name": "Espace Ghali"
    }
  },
  {
    "type": "way",
    "id": 127088495,
    "timestamp": "2018-05-22T00:43:35Z",
    "version": 2,
    "changeset": 59166258,
    "user": "Te-Ika",
    "uid": 3742941,
    "center": {
      "lat": 31.6680913,
      "lon": -8.0112599
    },
    "nodes": [
      1407315893,
      1407315896,
      1407315886,
      1407315878,
      1407315893
    ],
    "tags": {
      "addr:street": "Boulevard Allal el Fassi",
      "amenity": "restaurant",
      "building": "yes",
      "name": "Tito's"
    }
  },
  {
    "type": "way",
    "id": 226224450,
    "timestamp": "2013-06-24T09:16:58Z",
    "version": 2,
    "changeset": 16681132,
    "user": "Steven Horner",
    "uid": 594285,
    "center": {
      "lat": 31.6509019,
      "lon": -7.9797984
    },
    "nodes": [
      2350829296,
      2350829297,
      2350829298,
      2350829299,
      2350829296
    ],
    "tags": {
      "amenity": "restaurant",
      "building": "yes",
      "cuisine": "moroccan",
      "name": "les 1001 nuits"
    }
  },
  {
    "type": "way",
    "id": 328555749,
    "timestamp": "2021-12-10T04:46:58Z",
    "version": 2,
    "changeset": 114767902,
    "user": "Little italy marrakech",
    "uid": 14604564,
    "center": {
      "lat": 31.6387108,
      "lon": -8.0161871
    },
    "nodes": [
      3353793627,
      3353793604,
      3353793593,
      3353793586,
      3353793585,
      3353793591,
      3353793587,
      3353793626,
      3353793637,
      3353793625,
      3353793627
    ],
    "tags": {
      "amenity": "restaurant",
      "building": "yes"
    }
  },
  {
    "type": "way",
    "id": 328555854,
    "timestamp": "2021-12-21T12:32:59Z",
    "version": 4,
    "changeset": 115208383,
    "user": "b-jazz-bot",
    "uid": 9451067,
    "center": {
      "lat": 31.6392994,
      "lon": -8.0166022
    },
    "nodes": [
      3353793695,
      3353793686,
      3353793689,
      3353793694,
      3353793698,
      3353793695
    ],
    "tags": {
      "addr:city": "Marrakech",
      "addr:housenumber": "48",
      "addr:postcode": "40000",
      "addr:street": "Rue Mohammed El Bekal",
      "amenity": "restaurant",
      "bar": "yes",
      "building": "yes",
      "cuisine": "italian;pizza",
      "delivery": "yes",
      "diet:mediterranean": "yes",
      "email": "littleitalymarrakech@gmail.com",
      "internet_access": "wlan",
      "internet_access:fee": "no",
      "name": "Little Italy Marrakech",
      "note": "Ristorante italiano",
      "opening_hours": "Mo-Su 12:00-24:00",
      "outdoor_seating": "yes",
      "phone": "+212808545291",
      "takeaway": "yes",
      "website": "https://www.little-italy-marrakech.com/",
      "wheelchair": "yes"
    }
  },
  {
    "type": "way",
    "id": 329017101,
    "timestamp": "2023-10-17T02:47:14Z",
    "version": 5,
    "changeset": 142690452,
    "user": "b-jazz-bot",
    "uid": 9451067,
    "center": {
      "lat": 31.6390715,
      "lon": -8.0137562
    },
    "nodes": [
      3358339535,
      3358339523,
      3358339532,
      3358339544,
      3358339535
    ],
    "tags": {
      "amenity": "restaurant",
      "building": "yes",
      "contact:facebook": "AmalNonProfit",
      "contact:instagram": "amalnonprofit",
      "contact:twitter": "amalnonprofit",
      "cuisine": "moroccan",
      "name": "Association Amal - Women Training Center and Moroccan Restaurant",
      "phone": "+212-5-24-44-68-96",
      "website": "https://amalnonprofit.org/"
    }
  },
  {
    "type": "way",
    "id": 365683123,
    "timestamp": "2015-08-14T12:40:08Z",
    "version": 1,
    "changeset": 33335493,
    "user": "ABZ_OSM",
    "uid": 1940003,
    "center": {
      "lat": 31.687491,
      "lon": -7.9777499
    },
    "nodes": [
      3696845549,
      3696845547,
      3696845546,
      3696845544,
      3696845543,
      3696845545,
      3696845542,
      3696845548,
      3696845549
    ],
    "tags": {
      "amenity": "restaurant",
      "building": "commercial",
      "name": "Nikki Beach – Beach Club"
    }
  },
  {
    "type": "way",
    "id": 366317329,
    "timestamp": "2015-08-28T13:12:40Z",
    "version": 4,
    "changeset": 33643927,
    "user": "johnparis",
    "uid": 2126146,
    "center": {
      "lat": 31.686744,
      "lon": -7.9650355
    },
    "nodes": [
      3702914588,
      3702914580,
      3702914579,
      3702914571,
      3702914572,
      3702914567,
      3702914568,
      3702914565,
      3702914566,
      3702914563,
      3702914564,
      3702914569,
      3702914570,
      3702914583,
      3702914582,
      3702914599,
      3702914597,
      3702914595,
      3702914594,
      3702914589,
      3702914588
    ],
    "tags": {
      "amenity": "restaurant",
      "building": "yes",
      "golf": "clubhouse",
      "name": "Karmoussa",
      "sport": "golf"
    }
  },
  {
    "type": "way",
    "id": 366321873,
    "timestamp": "2015-09-09T11:40:55Z",
    "version": 2,
    "changeset": 33906554,
    "user": "ABZ_OSM",
    "uid": 1940003,
    "center": {
      "lat": 31.671221,
      "lon": -7.9850067
    },
    "nodes": [
      3702970740,
      3702970737,
      3702970736,
      3702970732,
      3702970733,
      3702970730,
      3702970731,
      3702970734,
      3702970735,
      3702970739,
      3702970738,
      3702970741,
      3702970740
    ],
    "tags": {
      "amenity": "restaurant",
      "building": "commercial",
      "name": "Le Jardin"
    }
  },
  {
    "type": "way",
    "id": 366382285,
    "timestamp": "2015-08-18T20:29:50Z",
    "version": 2,
    "changeset": 33425827,
    "user": "ABZ_OSM",
    "uid": 1940003,
    "center": {
      "lat": 31.684445,
      "lon": -7.9677491
    },
    "nodes": [
      3703585661,
      3703585656,
      3703585660,
      3703585662,
      3703585661
    ],
    "tags": {
      "amenity": "restaurant",
      "building": "yes",
      "name": "Pasta Cosy – Italian cuisine"
    }
  },
  {
    "type": "way",
    "id": 366792570,
    "timestamp": "2015-09-09T11:40:55Z",
    "version": 2,
    "changeset": 33906554,
    "user": "ABZ_OSM",
    "uid": 1940003,
    "center": {
      "lat": 31.6737284,
      "lon": -7.9874478
    },
    "nodes": [
      3707707867,
      3707707863,
      3707707862,
      3707707866,
      3707707867
    ],
    "tags": {
      "amenity": "restaurant",
      "building": "commercial",
      "name": "La Pergola"
    }
  },
  {
    "type": "way",
    "id": 369781523,
    "timestamp": "2015-09-09T02:41:32Z",
    "version": 1,
    "changeset": 33897629,
    "user": "ABZ_OSM",
    "uid": 1940003,
    "center": {
      "lat": 31.6788058,
      "lon": -7.9743771
    },
    "nodes": [
      3735386559,
      3735386558,
      3735386555,
      3735386554,
      3735386550,
      3735386551,
      3735386548,
      3735386549,
      3735386552,
      3735386553,
      3735386557,
      3735386556,
      3735386559
    ],
    "tags": {
      "amenity": "restaurant",
      "building": "yes"
    }
  },
  {
    "type": "way",
    "id": 369781524,
    "timestamp": "2015-09-09T02:41:32Z",
    "version": 1,
    "changeset": 33897629,
    "user": "ABZ_OSM",
    "uid": 1940003,
    "center": {
      "lat": 31.6816308,
      "lon": -7.9751646
    },
    "nodes": [
      3735386604,
      3735386607,
      3735386605,
      3735386606,
      3735386603,
      3735386601,
      3735386599,
      3735386596,
      3735386598,
      3735386597,
      3735386600,
      3735386602,
      3735386604
    ],
    "tags": {
      "amenity": "restaurant",
      "building": "yes"
    }
  },
  {
    "type": "way",
    "id": 369842296,
    "timestamp": "2015-09-09T11:22:15Z",
    "version": 1,
    "changeset": 33906128,
    "user": "ABZ_OSM",
    "uid": 1940003,
    "center": {
      "lat": 31.6807155,
      "lon": -7.9756531
    },
    "nodes": [
      3735885132,
      3735885136,
      3735885134,
      3735885135,
      3735885133,
      3735885131,
      3735885129,
      3735885125,
      3735885127,
      3735885126,
      3735885128,
      3735885130,
      3735885132
    ],
    "tags": {
      "amenity": "restaurant",
      "building": "yes"
    }
  },
  {
    "type": "way",
    "id": 853775684,
    "timestamp": "2020-10-01T12:49:06Z",
    "version": 1,
    "changeset": 91828069,
    "user": "Jordan Mann",
    "uid": 1876487,
    "center": {
      "lat": 31.6283693,
      "lon": -7.9940195
    },
    "nodes": [
      7963036797,
      7963284378,
      7963284377,
      7963284376,
      7963036797
    ],
    "tags": {
      "addr:street": "Avenue Fatima Zohra",
      "amenity": "restaurant",
      "building": "yes",
      "cuisine": "international;local;moroccan",
      "internet_access": "wlan",
      "name": "Chez Yassine",
      "name:de": "Chez Yassine",
      "name:en": "Chez Yassine"
    }
  },
  {
    "type": "way",
    "id": 853775698,
    "timestamp": "2020-10-01T12:49:06Z",
    "version": 1,
    "changeset": 91828069,
    "user": "Jordan Mann",
    "uid": 1876487,
    "center": {
      "lat": 31.6287732,
      "lon": -7.9938861
    },
    "nodes": [
      7963286833,
      7963286821,
      7963286832,
      7963286831,
      7963286830,
      7963286833
    ],
    "tags": {
      "amenity": "restaurant",
      "building": "yes",
      "cuisine": "pizza;sandwich",
      "name:en": "Fritos"
    }
  },
  {
    "type": "way",
    "id": 853967029,
    "timestamp": "2023-06-30T17:58:03Z",
    "version": 2,
    "changeset": 137968757,
    "user": "ironspock",
    "uid": 10728241,
    "center": {
      "lat": 31.6252694,
      "lon": -7.9931587
    },
    "nodes": [
      7964384904,
      7964384902,
      7964384901,
      7964384900,
      5044705128,
      7964384903,
      7964384904
    ],
    "tags": {
      "addr:street": "Boulevard Mohammed V",
      "amenity": "restaurant",
      "building": "yes",
      "name": "Sky Venisia",
      "opening_hours:signed": "no"
    }
  },
  {
    "type": "way",
    "id": 853967032,
    "timestamp": "2023-06-30T17:58:06Z",
    "version": 2,
    "changeset": 137968757,
    "user": "ironspock",
    "uid": 10728241,
    "center": {
      "lat": 31.6253218,
      "lon": -7.9932717
    },
    "nodes": [
      7964384910,
      7964384909,
      7964384908,
      7964384907,
      7964384910
    ],
    "tags": {
      "addr:street": "Boulevard Mohammed V",
      "amenity": "restaurant",
      "building": "yes",
      "name": "Restaurante Portofino",
      "opening_hours:signed": "no"
    }
  },
  {
    "type": "way",
    "id": 854050224,
    "timestamp": "2020-10-01T20:34:15Z",
    "version": 1,
    "changeset": 91845635,
    "user": "Jordan Mann",
    "uid": 1876487,
    "center": {
      "lat": 31.6261245,
      "lon": -7.9929613
    },
    "nodes": [
      7964927530,
      7964927526,
      7964927529,
      7964927545,
      7964927541,
      7964927542,
      7964927539,
      7964927537,
      7964927535,
      7964927533,
      7964927531,
      7964927532,
      7964927530
    ],
    "tags": {
      "amenity": "restaurant",
      "building": "yes",
      "email": "contact@kabana-marrakech.com",
      "name": "Kabana",
      "opening_hours": "11:00-26:00",
      "phone": "+212 664 464450",
      "website": "https://www.kabana-marrakech.com/"
    }
  },
  {
    "type": "way",
    "id": 854050241,
    "timestamp": "2020-10-01T20:34:15Z",
    "version": 1,
    "changeset": 91845635,
    "user": "Jordan Mann",
    "uid": 1876487,
    "center": {
      "lat": 31.6254962,
      "lon": -7.992656
    },
    "nodes": [
      7964927567,
      7964927564,
      7964927563,
      7873663857,
      7873663860,
      7873663858,
      7964927567
    ],
    "tags": {
      "amenity": "restaurant",
      "building": "yes",
      "cuisine": "moroccan"
    }
  },
  {
    "type": "way",
    "id": 898437222,
    "timestamp": "2021-01-22T14:01:21Z",
    "version": 2,
    "changeset": 97979498,
    "user": "Jordan Mann",
    "uid": 1876487,
    "center": {
      "lat": 31.623827,
      "lon": -7.9916281
    },
    "nodes": [
      8349305974,
      8349305973,
      8348939484,
      8348939492,
      8348939491,
      8349305974
    ],
    "tags": {
      "amenity": "restaurant",
      "building": "yes"
    }
  },
  {
    "type": "way",
    "id": 898483398,
    "timestamp": "2021-01-22T14:01:21Z",
    "version": 1,
    "changeset": 97979498,
    "user": "Jordan Mann",
    "uid": 1876487,
    "center": {
      "lat": 31.6238473,
      "lon": -7.9915386
    },
    "nodes": [
      8349305974,
      8349305976,
      8349305975,
      8349305973,
      8349305974
    ],
    "tags": {
      "amenity": "restaurant",
      "building": "yes",
      "name": "O'Tacos"
    }
  },
  {
    "type": "way",
    "id": 898483399,
    "timestamp": "2021-01-22T14:01:21Z",
    "version": 1,
    "changeset": 97979498,
    "user": "Jordan Mann",
    "uid": 1876487,
    "center": {
      "lat": 31.6238832,
      "lon": -7.9914356
    },
    "nodes": [
      8349305976,
      8348939486,
      8348939485,
      8349305975,
      8349305976
    ],
    "tags": {
      "amenity": "restaurant",
      "building": "yes",
      "name": "Mido"
    }
  },
  {
    "type": "way",
    "id": 901936955,
    "timestamp": "2023-05-18T18:15:16Z",
    "version": 2,
    "changeset": 136267689,
    "user": "Cyrille37",
    "uid": 454932,
    "center": {
      "lat": 31.6224793,
      "lon": -7.990404
    },
    "nodes": [
      8357691166,
      8357691167,
      10908748356,
      8357691150,
      8377950969,
      8377950968,
      8357691069,
      8357691166
    ],
    "tags": {
      "amenity": "restaurant",
      "building": "retail"
    }
  },
  {
    "type": "way",
    "id": 901936956,
    "timestamp": "2023-05-18T12:13:49Z",
    "version": 2,
    "changeset": 136252199,
    "user": "Cyrille37",
    "uid": 454932,
    "center": {
      "lat": 31.6224846,
      "lon": -7.990762
    },
    "nodes": [
      8377950972,
      10908169760,
      8377950971,
      8377950970,
      10908169759,
      8377950973,
      8377950972
    ],
    "tags": {
      "amenity": "restaurant",
      "building": "retail",
      "name": "Immim"
    }
  },
  {
    "type": "way",
    "id": 917791061,
    "timestamp": "2024-04-04T09:45:34Z",
    "version": 4,
    "changeset": 149561399,
    "user": "Aya Samir",
    "uid": 15567285,
    "center": {
      "lat": 32.2180577,
      "lon": -7.9371848
    },
    "nodes": [
      8524298536,
      8524298537,
      8524298538,
      11786555583,
      8524298536
    ],
    "tags": {
      "addr:city": "Benguerir ⴱⴰⵏⴳⵔⵉⵔ بن گرير",
      "addr:postcode": "43150",
      "amenity": "restaurant",
      "building": "yes",
      "name": "Restaurant UM6P",
      "website": "https://um6p.ma/"
    }
  },
  {
    "type": "way",
    "id": 1087267238,
    "timestamp": "2022-08-18T16:31:03Z",
    "version": 1,
    "changeset": 125069931,
    "user": "karimo58",
    "uid": 15093608,
    "center": {
      "lat": 32.2300554,
      "lon": -7.9391407
    },
    "nodes": [
      9961957593,
      9961957594,
      9961957595,
      9961957596,
      9961957597,
      9961957598,
      9961957593
    ],
    "tags": {
      "addr:city": "Ben Guerir ابن جرير",
      "amenity": "restaurant",
      "cuisine": "italian;pizza",
      "name": "Posto Gosto"
    }
  },
  {
    "type": "way",
    "id": 1188968222,
    "timestamp": "2023-07-11T17:42:54Z",
    "version": 1,
    "changeset": 138390253,
    "user": "hysushi marrakech",
    "uid": 19836746,
    "center": {
      "lat": 31.6343522,
      "lon": -8.007632
    },
    "nodes": [
      10004146116,
      11040136049,
      11040136050,
      11040136051,
      10004146116
    ],
    "tags": {
      "addr:city": "Marrakech",
      "addr:postcode": "40000",
      "addr:street": "Rue el Imam Malik,",
      "amenity": "restaurant",
      "building": "yes",
      "cuisine": "sushi;thai",
      "diet:local": "yes",
      "name": "hysushi",
      "opening_hours": "sunrise-sunset",
      "phone": "+212770707575",
      "website": "https://hysushi-marrakech.com/"
    }
  },
  {
    "type": "way",
    "id": 1191456683,
    "timestamp": "2023-07-22T17:35:06Z",
    "version": 1,
    "changeset": 138864755,
    "user": "Sal73x",
    "uid": 1293386,
    "center": {
      "lat": 32.0266749,
      "lon": -7.3954481
    },
    "nodes": [
      11061934202,
      11062008718,
      11062008756,
      11062008717,
      11061934179,
      11062008731,
      11062008720,
      11061934180,
      11062008859,
      11062008723,
      11062008724,
      11062008708,
      11062008866,
      11061934181,
      11061934182,
      11061934183,
      11061934184,
      11061934185,
      11061934186,
      11061934187,
      11061934188,
      11061934189,
      11061934190,
      11061934191,
      11061934192,
      11061934193,
      11061934194,
      11061934195,
      11061934196,
      11061934197,
      11061934198,
      11061934199,
      11061934200,
      11062008705,
      11061934204,
      11061934202
    ],
    "tags": {
      "amenity": "restaurant",
      "cuisine": "moroccan",
      "landuse": "commercial",
      "name": "Borj El Kelaa"
    }
  },
  {
    "type": "way",
    "id": 1191456707,
    "timestamp": "2023-07-22T17:35:06Z",
    "version": 1,
    "changeset": 138864755,
    "user": "Sal73x",
    "uid": 1293386,
    "center": {
      "lat": 32.0286139,
      "lon": -7.3934353
    },
    "nodes": [
      11062008920,
      11062008921,
      11062008922,
      11062008923,
      11062008924,
      11062008925,
      11062008926,
      11062008927,
      11062008928,
      11062008929,
      11062008930,
      11062008931,
      11062008932,
      11062008933,
      11062008934,
      11062008970,
      11062008920
    ],
    "tags": {
      "amenity": "restaurant",
      "building": "yes",
      "name": "Oasis Café Restaurant"
    }
  },
  {
    "type": "way",
    "id": 1191693336,
    "timestamp": "2023-07-24T00:24:10Z",
    "version": 1,
    "changeset": 138914373,
    "user": "Sal73x",
    "uid": 1293386,
    "center": {
      "lat": 32.0327972,
      "lon": -7.4040948
    },
    "nodes": [
      11064071254,
      11064071253,
      11064091612,
      11064091652,
      11064091539,
      11064091540,
      11064091646,
      11064071275,
      11064071276,
      11064071257,
      11064071256,
      11064071255,
      11064091611,
      11064071254
    ],
    "tags": {
      "amenity": "restaurant",
      "landuse": "commercial",
      "name": "Espace Zikar : Café, Restaurant"
    }
  },
  {
    "type": "way",
    "id": 1213689388,
    "timestamp": "2023-10-20T00:22:46Z",
    "version": 2,
    "changeset": 142842594,
    "user": "Miaallen",
    "uid": 20487745,
    "center": {
      "lat": 31.6320864,
      "lon": -7.9859653
    },
    "nodes": [
      11244494648,
      11244494649,
      11244494650,
      11244494651,
      11244494648
    ],
    "tags": {
      "amenity": "restaurant",
      "building": "yes",
      "name": "Terrasse La Medersa"
    }
  },
  {
    "type": "way",
    "id": 1214914717,
    "timestamp": "2024-09-13T14:00:14Z",
    "version": 2,
    "changeset": 156573949,
    "user": "l2mlda",
    "uid": 12909280,
    "center": {
      "lat": 31.5788262,
      "lon": -7.984165
    },
    "nodes": [
      11256250300,
      11256250301,
      11256250302,
      11256250303,
      11256250304,
      11256250305,
      12174940744,
      11256250306,
      11256250300
    ],
    "tags": {
      "amenity": "restaurant",
      "building": "yes"
    }
  },
  {
    "type": "way",
    "id": 1216952593,
    "timestamp": "2023-10-20T00:22:46Z",
    "version": 1,
    "changeset": 142842594,
    "user": "Miaallen",
    "uid": 20487745,
    "center": {
      "lat": 31.6307009,
      "lon": -7.9863051
    },
    "nodes": [
      11276280835,
      11276280836,
      11276280837,
      11276280838,
      11276280835
    ],
    "tags": {
      "amenity": "restaurant",
      "building": "yes",
      "name": "Tavlin"
    }
  },
  {
    "type": "way",
    "id": 1223984851,
    "timestamp": "2024-04-19T10:07:55Z",
    "version": 2,
    "changeset": 150215564,
    "user": "mustaphaaitomar",
    "uid": 21061477,
    "center": {
      "lat": 31.6235302,
      "lon": -7.9816264
    },
    "nodes": [
      11352882743,
      11352882744,
      11352882745,
      11352882746,
      11352882747,
      11352882748,
      11352882749,
      11352882750,
      11352882751,
      11352882752,
      11352882753,
      11352882754,
      11352882755,
      11352882756,
      11352882743
    ],
    "tags": {
      "amenity": "restaurant",
      "building": "yes",
      "cuisine": "moroccan",
      "name": "مطعم المأكولات المغربية",
      "outdoor_seating": "yes"
    }
  },
  {
    "type": "way",
    "id": 1235769728,
    "timestamp": "2023-12-31T07:01:32Z",
    "version": 1,
    "changeset": 145721586,
    "user": "cactolith",
    "uid": 4050400,
    "center": {
      "lat": 31.6130221,
      "lon": -7.9872753
    },
    "nodes": [
      11472336800,
      11472336801,
      11472336802,
      11472336803,
      11472336800
    ],
    "tags": {
      "amenity": "restaurant",
      "building": "yes",
      "cuisine": "moroccan",
      "name": "Cafe Clock"
    }
  },
  {
    "type": "way",
    "id": 1266346447,
    "timestamp": "2024-03-26T02:46:38Z",
    "version": 1,
    "changeset": 149156239,
    "user": "RittaIL",
    "uid": 21241651,
    "center": {
      "lat": 31.5913627,
      "lon": -8.034351
    },
    "nodes": [
      11762648130,
      11762648131,
      11762648132,
      11762648133,
      11762648134,
      11762648130
    ],
    "tags": {
      "amenity": "restaurant",
      "building": "yes"
    }
  },
  {
    "type": "way",
    "id": 1315336217,
    "timestamp": "2024-09-13T14:00:14Z",
    "version": 1,
    "changeset": 156573949,
    "user": "l2mlda",
    "uid": 12909280,
    "center": {
      "lat": 31.5790761,
      "lon": -7.9843618
    },
    "nodes": [
      12174940745,
      11256250305,
      11256250304,
      12174940750,
      12174940746,
      12174940751,
      12174940747,
      12174940748,
      12174940749,
      12174940745
    ],
    "tags": {
      "amenity": "restaurant",
      "building": "yes",
      "cuisine": "moroccan",
      "name": "Orangeraie"
    }
  }
]