[
  {
    "type": "node",
    "id": 1669477668,
    "lat": 33.0052824,
    "lon": -7.6199874,
    "timestamp": "2016-12-06T22:05:54Z",
    "version": 2,
    "changeset": 44221247,
    "user": "ZakariaMKL",
    "uid": 3870359,
    "tags": {
      "amenity": "restaurant",
      "name": "Pizerria"
    }
  },
  {
    "type": "node",
    "id": 1875063784,
    "lat": 33.3537322,
    "lon": -7.9784877,
    "timestamp": "2012-08-20T21:26:15Z",
    "version": 2,
    "changeset": 12801649,
    "user": "alain2003",
    "uid": 578772,
    "tags": {
      "amenity": "restaurant"
    }
  },
  {
    "type": "node",
    "id": 1875063805,
    "lat": 33.3528091,
    "lon": -7.9801614,
    "timestamp": "2012-08-20T21:26:15Z",
    "version": 2,
    "changeset": 12801649,
    "user": "alain2003",
    "uid": 578772,
    "tags": {
      "amenity": "restaurant"
    }
  },
  {
    "type": "node",
    "id": 1875063812,
    "lat": 33.5109396,
    "lon": -7.6103706,
    "timestamp": "2014-06-05T06:34:20Z",
    "version": 3,
    "changeset": 22749068,
    "user": "Ludovic Drouard",
    "uid": 1151930,
    "tags": {
      "amenity": "restaurant"
    }
  },
  {
    "type": "node",
    "id": 1875063883,
    "lat": 33.5100315,
    "lon": -7.6077605,
    "timestamp": "2014-06-05T06:34:20Z",
    "version": 3,
    "changeset": 22749068,
    "user": "Ludovic Drouard",
    "uid": 1151930,
    "tags": {
      "amenity": "restaurant"
    }
  },
  {
    "type": "node",
    "id": 1875091512,
    "lat": 32.8943748,
    "lon": -7.669217,
    "timestamp": "2014-05-27T06:12:36Z",
    "version": 2,
    "changeset": 22575982,
    "user": "Ludovic Drouard",
    "uid": 1151930,
    "tags": {
      "amenity": "restaurant"
    }
  },
  {
    "type": "node",
    "id": 1875091518,
    "lat": 33.2230948,
    "lon": -7.5748543,
    "timestamp": "2012-08-20T21:42:17Z",
    "version": 1,
    "changeset": 12801649,
    "user": "alain2003",
    "uid": 578772,
    "tags": {
      "amenity": "restaurant"
    }
  },
  {
    "type": "node",
    "id": 1875091520,
    "lat": 33.222682,
    "lon": -7.5731323,
    "timestamp": "2012-08-20T21:42:18Z",
    "version": 1,
    "changeset": 12801649,
    "user": "alain2003",
    "uid": 578772,
    "tags": {
      "amenity": "restaurant"
    }
  },
  {
    "type": "node",
    "id": 1875091524,
    "lat": 32.8973808,
    "lon": -7.6680557,
    "timestamp": "2012-08-20T21:42:18Z",
    "version": 1,
    "changeset": 12801649,
    "user": "alain2003",
    "uid": 578772,
    "tags": {
      "amenity": "restaurant"
    }
  },
  {
    "type": "node",
    "id": 2576436640,
    "lat": 32.6300944,
    "lon": -7.7941864,
    "timestamp": "2013-12-11T23:37:22Z",
    "version": 1,
    "changeset": 19404445,
    "user": "alain2003",
    "uid": 578772,
    "tags": {
      "amenity": "restaurant"
    }
  },
  {
    "type": "node",
    "id": 2836515135,
    "lat": 33.5443065,
    "lon": -7.6413493,
    "timestamp": "2019-05-25T03:11:12Z",
    "version": 2,
    "changeset": 70603279,
    "user": "Timothy Smith",
    "uid": 115918,
    "tags": {
      "amenity": "restaurant",
      "brand": "Pizza Hut",
      "brand:wikidata": "Q191615",
      "brand:wikipedia": "en:Pizza Hut",
      "cuisine": "pizza",
      "name": "Pizza Hut"
    }
  },
  {
    "type": "node",
    "id": 3957575622,
    "lat": 33.4786769,
    "lon": -7.7555362,
    "timestamp": "2016-01-21T03:29:03Z",
    "version": 1,
    "changeset": 36713064,
    "user": "alain2003",
    "uid": 578772,
    "tags": {
      "amenity": "restaurant"
    }
  },
  {
    "type": "node",
    "id": 4471365713,
    "lat": 33.5157081,
    "lon": -7.8568521,
    "timestamp": "2016-10-30T16:02:21Z",
    "version": 1,
    "changeset": 43286354,
    "user": "Arlequin_00",
    "uid": 4033977,
    "tags": {
      "amenity": "restaurant",
      "name:en": "Babaloo Beach Club"
    }
  },
  {
    "type": "node",
    "id": 4497651190,
    "lat": 33.5154818,
    "lon": -7.8573192,
    "timestamp": "2016-11-13T00:04:28Z",
    "version": 1,
    "changeset": 43592399,
    "user": "Arlequin_00",
    "uid": 4033977,
    "tags": {
      "amenity": "restaurant",
      "name:en": "Les 3 Mâts"
    }
  },
  {
    "type": "node",
    "id": 4497653989,
    "lat": 33.5153208,
    "lon": -7.8577304,
    "timestamp": "2016-11-13T00:04:29Z",
    "version": 1,
    "changeset": 43592399,
    "user": "Arlequin_00",
    "uid": 4033977,
    "tags": {
      "amenity": "restaurant",
      "name:en": "Sunny Beach"
    }
  },
  {
    "type": "node",
    "id": 4538611847,
    "lat": 32.9986971,
    "lon": -7.6200864,
    "timestamp": "2016-12-04T22:30:29Z",
    "version": 1,
    "changeset": 44168217,
    "user": "ZakariaMKL",
    "uid": 3870359,
    "tags": {
      "amenity": "restaurant"
    }
  },
  {
    "type": "node",
    "id": 4540169471,
    "lat": 32.9999324,
    "lon": -7.6202733,
    "timestamp": "2016-12-05T20:07:32Z",
    "version": 1,
    "changeset": 44191375,
    "user": "ZakariaMKL",
    "uid": 3870359,
    "tags": {
      "amenity": "restaurant"
    }
  },
  {
    "type": "node",
    "id": 5104934122,
    "lat": 33.5522882,
    "lon": -7.6800779,
    "timestamp": "2017-09-14T09:55:26Z",
    "version": 1,
    "changeset": 52031929,
    "user": "Zickox",
    "uid": 535918,
    "tags": {
      "amenity": "restaurant",
      "cuisine": "steak_house;grill"
    }
  },
  {
    "type": "node",
    "id": 5159127122,
    "lat": 33.5474032,
    "lon": -7.5746211,
    "timestamp": "2020-11-02T22:11:01Z",
    "version": 2,
    "changeset": 93442809,
    "user": "MustafaQasim",
    "uid": 9535554,
    "tags": {
      "addr:street": "Avenue du Commandant Driss Harti",
      "amenity": "restaurant",
      "name": "سناك دعاء",
      "name:ar": "سناك دعاء",
      "name:en": "Snack Doaa",
      "opening_hours": "Mo-Su 12:00-01:00"
    }
  },
  {
    "type": "node",
    "id": 5422740636,
    "lat": 33.5352248,
    "lon": -7.6400077,
    "timestamp": "2018-02-19T16:42:58Z",
    "version": 1,
    "changeset": 56497125,
    "user": "neocarto",
    "uid": 1749221,
    "tags": {
      "amenity": "restaurant",
      "name": "La Cantine"
    }
  },
  {
    "type": "node",
    "id": 5583468023,
    "lat": 33.5406446,
    "lon": -7.5801185,
    "timestamp": "2018-06-01T15:39:11Z",
    "version": 2,
    "changeset": 59465182,
    "user": "JAAS",
    "uid": 3321532,
    "tags": {
      "addr:street": "Boulevard d'Amgala",
      "amenity": "restaurant",
      "name": "Crèmerie Achkid",
      "source": "Kaart Ground Survey 2018"
    }
  },
  {
    "type": "node",
    "id": 5595534180,
    "lat": 33.5500951,
    "lon": -7.5677656,
    "timestamp": "2018-05-04T02:12:00Z",
    "version": 1,
    "changeset": 58665338,
    "user": "Corban8",
    "uid": 4240913,
    "tags": {
      "addr:street": "Boulevard du Golan شارع الجولان",
      "amenity": "restaurant",
      "name": "Café Aswan",
      "source": "Kaart Ground Survey 2018"
    }
  },
  {
    "type": "node",
    "id": 5595616134,
    "lat": 33.5401886,
    "lon": -7.5741479,
    "timestamp": "2018-05-04T04:01:57Z",
    "version": 1,
    "changeset": 58666483,
    "user": "Corban8",
    "uid": 4240913,
    "tags": {
      "addr:street": "Avenue d'Oued Eddahab",
      "amenity": "restaurant",
      "name": "Rainbow Cafe",
      "source": "Kaart Ground Survey 2018"
    }
  },
  {
    "type": "node",
    "id": 5595616189,
    "lat": 33.5372811,
    "lon": -7.5734632,
    "timestamp": "2018-05-04T04:01:59Z",
    "version": 1,
    "changeset": 58666483,
    "user": "Corban8",
    "uid": 4240913,
    "tags": {
      "addr:street": "Avenue Mekdad Lahrizi",
      "amenity": "restaurant",
      "name": "Espace Changuai",
      "source": "Kaart Ground Survey 2018"
    }
  },
  {
    "type": "node",
    "id": 5595616202,
    "lat": 33.539538,
    "lon": -7.573873,
    "timestamp": "2018-05-04T04:02:00Z",
    "version": 1,
    "changeset": 58666483,
    "user": "Corban8",
    "uid": 4240913,
    "tags": {
      "addr:street": "Rue 188",
      "amenity": "restaurant",
      "name": "Ramada",
      "source": "Kaart Ground Survey 2018"
    }
  },
  {
    "type": "node",
    "id": 5608045977,
    "lat": 33.5488254,
    "lon": -7.572265,
    "timestamp": "2018-05-09T21:50:53Z",
    "version": 1,
    "changeset": 58833373,
    "user": "Corban8",
    "uid": 4240913,
    "tags": {
      "addr:street": "Avenue du Commandant Driss Harti",
      "amenity": "restaurant",
      "name": "Café Agadir",
      "source": "Kaart Ground Survey 2018"
    }
  },
  {
    "type": "node",
    "id": 5622982588,
    "lat": 33.5455617,
    "lon": -7.4849658,
    "timestamp": "2018-05-16T19:49:43Z",
    "version": 1,
    "changeset": 59029117,
    "user": "Corban8",
    "uid": 4240913,
    "tags": {
      "addr:street": "Boulevard El Marinieene",
      "amenity": "restaurant",
      "name": "Espace Araha",
      "source": "Kaart Ground Survey 2018"
    }
  },
  {
    "type": "node",
    "id": 5652660889,
    "lat": 33.2199289,
    "lon": -7.4233634,
    "timestamp": "2018-05-31T00:08:13Z",
    "version": 1,
    "changeset": 59412974,
    "user": "alain2003",
    "uid": 578772,
    "tags": {
      "amenity": "restaurant"
    }
  },
  {
    "type": "node",
    "id": 5652668383,
    "lat": 33.2185916,
    "lon": -7.4236745,
    "timestamp": "2018-05-31T00:08:14Z",
    "version": 1,
    "changeset": 59412974,
    "user": "alain2003",
    "uid": 578772,
    "tags": {
      "amenity": "restaurant"
    }
  },
  {
    "type": "node",
    "id": 5655194935,
    "lat": 33.5363583,
    "lon": -7.5958724,
    "timestamp": "2018-06-01T15:39:29Z",
    "version": 2,
    "changeset": 59465182,
    "user": "JAAS",
    "uid": 3321532,
    "tags": {
      "addr:street": "Boulevard de Tiflet",
      "amenity": "restaurant",
      "name": "Espace Lano",
      "source": "Kaart Ground Survey 2018"
    }
  },
  {
    "type": "node",
    "id": 5664415379,
    "lat": 33.5376656,
    "lon": -7.6687118,
    "timestamp": "2018-06-04T17:49:38Z",
    "version": 1,
    "changeset": 59545499,
    "user": "El Pescador",
    "uid": 7445879,
    "tags": {
      "addr:street": "Boulevard Omar Khayam",
      "amenity": "restaurant",
      "name": "Mon Ami",
      "source": "Kaart Ground Survey 2018"
    }
  },
  {
    "type": "node",
    "id": 5670833173,
    "lat": 33.5325229,
    "lon": -7.6476485,
    "timestamp": "2018-06-06T23:54:12Z",
    "version": 1,
    "changeset": 59617122,
    "user": "El Pescador",
    "uid": 7445879,
    "tags": {
      "amenity": "restaurant",
      "cuisine": "pizza",
      "name": "Pizza Hut",
      "source": "Kaart Ground Survey 2018"
    }
  },
  {
    "type": "node",
    "id": 5685625621,
    "lat": 33.5400975,
    "lon": -7.6806255,
    "timestamp": "2018-06-12T16:58:46Z",
    "version": 1,
    "changeset": 59784589,
    "user": "LSkalayo",
    "uid": 7445887,
    "tags": {
      "amenity": "restaurant",
      "name": "Riviera Valencia",
      "source": "Kaart Ground Survey 2018"
    }
  },
  {
    "type": "node",
    "id": 5685625742,
    "lat": 33.5519516,
    "lon": -7.6897169,
    "timestamp": "2018-06-12T16:58:49Z",
    "version": 1,
    "changeset": 59784589,
    "user": "LSkalayo",
    "uid": 7445887,
    "tags": {
      "addr:street": "Route Haj Fateh",
      "amenity": "restaurant",
      "name": "Les Poussins",
      "source": "Kaart Ground Survey 2018"
    }
  },
  {
    "type": "node",
    "id": 5685795249,
    "lat": 33.5453119,
    "lon": -7.6801595,
    "timestamp": "2018-06-12T18:10:08Z",
    "version": 1,
    "changeset": 59786985,
    "user": "LSkalayo",
    "uid": 7445887,
    "tags": {
      "amenity": "restaurant",
      "name": "Espace Familia",
      "source": "Kaart Ground Survey 2018"
    }
  },
  {
    "type": "node",
    "id": 5685795278,
    "lat": 33.5419262,
    "lon": -7.6775792,
    "timestamp": "2018-06-20T16:44:57Z",
    "version": 2,
    "changeset": 60016556,
    "user": "Corban8",
    "uid": 4240913,
    "tags": {
      "addr:street": "Boulevard Oued Daoura",
      "amenity": "restaurant",
      "name": "Espace Nour Al Khalil",
      "source": "Kaart Ground Survey 2018"
    }
  },
  {
    "type": "node",
    "id": 5685795422,
    "lat": 33.5435263,
    "lon": -7.6786152,
    "timestamp": "2018-06-12T18:10:09Z",
    "version": 1,
    "changeset": 59786985,
    "user": "LSkalayo",
    "uid": 7445887,
    "tags": {
      "addr:street": "Boulevard Oued Daoura",
      "amenity": "restaurant",
      "name": "Marbella",
      "source": "Kaart Ground Survey 2018"
    }
  },
  {
    "type": "node",
    "id": 5686129283,
    "lat": 33.5456204,
    "lon": -7.6729812,
    "timestamp": "2018-06-12T21:04:54Z",
    "version": 1,
    "changeset": 59791363,
    "user": "LSkalayo",
    "uid": 7445887,
    "tags": {
      "addr:street": "Boulevard HH 48",
      "amenity": "restaurant",
      "name": "Corner 68",
      "source": "Kaart Ground Survey 2018"
    }
  },
  {
    "type": "node",
    "id": 5686229757,
    "lat": 33.5368116,
    "lon": -7.7817737,
    "timestamp": "2018-06-12T22:29:56Z",
    "version": 1,
    "changeset": 59792769,
    "user": "El Pescador",
    "uid": 7445879,
    "tags": {
      "amenity": "restaurant",
      "name": "Votre Espace Gourmet",
      "source": "Kaart Ground Survey 2018"
    }
  },
  {
    "type": "node",
    "id": 5688679331,
    "lat": 33.5354445,
    "lon": -7.648429,
    "timestamp": "2018-06-13T19:20:20Z",
    "version": 1,
    "changeset": 59821039,
    "user": "LSkalayo",
    "uid": 7445887,
    "tags": {
      "addr:street": "Zanqat 30",
      "amenity": "restaurant",
      "name": "Tokyo Garden",
      "source": "Kaart Ground Survey 2018"
    }
  },
  {
    "type": "node",
    "id": 5688679336,
    "lat": 33.5356496,
    "lon": -7.6484176,
    "timestamp": "2018-06-13T19:20:21Z",
    "version": 1,
    "changeset": 59821039,
    "user": "LSkalayo",
    "uid": 7445887,
    "tags": {
      "addr:street": "Zanqat 30",
      "amenity": "restaurant",
      "name": "TaTaRi Sushi and Thai",
      "source": "Kaart Ground Survey 2018"
    }
  },
  {
    "type": "node",
    "id": 5943575686,
    "lat": 33.2448324,
    "lon": -7.5869778,
    "timestamp": "2023-09-13T22:31:12Z",
    "version": 4,
    "changeset": 141232091,
    "user": "Humus015",
    "uid": 3252237,
    "tags": {
      "amenity": "restaurant",
      "name": "ايسكال 2001",
      "name:ar": "ايسكال 2001",
      "name:en": "Escale 2001"
    }
  },
  {
    "type": "node",
    "id": 6027867149,
    "lat": 33.5535777,
    "lon": -7.704828,
    "timestamp": "2020-11-02T22:11:01Z",
    "version": 4,
    "changeset": 93442809,
    "user": "MustafaQasim",
    "uid": 9535554,
    "tags": {
      "addr:city": "Casablanca",
      "amenity": "restaurant",
      "capacity": "10",
      "cuisine": "juice",
      "name": "فضاء عمر",
      "name:ar": "فضاء عمر",
      "name:en": "Omar's Space",
      "name:fr": "Espace Omar",
      "opening_hours": "Mo-Su 09:00-22:00",
      "outdoor_seating": "yes",
      "takeaway": "yes"
    }
  },
  {
    "type": "node",
    "id": 6027868947,
    "lat": 33.5526991,
    "lon": -7.7038912,
    "timestamp": "2020-11-02T22:11:01Z",
    "version": 3,
    "changeset": 93442809,
    "user": "MustafaQasim",
    "uid": 9535554,
    "tags": {
      "amenity": "restaurant",
      "capacity": "10",
      "cuisine": "sandwich;juice",
      "delivery": "no",
      "name": "Laiterie Nacer محلبة ناصر",
      "name:ar": "Laiterie Nacer محلبة ناصر",
      "name:fr": "Laiterie Nacer",
      "opening_hours": "Mo-Su 09:00-23:00",
      "outdoor_seating": "yes",
      "takeaway": "yes"
    }
  },
  {
    "type": "node",
    "id": 6422884968,
    "lat": 33.4746919,
    "lon": -7.6070534,
    "timestamp": "2019-04-23T10:09:59Z",
    "version": 1,
    "changeset": 69481905,
    "user": "nwrk",
    "uid": 2757428,
    "tags": {
      "amenity": "restaurant",
      "name": "Sazio"
    }
  },
  {
    "type": "node",
    "id": 6422885667,
    "lat": 33.4747887,
    "lon": -7.6069203,
    "timestamp": "2019-04-23T10:10:04Z",
    "version": 1,
    "changeset": 69481907,
    "user": "nwrk",
    "uid": 2757428,
    "tags": {
      "amenity": "restaurant",
      "name": "Fifties"
    }
  },
  {
    "type": "node",
    "id": 6474152545,
    "lat": 33.4852892,
    "lon": -7.6712046,
    "timestamp": "2019-05-15T00:00:31Z",
    "version": 1,
    "changeset": 70255621,
    "user": "alain2003",
    "uid": 578772,
    "tags": {
      "amenity": "restaurant"
    }
  },
  {
    "type": "node",
    "id": 6593094661,
    "lat": 33.4873604,
    "lon": -7.6337505,
    "timestamp": "2019-07-06T11:45:24Z",
    "version": 1,
    "changeset": 71957359,
    "user": "Myalt",
    "uid": 10105879,
    "tags": {
      "amenity": "restaurant",
      "name": "Restaurants Petromine Bouskoura"
    }
  },
  {
    "type": "node",
    "id": 6593095501,
    "lat": 33.52237,
    "lon": -7.6428551,
    "timestamp": "2019-07-06T12:31:32Z",
    "version": 3,
    "changeset": 71958226,
    "user": "Myalt",
    "uid": 10105879,
    "tags": {
      "amenity": "restaurant",
      "cuisine": "coffee_shop;pizza;burger;sandwich",
      "name": "Street London"
    }
  },
  {
    "type": "node",
    "id": 6593140334,
    "lat": 33.5217415,
    "lon": -7.6445565,
    "timestamp": "2023-12-08T12:29:19Z",
    "version": 3,
    "changeset": 144901508,
    "user": "Mohamed Touhami MAHDI",
    "uid": 550120,
    "tags": {
      "amenity": "restaurant",
      "check_date:opening_hours": "2023-12-08",
      "name": "c3002953",
      "name:en": "boufous abdelah 2953",
      "opening_hours:signed": "no"
    }
  },
  {
    "type": "node",
    "id": 6594687988,
    "lat": 33.3763852,
    "lon": -8.2494036,
    "timestamp": "2019-07-07T23:02:38Z",
    "version": 2,
    "changeset": 71993340,
    "user": "Hicham HAOUARI",
    "uid": 7491056,
    "tags": {
      "amenity": "restaurant",
      "cuisine": "mediterranean",
      "internet_access": "wlan",
      "name:en": "Carpediem"
    }
  },
  {
    "type": "node",
    "id": 6853557085,
    "lat": 33.3754875,
    "lon": -7.5821991,
    "timestamp": "2023-06-09T11:56:42Z",
    "version": 3,
    "changeset": 137133935,
    "user": "Gurusraouta",
    "uid": 18913526,
    "tags": {
      "amenity": "restaurant",
      "name": "Salon VIP",
      "name:es": "Salon VIP",
      "name:fr": "Salon VIP",
      "name:ru": "VIP-зал"
    }
  },
  {
    "type": "node",
    "id": 6983553757,
    "lat": 33.288589,
    "lon": -8.3428953,
    "timestamp": "2019-11-16T22:21:57Z",
    "version": 1,
    "changeset": 77176639,
    "user": "PKla",
    "uid": 200382,
    "tags": {
      "amenity": "restaurant"
    }
  },
  {
    "type": "node",
    "id": 6983610948,
    "lat": 33.2904458,
    "lon": -8.3425307,
    "timestamp": "2019-11-16T22:25:04Z",
    "version": 1,
    "changeset": 77176693,
    "user": "PKla",
    "uid": 200382,
    "tags": {
      "amenity": "restaurant",
      "name": "Chez Mehdi"
    }
  },
  {
    "type": "node",
    "id": 6983619856,
    "lat": 33.2884238,
    "lon": -8.3426296,
    "timestamp": "2019-11-16T22:23:12Z",
    "version": 1,
    "changeset": 77176662,
    "user": "PKla",
    "uid": 200382,
    "tags": {
      "amenity": "restaurant"
    }
  },
  {
    "type": "node",
    "id": 7204137763,
    "lat": 33.5481916,
    "lon": -7.6842292,
    "timestamp": "2024-09-28T23:54:34Z",
    "version": 2,
    "changeset": 157232458,
    "user": "ilias_",
    "uid": 21853634,
    "tags": {
      "addr:city": "Casablanca ⵜⴰⴷⴷⴰⵔⵜ ⵜⵓⵎⵍⵉⵍⵜ الدار البيضاء",
      "addr:housenumber": "174",
      "addr:street": "Boulevard Oued Daoura",
      "amenity": "restaurant",
      "cuisine": "international",
      "name": "Pasta Pino",
      "opening_hours": "Mo-Su 11:00-00:30",
      "phone": "+212522695698",
      "website": "https://www.instagram.com/pastapino"
    }
  },
  {
    "type": "node",
    "id": 7507101926,
    "lat": 33.4907947,
    "lon": -7.5992206,
    "timestamp": "2020-05-11T14:01:24Z",
    "version": 1,
    "changeset": 85029632,
    "user": "zelar10",
    "uid": 11161795,
    "tags": {
      "amenity": "restaurant",
      "name": "Casa Jose"
    }
  },
  {
    "type": "node",
    "id": 8303537061,
    "lat": 33.5091824,
    "lon": -7.6711135,
    "timestamp": "2025-01-12T05:51:19Z",
    "version": 2,
    "changeset": 161261916,
    "user": "ilias_",
    "uid": 21853634,
    "tags": {
      "addr:city": "Casablanca ⵜⴰⴷⴷⴰⵔⵜ ⵜⵓⵎⵍⵉⵍⵜ الدار البيضاء",
      "addr:postcode": "20190",
      "addr:street": "Centre Commercial CasaView ETG 1 Magasin 17",
      "air_conditioning": "yes",
      "amenity": "restaurant",
      "cuisine": "regional;french;italian;european;moroccan",
      "delivery": "yes",
      "diet:halal": "yes",
      "internet_access": "wlan",
      "name": "Bonne Bouchée",
      "opening_hours": "Mo-Su 08:00-22:00",
      "phone": "+212655213237",
      "takeaway": "yes",
      "website": "https://www.bonne-bouchee.com/"
    }
  },
  {
    "type": "node",
    "id": 8751278745,
    "lat": 33.4813451,
    "lon": -7.5941067,
    "timestamp": "2021-05-20T22:10:06Z",
    "version": 1,
    "changeset": 105052508,
    "user": "elwady",
    "uid": 13291530,
    "tags": {
      "addr:city": "Bouskoura بوسكورة",
      "addr:street": "Avenue du Promontoire",
      "amenity": "restaurant",
      "cuisine": "european",
      "name": "Palmeraie coutry club",
      "opening_hours": "Mo-Su 07:00-23:00",
      "opening_hours:covid19": "Mo-Su 08:00-18:00",
      "phone": "+21220108000",
      "website": "https://www.palmeraiecountryclub.com/"
    }
  },
  {
    "type": "node",
    "id": 8874451807,
    "lat": 33.4438145,
    "lon": -8.0267411,
    "timestamp": "2021-06-29T08:47:49Z",
    "version": 1,
    "changeset": 107133790,
    "user": "lukasbrunner",
    "uid": 348712,
    "tags": {
      "amenity": "restaurant",
      "cuisine": "moroccan"
    }
  },
  {
    "type": "node",
    "id": 8874454579,
    "lat": 33.4328627,
    "lon": -8.0716494,
    "timestamp": "2021-06-29T10:52:24Z",
    "version": 2,
    "changeset": 107142347,
    "user": "lukasbrunner",
    "uid": 348712,
    "tags": {
      "amenity": "restaurant",
      "cuisine": "moroccan",
      "name": "Restaurant Ola Blanca 2"
    }
  },
  {
    "type": "node",
    "id": 9267144215,
    "lat": 33.5485908,
    "lon": -7.6373926,
    "timestamp": "2025-02-19T12:43:12Z",
    "version": 4,
    "changeset": 162699420,
    "user": "ilias_",
    "uid": 21853634,
    "tags": {
      "addr:city": "Casablanca ⵜⴰⴷⴷⴰⵔⵜ ⵜⵓⵎⵍⵉⵍⵜ الدار البيضاء",
      "addr:housenumber": "264",
      "addr:street": "Route de l'Oasis",
      "amenity": "restaurant",
      "check_date": "2025-02-19",
      "name": "OLEA",
      "website": "https://www.olea.ma/"
    }
  },
  {
    "type": "node",
    "id": 10602217105,
    "lat": 33.4645413,
    "lon": -7.6042838,
    "timestamp": "2023-02-02T20:14:47Z",
    "version": 1,
    "changeset": 132017623,
    "user": "بيليغ",
    "uid": 18119150,
    "tags": {
      "amenity": "restaurant",
      "name:fr": "Club house Tony Jacklin golf"
    }
  },
  {
    "type": "node",
    "id": 10870709205,
    "lat": 33.4209602,
    "lon": -7.8541004,
    "timestamp": "2023-05-05T12:48:02Z",
    "version": 1,
    "changeset": 135740726,
    "user": "Christof69300",
    "uid": 7698949,
    "tags": {
      "amenity": "restaurant",
      "name:en": "Couscous"
    }
  },
  {
    "type": "node",
    "id": 10881899405,
    "lat": 33.4114567,
    "lon": -7.8535223,
    "timestamp": "2023-05-09T19:58:08Z",
    "version": 1,
    "changeset": 135910398,
    "user": "Christof69300",
    "uid": 7698949,
    "tags": {
      "addr:street": "ⴰⵙⵓⴽ ⵍⴰⵍⵍⴰ ⵙⵓⴽⴰⵢⵏⴰ",
      "amenity": "restaurant",
      "name:en": "Tajine"
    }
  },
  {
    "type": "node",
    "id": 11073676986,
    "lat": 33.3902957,
    "lon": -7.5604635,
    "timestamp": "2023-07-28T17:49:57Z",
    "version": 1,
    "changeset": 139146333,
    "user": "dhinaghena",
    "uid": 5329109,
    "tags": {
      "amenity": "restaurant",
      "name": "La Madrina"
    }
  },
  {
    "type": "node",
    "id": 11307500012,
    "lat": 33.3711917,
    "lon": -7.5802499,
    "timestamp": "2023-11-02T13:33:42Z",
    "version": 1,
    "changeset": 143531447,
    "user": "saliousoft",
    "uid": 1717441,
    "tags": {
      "amenity": "restaurant",
      "name": "Naturellement bon"
    }
  },
  {
    "type": "node",
    "id": 12223088471,
    "lat": 33.5192231,
    "lon": -7.693517,
    "timestamp": "2024-10-04T21:57:30Z",
    "version": 1,
    "changeset": 157479222,
    "user": "Omarsoft",
    "uid": 22031046,
    "tags": {
      "addr:city": "Casablanca,",
      "addr:housenumber": "1",
      "addr:postcode": "20190",
      "addr:street": "Nationale Route Lissasfa",
      "amenity": "restaurant",
      "cuisine": "pizza;burger;barbecue;breakfast;juice;dessert;moroccan;coffee_shop",
      "diet:halal": "yes",
      "name": "HL Burger - Holy Choco - Crust & Grill"
    }
  },
  {
    "type": "node",
    "id": 12445457965,
    "lat": 33.2708193,
    "lon": -7.5859759,
    "timestamp": "2024-12-23T20:46:16Z",
    "version": 1,
    "changeset": 160553199,
    "user": "inquisitornaega",
    "uid": 20839174,
    "tags": {
      "amenity": "restaurant",
      "name": "Snack Ohod"
    }
  },
  {
    "type": "node",
    "id": 12445457966,
    "lat": 33.2706085,
    "lon": -7.5859151,
    "timestamp": "2024-12-23T20:46:16Z",
    "version": 1,
    "changeset": 160553199,
    "user": "inquisitornaega",
    "uid": 20839174,
    "tags": {
      "amenity": "restaurant"
    }
  },
  {
    "type": "node",
    "id": 12449750860,
    "lat": 33.2666872,
    "lon": -7.5841163,
    "timestamp": "2024-12-24T16:13:29Z",
    "version": 1,
    "changeset": 160581498,
    "user": "inquisitornaega",
    "uid": 20839174,
    "tags": {
      "amenity": "restaurant",
      "name": "Atbaq Ad-dyafa"
    }
  },
  {
    "type": "node",
    "id": 12449750866,
    "lat": 33.2679095,
    "lon": -7.5846977,
    "timestamp": "2024-12-24T16:13:29Z",
    "version": 1,
    "changeset": 160581498,
    "user": "inquisitornaega",
    "uid": 20839174,
    "tags": {
      "amenity": "restaurant"
    }
  },
  {
    "type": "node",
    "id": 12449750868,
    "lat": 33.2681665,
    "lon": -7.5848214,
    "timestamp": "2024-12-24T16:13:29Z",
    "version": 1,
    "changeset": 160581498,
    "user": "inquisitornaega",
    "uid": 20839174,
    "tags": {
      "amenity": "restaurant"
    }
  },
  {
    "type": "node",
    "id": 12449750869,
    "lat": 33.2682105,
    "lon": -7.5848241,
    "timestamp": "2024-12-24T16:13:29Z",
    "version": 1,
    "changeset": 160581498,
    "user": "inquisitornaega",
    "uid": 20839174,
    "tags": {
      "amenity": "restaurant"
    }
  },
  {
    "type": "node",
    "id": 12479658706,
    "lat": 33.5137405,
    "lon": -7.8191865,
    "timestamp": "2025-01-07T01:00:44Z",
    "version": 1,
    "changeset": 161079439,
    "user": "ilias_",
    "uid": 21853634,
    "tags": {
      "addr:city": "Dar Bouazza ⴷⴰⵕ ⴱⵓⵄⵣⵣⴰ دار بوعزة",
      "addr:place": "Le Mercato d'Anfa",
      "amenity": "restaurant",
      "brand": "Pizza Hut",
      "brand:wikidata": "Q191615",
      "cuisine": "pizza",
      "level": "0",
      "name": "Pizza Hut"
    }
  },
  {
    "type": "way",
    "id": 323359634,
    "timestamp": "2015-01-20T23:59:47Z",
    "version": 1,
    "changeset": 28297019,
    "user": "greroy",
    "uid": 1231194,
    "center": {
      "lat": 33.500122,
      "lon": -7.8547123
    },
    "nodes": [
      3301615067,
      3301615068,
      3301615069,
      3301615070,
      3301615071,
      3301615072,
      3301615073,
      3301615074,
      3301615075,
      3301615067
    ],
    "tags": {
      "amenity": "restaurant",
      "building": "yes",
      "name": "Le Marie Jeanne"
    }
  },
  {
    "type": "way",
    "id": 331720694,
    "timestamp": "2023-12-22T12:50:58Z",
    "version": 4,
    "changeset": 145405581,
    "user": "Mohamed Touhami MAHDI",
    "uid": 550120,
    "center": {
      "lat": 33.5288027,
      "lon": -7.6406368
    },
    "nodes": [
      3388177326,
      3388177529,
      3388177381,
      3388177321,
      3388177325,
      3388177389,
      3388177531,
      3388177336,
      3388177326
    ],
    "tags": {
      "amenity": "restaurant",
      "building": "yes",
      "name": "Nearshore Casablanca",
      "opening_hours": "\"For employees only\""
    }
  },
  {
    "type": "way",
    "id": 460742193,
    "timestamp": "2016-12-20T12:38:25Z",
    "version": 2,
    "changeset": 44540320,
    "user": "MohamedAmine",
    "uid": 1233426,
    "center": {
      "lat": 33.0294944,
      "lon": -7.6234065
    },
    "nodes": [
      4563462555,
      4563462549,
      4563462554,
      4563462553,
      4563462562,
      4563462555
    ],
    "tags": {
      "amenity": "restaurant",
      "cuisine": "burger;chicken;fish;fish_and_chips;french;regional;steak_house",
      "internet_access": "yes",
      "internet_access:fee": "no",
      "level": "1",
      "name": "Restaurant INRA",
      "smoking": "separated",
      "wheelchair": "yes"
    }
  },
  {
    "type": "way",
    "id": 597490752,
    "timestamp": "2018-06-13T20:07:00Z",
    "version": 1,
    "changeset": 59822356,
    "user": "LSkalayo",
    "uid": 7445887,
    "center": {
      "lat": 33.5377676,
      "lon": -7.6440598
    },
    "nodes": [
      5688779592,
      5688779591,
      5688779590,
      5688779589,
      5688779592
    ],
    "tags": {
      "addr:street": "Zanqat 30",
      "amenity": "restaurant",
      "building": "commercial",
      "name": "One Way Steakhouse",
      "source": "Kaart Ground Survey 2018"
    }
  },
  {
    "type": "way",
    "id": 808033828,
    "timestamp": "2020-05-25T12:16:54Z",
    "version": 1,
    "changeset": 85716910,
    "user": "EL ISSAOUI Abdelilah",
    "uid": 11235110,
    "center": {
      "lat": 33.5466682,
      "lon": -7.6516677
    },
    "nodes": [
      7556122743,
      7556122744,
      7556122745,
      7556122746,
      7556122747,
      7556122748,
      7556122749,
      7556122750,
      7556122743
    ],
    "tags": {
      "amenity": "restaurant",
      "building": "yes",
      "name": "Buvette"
    }
  },
  {
    "type": "way",
    "id": 808033839,
    "timestamp": "2020-05-25T12:16:54Z",
    "version": 1,
    "changeset": 85716910,
    "user": "EL ISSAOUI Abdelilah",
    "uid": 11235110,
    "center": {
      "lat": 33.5484979,
      "lon": -7.6511018
    },
    "nodes": [
      7556123525,
      7556123533,
      7556123526,
      7556123527,
      7556123528,
      7556123529,
      7556123530,
      7556123525
    ],
    "tags": {
      "amenity": "restaurant",
      "building": "yes",
      "name": "Buvette étudiants"
    }
  },
  {
    "type": "way",
    "id": 808033856,
    "timestamp": "2020-05-25T12:16:54Z",
    "version": 1,
    "changeset": 85716910,
    "user": "EL ISSAOUI Abdelilah",
    "uid": 11235110,
    "center": {
      "lat": 33.5476754,
      "lon": -7.6504158
    },
    "nodes": [
      4195919487,
      4195919327,
      4195919106,
      4195919322,
      4195919992,
      4195919432,
      4195919948,
      4195919430,
      4195919417,
      4195919903,
      4195919342,
      4195919487
    ],
    "tags": {
      "amenity": "restaurant",
      "building": "restaurant",
      "name": "Restaurant EHTP"
    }
  },
  {
    "type": "way",
    "id": 1284172990,
    "timestamp": "2025-02-10T13:19:33Z",
    "version": 4,
    "changeset": 162350417,
    "user": "inquisitornaega",
    "uid": 20839174,
    "center": {
      "lat": 33.2671337,
      "lon": -7.5880929
    },
    "nodes": [
      11913739862,
      11913739858,
      11913739856,
      11914221231,
      11913739855,
      11913739857,
      11913739859,
      11913739853,
      11913739860,
      11913739854,
      11914221241,
      11913739861,
      11914221226,
      11913739862
    ],
    "tags": {
      "amenity": "restaurant",
      "building": "commercial",
      "building:levels": "1",
      "cuisine": "coffee_shop;regional",
      "name": "Espace Marjana فضاء مرجانة",
      "name:ar": "فضاء مرجانة",
      "name:fr": "Espace Marjana"
    }
  },
  {
    "type": "way",
    "id": 1299899655,
    "timestamp": "2025-01-26T00:48:13Z",
    "version": 4,
    "changeset": 161765759,
    "user": "inquisitornaega",
    "uid": 20839174,
    "center": {
      "lat": 33.2764757,
      "lon": -7.5875924
    },
    "nodes": [
      12046752878,
      12040866100,
      12040866095,
      12040866093,
      12040866092,
      12040866094,
      12040866099,
      12040866098,
      12040866097,
      12046752877,
      12046752878
    ],
    "tags": {
      "amenity": "restaurant",
      "building": "commercial"
    }
  },
  {
    "type": "way",
    "id": 1300400021,
    "timestamp": "2024-07-10T03:19:51Z",
    "version": 1,
    "changeset": 153765876,
    "user": "inquisitornaega",
    "uid": 20839174,
    "center": {
      "lat": 33.2828079,
      "lon": -7.5918699
    },
    "nodes": [
      12045011013,
      12045011006,
      12045011010,
      12045011009,
      12045011008,
      12045011011,
      12045011012,
      12045011005,
      12045011007,
      12045011013
    ],
    "tags": {
      "amenity": "restaurant"
    }
  },
  {
    "type": "way",
    "id": 1301823600,
    "timestamp": "2024-07-16T19:18:34Z",
    "version": 1,
    "changeset": 154029890,
    "user": "inquisitornaega",
    "uid": 20839174,
    "center": {
      "lat": 33.2520517,
      "lon": -7.5850315
    },
    "nodes": [
      12057831180,
      12057831242,
      12057831245,
      12057831204,
      12057831186,
      12057831185,
      12057831192,
      12057831183,
      12057831187,
      12057831182,
      12057831184,
      12057831181,
      12057831173,
      12057831188,
      12057831252,
      12057831253,
      12057831180
    ],
    "tags": {
      "amenity": "restaurant",
      "name": "Dar Tajine دار الطاجين"
    }
  },
  {
    "type": "way",
    "id": 1336890350,
    "timestamp": "2024-11-22T17:05:16Z",
    "version": 1,
    "changeset": 159468129,
    "user": "clwacker",
    "uid": 208020,
    "center": {
      "lat": 33.2355202,
      "lon": -7.5875756
    },
    "nodes": [
      12365477056,
      12365477057,
      12365477058,
      12365477059,
      12365477056
    ],
    "tags": {
      "amenity": "restaurant",
      "building": "yes"
    }
  }
]