[
  {
    "type": "node",
    "id": 544050419,
    "lat": 33.9442935,
    "lon": -5.5680171,
    "timestamp": "2011-01-15T16:58:14Z",
    "version": 2,
    "changeset": 6979279,
    "user": "cdavila",
    "uid": 26599,
    "tags": {
      "amenity": "restaurant",
      "cuisine": "regional",
      "name": "Cafe Jnane Albadia"
    }
  },
  {
    "type": "node",
    "id": 622292237,
    "lat": 33.895121,
    "lon": -5.562173,
    "timestamp": "2010-01-29T08:16:28Z",
    "version": 1,
    "changeset": 3741356,
    "user": "Eriks Zelenka",
    "uid": 41362,
    "tags": {
      "amenity": "restaurant",
      "cuisine": "regional"
    }
  },
  {
    "type": "node",
    "id": 1016469197,
    "lat": 34.4519184,
    "lon": -5.5068193,
    "timestamp": "2023-10-31T08:16:12Z",
    "version": 4,
    "changeset": 143406391,
    "user": "Le Petit Léo",
    "uid": 20120497,
    "tags": {
      "amenity": "restaurant",
      "cuisine": "regional",
      "name": "Cafe & Boucherie Assalama",
      "name:en": "Cafe Boucherie Assalama"
    }
  },
  {
    "type": "node",
    "id": 1020552457,
    "lat": 33.7445004,
    "lon": -5.4768867,
    "timestamp": "2011-01-18T11:03:47Z",
    "version": 2,
    "changeset": 7009159,
    "user": "cdavila",
    "uid": 26599,
    "tags": {
      "amenity": "restaurant"
    }
  },
  {
    "type": "node",
    "id": 1874958130,
    "lat": 33.817634,
    "lon": -6.1032763,
    "timestamp": "2013-12-12T02:01:49Z",
    "version": 2,
    "changeset": 19405357,
    "user": "alain2003",
    "uid": 578772,
    "tags": {
      "amenity": "restaurant",
      "name": "Aire de service Khemisset"
    }
  },
  {
    "type": "node",
    "id": 1874958133,
    "lat": 33.8327875,
    "lon": -5.5680257,
    "timestamp": "2013-12-12T01:27:46Z",
    "version": 2,
    "changeset": 19405037,
    "user": "alain2003",
    "uid": 578772,
    "tags": {
      "amenity": "restaurant",
      "name": "Aire de service Meknes"
    }
  },
  {
    "type": "node",
    "id": 1874958182,
    "lat": 33.8317007,
    "lon": -5.5711734,
    "timestamp": "2013-12-12T01:27:48Z",
    "version": 2,
    "changeset": 19405037,
    "user": "alain2003",
    "uid": 578772,
    "tags": {
      "amenity": "restaurant",
      "name": "Aire de service Meknes"
    }
  },
  {
    "type": "node",
    "id": 1874958186,
    "lat": 33.8170814,
    "lon": -6.1052182,
    "timestamp": "2013-12-12T02:01:49Z",
    "version": 3,
    "changeset": 19405357,
    "user": "alain2003",
    "uid": 578772,
    "tags": {
      "amenity": "restaurant",
      "name": "Aire de service Khemisset"
    }
  },
  {
    "type": "node",
    "id": 2235221861,
    "lat": 34.1491844,
    "lon": -5.466061,
    "timestamp": "2013-03-29T18:00:13Z",
    "version": 1,
    "changeset": 15541916,
    "user": "maefo",
    "uid": 614260,
    "tags": {
      "amenity": "restaurant"
    }
  },
  {
    "type": "node",
    "id": 2312523067,
    "lat": 33.8961331,
    "lon": -5.5547744,
    "timestamp": "2019-06-17T11:21:57Z",
    "version": 8,
    "changeset": 71326261,
    "user": "imadmajor",
    "uid": 8766558,
    "tags": {
      "amenity": "restaurant",
      "brand": "Pizza Hut",
      "brand:wikidata": "Q191615",
      "brand:wikipedia": "en:Pizza Hut",
      "cuisine": "pizza",
      "name": "Pizza Hut"
    }
  },
  {
    "type": "node",
    "id": 2312523073,
    "lat": 34.0549965,
    "lon": -5.5211648,
    "timestamp": "2024-03-08T18:31:24Z",
    "version": 2,
    "changeset": 148396759,
    "user": "Marcoh44",
    "uid": 3226231,
    "tags": {
      "amenity": "restaurant",
      "name": "Les Trois Boules d'Or"
    }
  },
  {
    "type": "node",
    "id": 2437877444,
    "lat": 33.9037749,
    "lon": -5.5573463,
    "timestamp": "2019-10-28T19:24:12Z",
    "version": 4,
    "changeset": 76312669,
    "user": "imadmajor",
    "uid": 8766558,
    "tags": {
      "addr:housenumber": "46",
      "addr:street": "Oqba -Ibn Nafia",
      "amenity": "restaurant",
      "cuisine": "international",
      "name": "Le Relais de Paris"
    }
  },
  {
    "type": "node",
    "id": 3127671394,
    "lat": 33.6882788,
    "lon": -5.3707128,
    "timestamp": "2016-06-25T03:51:12Z",
    "version": 2,
    "changeset": 40275178,
    "user": "belghazal1504",
    "uid": 4168185,
    "tags": {
      "amenity": "restaurant",
      "name": "café restaurant salle des fêtes ain khadem"
    }
  },
  {
    "type": "node",
    "id": 3127677852,
    "lat": 33.6907293,
    "lon": -5.3904056,
    "timestamp": "2014-10-13T12:17:13Z",
    "version": 1,
    "changeset": 26044992,
    "user": "marocagreg",
    "uid": 2183569,
    "tags": {
      "amenity": "restaurant"
    }
  },
  {
    "type": "node",
    "id": 3214364993,
    "lat": 33.899194,
    "lon": -5.5502301,
    "timestamp": "2023-06-09T12:27:20Z",
    "version": 5,
    "changeset": 137135049,
    "user": "Gurusraouta",
    "uid": 18913526,
    "tags": {
      "addr:city": "Meknès",
      "addr:city:ar": "مكناس",
      "addr:city:fr": "Meknès",
      "addr:housenumber": "4",
      "addr:street": "Rue de Ghana",
      "amenity": "restaurant",
      "cuisine": "tapas",
      "name": "L'as d Lys",
      "phone": "+212 535401064"
    }
  },
  {
    "type": "node",
    "id": 4111721904,
    "lat": 33.9002718,
    "lon": -5.5504311,
    "timestamp": "2023-06-09T12:27:20Z",
    "version": 3,
    "changeset": 137135049,
    "user": "Gurusraouta",
    "uid": 18913526,
    "tags": {
      "addr:city": "Meknès",
      "addr:city:ar": "مكناس",
      "addr:city:fr": "Meknès",
      "amenity": "restaurant",
      "capacity": "70",
      "cuisine": "regional",
      "delivery": "no",
      "name": "Gambrinus",
      "wheelchair": "yes"
    }
  },
  {
    "type": "node",
    "id": 4577950491,
    "lat": 33.8941524,
    "lon": -5.5655323,
    "timestamp": "2016-12-28T20:11:52Z",
    "version": 2,
    "changeset": 44740432,
    "user": "amirmc",
    "uid": 1656925,
    "tags": {
      "amenity": "restaurant",
      "cuisine": "moroccan",
      "internet_access": "wlan",
      "name:en": "Restaurant YA HALA"
    }
  },
  {
    "type": "node",
    "id": 4602243397,
    "lat": 33.9022436,
    "lon": -5.5484292,
    "timestamp": "2018-05-07T07:21:01Z",
    "version": 2,
    "changeset": 58748471,
    "user": "johnparis",
    "uid": 2126146,
    "tags": {
      "amenity": "restaurant",
      "name": "Dar Sabrina"
    }
  },
  {
    "type": "node",
    "id": 4603724523,
    "lat": 33.8740789,
    "lon": -5.5587126,
    "timestamp": "2017-01-18T02:40:06Z",
    "version": 2,
    "changeset": 45259689,
    "user": "johnparis",
    "uid": 2126146,
    "tags": {
      "amenity": "restaurant",
      "name": "Al jazira الجزيرة",
      "name:ar": "الجزيرة",
      "name:fr": "Al jazira"
    }
  },
  {
    "type": "node",
    "id": 4608422395,
    "lat": 33.8937899,
    "lon": -5.5605254,
    "timestamp": "2023-03-14T19:32:36Z",
    "version": 6,
    "changeset": 133682038,
    "user": "Opix",
    "uid": 6337205,
    "tags": {
      "amenity": "restaurant",
      "indoor_seating": "yes",
      "name": "Collier de la colombe طوق الحمامة",
      "name:ar": "طوق الحمامة",
      "name:fr": "Collier de la colombe",
      "nat_name": "طوق الحمامة",
      "opening_hours": "PH,Mo-Su 19:00-23:00",
      "outdoor_seating": "yes"
    }
  },
  {
    "type": "node",
    "id": 4634748889,
    "lat": 33.9020787,
    "lon": -5.5401168,
    "timestamp": "2023-03-15T12:32:13Z",
    "version": 5,
    "changeset": 133708089,
    "user": "Windjana",
    "uid": 10216103,
    "tags": {
      "amenity": "restaurant",
      "name": "Restaurant Palais Terrab",
      "name:signed": "no"
    }
  },
  {
    "type": "node",
    "id": 4674924891,
    "lat": 33.8974276,
    "lon": -5.5458864,
    "timestamp": "2018-10-22T10:19:19Z",
    "version": 2,
    "changeset": 63753564,
    "user": "johnparis",
    "uid": 2126146,
    "tags": {
      "amenity": "restaurant",
      "name": "Hirae",
      "name:fr": "Hirae"
    }
  },
  {
    "type": "node",
    "id": 4774581536,
    "lat": 33.8963161,
    "lon": -5.5545521,
    "timestamp": "2017-04-04T11:25:00Z",
    "version": 1,
    "changeset": 47439693,
    "user": "marocagreg",
    "uid": 2183569,
    "tags": {
      "amenity": "restaurant",
      "name": "restaurant Aladino"
    }
  },
  {
    "type": "node",
    "id": 5457535721,
    "lat": 33.8936773,
    "lon": -5.5592527,
    "timestamp": "2018-10-22T10:19:47Z",
    "version": 2,
    "changeset": 63753564,
    "user": "johnparis",
    "uid": 2126146,
    "tags": {
      "addr:housenumber": "8",
      "addr:street": "derb Aïn-el-Fouki, 8",
      "amenity": "restaurant",
      "name": "Oumnia",
      "name:fr": "Oumnia",
      "phone": "05-35-53-39-38"
    }
  },
  {
    "type": "node",
    "id": 5457568021,
    "lat": 33.8929573,
    "lon": -5.5601733,
    "timestamp": "2018-10-22T10:19:47Z",
    "version": 2,
    "changeset": 63753564,
    "user": "johnparis",
    "uid": 2126146,
    "tags": {
      "addr:housenumber": "79",
      "addr:street": "Ksar Chaacha",
      "amenity": "restaurant",
      "name": "Le Riad",
      "name:fr": "Le Riad",
      "phone": "05-35-53-05-42"
    }
  },
  {
    "type": "node",
    "id": 5734474448,
    "lat": 33.902031,
    "lon": -5.5471435,
    "timestamp": "2023-06-09T12:27:20Z",
    "version": 3,
    "changeset": 137135049,
    "user": "Gurusraouta",
    "uid": 18913526,
    "tags": {
      "addr:city": "Meknès",
      "addr:city:ar": "مكناس",
      "addr:city:fr": "Meknès",
      "addr:street": "Boulevard Amir Moulay Abdallah",
      "amenity": "restaurant",
      "name": "L'épi",
      "source": "Kaart Ground Survey 2018"
    }
  },
  {
    "type": "node",
    "id": 5741700922,
    "lat": 33.8575133,
    "lon": -5.5784328,
    "timestamp": "2018-07-05T15:53:36Z",
    "version": 1,
    "changeset": 60440990,
    "user": "Whimsical Otter",
    "uid": 7466823,
    "tags": {
      "addr:street": "Avenue Mohammed VI",
      "amenity": "restaurant",
      "name": "Avinida",
      "source": "Kaart Ground Survey 2018"
    }
  },
  {
    "type": "node",
    "id": 5742172921,
    "lat": 33.8985613,
    "lon": -5.545818,
    "timestamp": "2021-12-23T17:30:06Z",
    "version": 3,
    "changeset": 115307604,
    "user": "montanabar",
    "uid": 14696451,
    "tags": {
      "amenity": "restaurant",
      "name": "Restaurant marhaba",
      "name:en": "Restaurant Marhaba"
    }
  },
  {
    "type": "node",
    "id": 5742245965,
    "lat": 33.8636557,
    "lon": -5.5767021,
    "timestamp": "2018-07-05T22:18:37Z",
    "version": 1,
    "changeset": 60449149,
    "user": "Whimsical Otter",
    "uid": 7466823,
    "tags": {
      "addr:street": "Avenue Mohammed VI",
      "amenity": "restaurant",
      "name": "Black Iris",
      "source": "Kaart Ground Survey 2018"
    }
  },
  {
    "type": "node",
    "id": 5744497360,
    "lat": 33.8881721,
    "lon": -5.499258,
    "timestamp": "2018-07-06T22:02:30Z",
    "version": 1,
    "changeset": 60478413,
    "user": "Whimsical Otter",
    "uid": 7466823,
    "tags": {
      "amenity": "restaurant",
      "name": "Café al Akhawayne",
      "source": "Kaart Ground Survey 2018"
    }
  },
  {
    "type": "node",
    "id": 5881355937,
    "lat": 33.8954544,
    "lon": -5.5661849,
    "timestamp": "2019-06-06T09:48:37Z",
    "version": 4,
    "changeset": 70983308,
    "user": "imadmajor",
    "uid": 8766558,
    "tags": {
      "amenity": "restaurant",
      "name": "Restaurant Trésors مطعم كنوز",
      "name:ar": "مطعم كنوز",
      "name:fr": "Restaurant Trésors"
    }
  },
  {
    "type": "node",
    "id": 6270467186,
    "lat": 33.8959864,
    "lon": -5.5652083,
    "timestamp": "2023-11-27T22:14:41Z",
    "version": 2,
    "changeset": 144525831,
    "user": "grullab",
    "uid": 3167782,
    "tags": {
      "addr:housenumber": "5",
      "addr:street": "rue My Abdellah ben Ahmed",
      "amenity": "restaurant",
      "cuisine": "moroccan",
      "internet_access": "wlan",
      "name": "Restaurant Baraka",
      "opening_hours": "Mo-Su 10:00-23:00",
      "operator": "Nourddine Latrache",
      "phone": "0662187441"
    }
  },
  {
    "type": "node",
    "id": 6357941385,
    "lat": 33.8965753,
    "lon": -5.5657051,
    "timestamp": "2023-11-27T22:14:41Z",
    "version": 3,
    "changeset": 144525831,
    "user": "grullab",
    "uid": 3167782,
    "tags": {
      "addr:city": "Meknès",
      "addr:housenumber": "4",
      "addr:street": "Derb Lachkar Kbabine",
      "amenity": "restaurant",
      "name": "Restaurant Aisha",
      "opening_hours": "Mo-Su 09:00-23:00",
      "phone": "+212 535530925"
    }
  },
  {
    "type": "node",
    "id": 6418186102,
    "lat": 33.8784647,
    "lon": -5.5618509,
    "timestamp": "2019-04-20T16:50:08Z",
    "version": 1,
    "changeset": 69406642,
    "user": "Planetgravy",
    "uid": 3950326,
    "tags": {
      "amenity": "restaurant",
      "cuisine": "italian_pizza;chicken;sandwich;moroccan;coffee_shop;local;barbecue;tea;pizza;burger;pasta;kebab;grill",
      "name:en": "Lasfour",
      "name:pt": "Lasfour"
    }
  },
  {
    "type": "node",
    "id": 6418186106,
    "lat": 33.8931042,
    "lon": -5.5644056,
    "timestamp": "2019-04-20T16:50:19Z",
    "version": 1,
    "changeset": 69406642,
    "user": "Planetgravy",
    "uid": 3950326,
    "tags": {
      "amenity": "restaurant",
      "cuisine": "pizza;pasta;moroccan;sandwich;local",
      "name:en": "Mig Mag"
    }
  },
  {
    "type": "node",
    "id": 6418186897,
    "lat": 34.0572924,
    "lon": -5.5243816,
    "timestamp": "2019-04-20T16:50:16Z",
    "version": 1,
    "changeset": 69406642,
    "user": "Planetgravy",
    "uid": 3950326,
    "tags": {
      "amenity": "restaurant",
      "cuisine": "moroccan;local"
    }
  },
  {
    "type": "node",
    "id": 6596413807,
    "lat": 33.8967456,
    "lon": -5.5464426,
    "timestamp": "2021-02-06T12:24:17Z",
    "version": 3,
    "changeset": 98811032,
    "user": "imadmajor",
    "uid": 8766558,
    "tags": {
      "amenity": "restaurant",
      "name": "Bisara"
    }
  },
  {
    "type": "node",
    "id": 6680178286,
    "lat": 34.4481874,
    "lon": -5.5082318,
    "timestamp": "2019-08-03T15:18:01Z",
    "version": 1,
    "changeset": 72971619,
    "user": "Luka Vinck",
    "uid": 8440179,
    "tags": {
      "amenity": "restaurant",
      "cuisine": "tea;breakfast;coffee_shop",
      "name:en": "Café Picasso"
    }
  },
  {
    "type": "node",
    "id": 6918803253,
    "lat": 33.8976894,
    "lon": -5.5454052,
    "timestamp": "2019-10-26T18:18:51Z",
    "version": 1,
    "changeset": 76249659,
    "user": "imadmajor",
    "uid": 8766558,
    "tags": {
      "amenity": "restaurant",
      "cuisine": "chicken",
      "name": "Le coq magique",
      "name:ar": "الديك السحري",
      "name:fr": "Le coq magique"
    }
  },
  {
    "type": "node",
    "id": 6924416671,
    "lat": 33.9005756,
    "lon": -5.5449124,
    "timestamp": "2019-10-28T11:18:45Z",
    "version": 1,
    "changeset": 76294998,
    "user": "imadmajor",
    "uid": 8766558,
    "tags": {
      "amenity": "restaurant",
      "cuisine": "chicken;sandwich;coffee_shop",
      "name": "Club House La Fayette",
      "opening_hours": "Mo-Su 08:00-22:00",
      "phone": "+212535527912"
    }
  },
  {
    "type": "node",
    "id": 6939076550,
    "lat": 33.8987584,
    "lon": -5.5508433,
    "timestamp": "2023-06-09T12:27:20Z",
    "version": 2,
    "changeset": 137135049,
    "user": "Gurusraouta",
    "uid": 18913526,
    "tags": {
      "addr:city": "Meknès",
      "addr:city:ar": "مكناس",
      "addr:city:fr": "Meknès",
      "amenity": "restaurant",
      "cuisine": "chicken",
      "name": "Husseini Palace",
      "name:ar": "قصر الحسيني",
      "name:fr": "Palais Husseini"
    }
  },
  {
    "type": "node",
    "id": 6939076551,
    "lat": 33.8988016,
    "lon": -5.5506866,
    "timestamp": "2023-06-09T12:27:20Z",
    "version": 2,
    "changeset": 137135049,
    "user": "Gurusraouta",
    "uid": 18913526,
    "tags": {
      "addr:city": "Meknès",
      "addr:city:ar": "مكناس",
      "addr:city:fr": "Meknès",
      "amenity": "restaurant",
      "cuisine": "chicken",
      "name": "Mamounia Restaurant",
      "name:ar": "مطعم المامونية"
    }
  },
  {
    "type": "node",
    "id": 6942775854,
    "lat": 33.9005621,
    "lon": -5.5499057,
    "timestamp": "2023-06-09T12:27:20Z",
    "version": 2,
    "changeset": 137135049,
    "user": "Gurusraouta",
    "uid": 18913526,
    "tags": {
      "addr:city": "Meknès",
      "addr:city:ar": "مكناس",
      "addr:city:fr": "Meknès",
      "amenity": "restaurant",
      "name": "le Chef"
    }
  },
  {
    "type": "node",
    "id": 6942831517,
    "lat": 33.8996549,
    "lon": -5.5507782,
    "timestamp": "2023-06-09T12:27:20Z",
    "version": 2,
    "changeset": 137135049,
    "user": "Gurusraouta",
    "uid": 18913526,
    "tags": {
      "addr:city": "Meknès",
      "addr:city:ar": "مكناس",
      "addr:city:fr": "Meknès",
      "amenity": "restaurant",
      "cuisine": "burger",
      "name": "Amigo Burger",
      "phone": "+2125354-01738"
    }
  },
  {
    "type": "node",
    "id": 6942837822,
    "lat": 33.899296,
    "lon": -5.5513202,
    "timestamp": "2023-06-09T12:27:20Z",
    "version": 2,
    "changeset": 137135049,
    "user": "Gurusraouta",
    "uid": 18913526,
    "tags": {
      "addr:city": "Meknès",
      "addr:city:ar": "مكناس",
      "addr:city:fr": "Meknès",
      "addr:street": "Avenue Hassan II شارع الحسن الثاني",
      "amenity": "restaurant",
      "cuisine": "pizza",
      "name": "Traiteur and Restaurant Milano",
      "phone": "+212661-165655"
    }
  },
  {
    "type": "node",
    "id": 6980212955,
    "lat": 34.0711548,
    "lon": -5.5526451,
    "timestamp": "2019-11-15T16:16:01Z",
    "version": 1,
    "changeset": 77137531,
    "user": "PKla",
    "uid": 200382,
    "tags": {
      "amenity": "restaurant"
    }
  },
  {
    "type": "node",
    "id": 7097950186,
    "lat": 33.8981172,
    "lon": -5.547038,
    "timestamp": "2019-12-31T10:25:33Z",
    "version": 1,
    "changeset": 79050974,
    "user": "Yuridiculous",
    "uid": 3930343,
    "tags": {
      "addr:housenumber": "2",
      "addr:street": "Rue de Beyrouth",
      "amenity": "restaurant",
      "name:en": "Le Cristal",
      "opening_hours": "Mo-Su 10:00-01:00"
    }
  },
  {
    "type": "node",
    "id": 7101064685,
    "lat": 33.8792347,
    "lon": -5.5627396,
    "timestamp": "2020-01-02T09:59:30Z",
    "version": 1,
    "changeset": 79107195,
    "user": "Mgueudet",
    "uid": 6356452,
    "tags": {
      "amenity": "restaurant",
      "name:en": "Plaza Meknes",
      "name:fr": "Plaza Meknes"
    }
  },
  {
    "type": "node",
    "id": 7102253685,
    "lat": 34.0590808,
    "lon": -5.5179412,
    "timestamp": "2020-01-02T19:21:30Z",
    "version": 1,
    "changeset": 79127702,
    "user": "Barry Luijten",
    "uid": 4929732,
    "tags": {
      "amenity": "restaurant",
      "name:en": "Labaraka Famille"
    }
  },
  {
    "type": "node",
    "id": 7857482093,
    "lat": 33.9007147,
    "lon": -5.5400002,
    "timestamp": "2023-06-09T12:27:20Z",
    "version": 3,
    "changeset": 137135049,
    "user": "Gurusraouta",
    "uid": 18913526,
    "tags": {
      "addr:city": "Meknès",
      "addr:city:ar": "مكناس",
      "addr:city:fr": "Meknès",
      "addr:street": "Avenue Yacoub Al Mansour شارع يعقوب المنصور",
      "amenity": "restaurant",
      "diet:halal": "yes",
      "name": "Restaurant Latino"
    }
  },
  {
    "type": "node",
    "id": 7857561582,
    "lat": 33.8986751,
    "lon": -5.5368323,
    "timestamp": "2023-06-09T12:27:20Z",
    "version": 3,
    "changeset": 137135049,
    "user": "Gurusraouta",
    "uid": 18913526,
    "tags": {
      "addr:city": "Meknès",
      "addr:city:ar": "مكناس",
      "addr:city:fr": "Meknès",
      "amenity": "restaurant",
      "diet:halal": "yes",
      "name": "La Daurade"
    }
  },
  {
    "type": "node",
    "id": 7857569036,
    "lat": 33.8998381,
    "lon": -5.5367942,
    "timestamp": "2023-06-09T12:27:20Z",
    "version": 3,
    "changeset": 137135049,
    "user": "Gurusraouta",
    "uid": 18913526,
    "tags": {
      "addr:city": "Meknès",
      "addr:city:ar": "مكناس",
      "addr:city:fr": "Meknès",
      "amenity": "restaurant",
      "cuisine": "pizza",
      "diet:halal": "yes",
      "name": "Allo Pizza",
      "phone": "+212600-305589"
    }
  },
  {
    "type": "node",
    "id": 7862944533,
    "lat": 33.9016567,
    "lon": -5.5494924,
    "timestamp": "2023-06-09T12:27:20Z",
    "version": 2,
    "changeset": 137135049,
    "user": "Gurusraouta",
    "uid": 18913526,
    "tags": {
      "addr:city": "Meknès",
      "addr:city:ar": "مكناس",
      "addr:city:fr": "Meknès",
      "addr:street": "Boulevard Amir Moulay Abdallah شارع الأمير مولاي عبد الله",
      "amenity": "restaurant",
      "cuisine": "chicken",
      "name": "Charlo"
    }
  },
  {
    "type": "node",
    "id": 8158087917,
    "lat": 33.9002563,
    "lon": -5.5467551,
    "timestamp": "2020-11-24T12:26:30Z",
    "version": 1,
    "changeset": 94706346,
    "user": "Bilal-Nabil",
    "uid": 12224377,
    "tags": {
      "addr:street": "Avenue Mohammed V شارع محمد الخامس",
      "amenity": "restaurant",
      "cuisine": "barbecue;moroccan",
      "name": "مشواة دادة",
      "name:fr": "DADA MICHWAT",
      "phone": "+212611062607"
    }
  },
  {
    "type": "node",
    "id": 8364876000,
    "lat": 33.8980956,
    "lon": -5.5333072,
    "timestamp": "2023-03-15T06:02:52Z",
    "version": 2,
    "changeset": 133694399,
    "user": "imadmajor",
    "uid": 8766558,
    "tags": {
      "addr:city": "Meknès ⴰⵎⴽⵏⴰⵙ مكناس",
      "addr:street": "Boulevard des F.A.R شارع الجيش الملكي",
      "amenity": "restaurant",
      "brand": "Big Boy",
      "brand:wikidata": "Q4386779",
      "brand:wikipedia": "en:Big Boy Restaurants",
      "cuisine": "burger",
      "diet:halal": "yes",
      "name": "Big Boy",
      "official_name": "Big Boy Restaurant & Bakery"
    }
  },
  {
    "type": "node",
    "id": 8415728730,
    "lat": 33.8591822,
    "lon": -5.5751577,
    "timestamp": "2021-02-11T17:20:26Z",
    "version": 1,
    "changeset": 99124245,
    "user": "imadmajor",
    "uid": 8766558,
    "tags": {
      "amenity": "restaurant",
      "name": "L' Artisan Kebab",
      "phone": "+212707639858"
    }
  },
  {
    "type": "node",
    "id": 9343524341,
    "lat": 34.2256823,
    "lon": -5.7206998,
    "timestamp": "2021-12-16T11:42:14Z",
    "version": 1,
    "changeset": 115005004,
    "user": "imadmajor",
    "uid": 8766558,
    "tags": {
      "amenity": "restaurant",
      "name": "سناك منتصر"
    }
  },
  {
    "type": "node",
    "id": 9343524348,
    "lat": 34.2315361,
    "lon": -5.7265201,
    "timestamp": "2021-12-16T11:42:14Z",
    "version": 1,
    "changeset": 115005004,
    "user": "imadmajor",
    "uid": 8766558,
    "tags": {
      "amenity": "restaurant",
      "name": "سناك هشام"
    }
  },
  {
    "type": "node",
    "id": 9347211719,
    "lat": 34.2154697,
    "lon": -5.7107025,
    "timestamp": "2021-12-17T18:59:16Z",
    "version": 1,
    "changeset": 115068655,
    "user": "imadmajor",
    "uid": 8766558,
    "tags": {
      "amenity": "restaurant",
      "name": "سناك اية"
    }
  },
  {
    "type": "node",
    "id": 9347211722,
    "lat": 34.2167273,
    "lon": -5.7111506,
    "timestamp": "2021-12-17T18:59:16Z",
    "version": 1,
    "changeset": 115068655,
    "user": "imadmajor",
    "uid": 8766558,
    "tags": {
      "amenity": "restaurant",
      "name": "كفتة رمضان"
    }
  },
  {
    "type": "node",
    "id": 9347211738,
    "lat": 34.2226912,
    "lon": -5.7049795,
    "timestamp": "2021-12-17T18:59:16Z",
    "version": 1,
    "changeset": 115068655,
    "user": "imadmajor",
    "uid": 8766558,
    "tags": {
      "amenity": "restaurant",
      "name": "مطعم حافيظ"
    }
  },
  {
    "type": "node",
    "id": 9347211744,
    "lat": 34.2218284,
    "lon": -5.7069206,
    "timestamp": "2021-12-17T18:59:16Z",
    "version": 1,
    "changeset": 115068655,
    "user": "imadmajor",
    "uid": 8766558,
    "tags": {
      "amenity": "restaurant",
      "name": "مطعم عبد الحق"
    }
  },
  {
    "type": "node",
    "id": 9347211750,
    "lat": 34.2233308,
    "lon": -5.707263,
    "timestamp": "2021-12-17T18:59:16Z",
    "version": 1,
    "changeset": 115068655,
    "user": "imadmajor",
    "uid": 8766558,
    "tags": {
      "amenity": "restaurant",
      "name": "Allo diki restaurant"
    }
  },
  {
    "type": "node",
    "id": 9347211773,
    "lat": 34.2193212,
    "lon": -5.7117321,
    "timestamp": "2021-12-17T18:59:16Z",
    "version": 1,
    "changeset": 115068655,
    "user": "imadmajor",
    "uid": 8766558,
    "tags": {
      "amenity": "restaurant",
      "name": "مطعم لؤلؤة الشمال"
    }
  },
  {
    "type": "node",
    "id": 9529723817,
    "lat": 34.5223549,
    "lon": -6.322354,
    "timestamp": "2022-02-23T11:59:14Z",
    "version": 1,
    "changeset": 117767237,
    "user": "Alexski52",
    "uid": 10134238,
    "tags": {
      "amenity": "restaurant",
      "name": "Café restaurant du Gharb"
    }
  },
  {
    "type": "node",
    "id": 9572717217,
    "lat": 34.4896567,
    "lon": -5.5139629,
    "timestamp": "2022-03-12T12:04:16Z",
    "version": 1,
    "changeset": 118395582,
    "user": "Madani2020",
    "uid": 9863651,
    "tags": {
      "amenity": "restaurant"
    }
  },
  {
    "type": "node",
    "id": 9831172917,
    "lat": 33.8992563,
    "lon": -5.5455485,
    "timestamp": "2022-06-19T14:52:33Z",
    "version": 1,
    "changeset": 122582480,
    "user": "Alexski52",
    "uid": 10134238,
    "tags": {
      "amenity": "restaurant",
      "name": "Au bon coin"
    }
  },
  {
    "type": "node",
    "id": 10130112619,
    "lat": 33.8946439,
    "lon": -5.5655223,
    "timestamp": "2023-03-13T13:17:13Z",
    "version": 2,
    "changeset": 133625142,
    "user": "Opix",
    "uid": 6337205,
    "tags": {
      "amenity": "restaurant",
      "indoor_seating": "yes",
      "name": "Riad Selma",
      "outdoor_seating": "yes"
    }
  },
  {
    "type": "node",
    "id": 10196647426,
    "lat": 33.8953092,
    "lon": -5.5648959,
    "timestamp": "2022-11-17T09:25:49Z",
    "version": 1,
    "changeset": 129030331,
    "user": "gaydex",
    "uid": 5503735,
    "tags": {
      "amenity": "restaurant",
      "name:fr": "Goût de Meknès"
    }
  },
  {
    "type": "node",
    "id": 11020168406,
    "lat": 33.890208,
    "lon": -5.5643343,
    "timestamp": "2023-07-02T15:05:17Z",
    "version": 1,
    "changeset": 138027393,
    "user": "rubiojr",
    "uid": 288511,
    "tags": {
      "amenity": "restaurant",
      "name": "Palais Ismailia"
    }
  },
  {
    "type": "node",
    "id": 11128390605,
    "lat": 33.8913407,
    "lon": -5.5634296,
    "timestamp": "2023-08-19T16:36:02Z",
    "version": 1,
    "changeset": 140102397,
    "user": "RE3EL",
    "uid": 13913242,
    "tags": {
      "amenity": "restaurant",
      "name:fr": "Palais Salma"
    }
  },
  {
    "type": "node",
    "id": 11252606194,
    "lat": 33.8985748,
    "lon": -5.5514922,
    "timestamp": "2023-10-10T10:51:30Z",
    "version": 1,
    "changeset": 142387413,
    "user": "imadmajor",
    "uid": 8766558,
    "tags": {
      "amenity": "restaurant",
      "name": "معيقدات با مبارك"
    }
  },
  {
    "type": "node",
    "id": 11516633912,
    "lat": 34.0149287,
    "lon": -5.562294,
    "timestamp": "2024-01-14T16:46:07Z",
    "version": 1,
    "changeset": 146251752,
    "user": "npalix",
    "uid": 359712,
    "tags": {
      "amenity": "restaurant"
    }
  },
  {
    "type": "node",
    "id": 11560847275,
    "lat": 34.0204538,
    "lon": -5.5491483,
    "timestamp": "2024-01-28T19:31:49Z",
    "version": 1,
    "changeset": 146792694,
    "user": "npalix",
    "uid": 359712,
    "tags": {
      "amenity": "restaurant"
    }
  },
  {
    "type": "node",
    "id": 12151832585,
    "lat": 33.8602638,
    "lon": -5.5695691,
    "timestamp": "2024-09-02T16:19:49Z",
    "version": 1,
    "changeset": 156106537,
    "user": "imadmajor",
    "uid": 8766558,
    "tags": {
      "amenity": "restaurant",
      "name": "لالة معقودة"
    }
  },
  {
    "type": "node",
    "id": 12153895347,
    "lat": 33.8558693,
    "lon": -5.5813012,
    "timestamp": "2024-09-03T15:06:48Z",
    "version": 1,
    "changeset": 156146998,
    "user": "imadmajor",
    "uid": 8766558,
    "tags": {
      "amenity": "restaurant",
      "name": "McDonald's"
    }
  },
  {
    "type": "node",
    "id": 12189771101,
    "lat": 33.8978806,
    "lon": -5.53163,
    "timestamp": "2024-09-21T11:19:51Z",
    "version": 1,
    "changeset": 156907444,
    "user": "imadmajor",
    "uid": 8766558,
    "tags": {
      "amenity": "restaurant",
      "name": "TGV PIZZA"
    }
  },
  {
    "type": "node",
    "id": 12405232901,
    "lat": 33.8991181,
    "lon": -5.5658562,
    "timestamp": "2024-12-08T17:38:27Z",
    "version": 1,
    "changeset": 160065032,
    "user": "duke_leto",
    "uid": 1814943,
    "tags": {
      "addr:housenumber": "14",
      "addr:street": "Rue Sidi Ahmed Ben Khadra",
      "amenity": "restaurant",
      "contact:instagram": "restaurantdarlallakhadra",
      "cuisine": "moroccan",
      "name": "Dar lalla khadra",
      "phone": "+212661562879;+212665027183"
    }
  },
  {
    "type": "node",
    "id": 12757248700,
    "lat": 33.8556252,
    "lon": -5.5660119,
    "timestamp": "2025-04-15T11:23:50Z",
    "version": 1,
    "changeset": 164979859,
    "user": "imadmajor",
    "uid": 8766558,
    "tags": {
      "amenity": "restaurant",
      "name": "Pain cake"
    }
  },
  {
    "type": "node",
    "id": 12768412803,
    "lat": 33.8933834,
    "lon": -5.5410678,
    "timestamp": "2025-04-19T12:22:31Z",
    "version": 1,
    "changeset": 165151451,
    "user": "imadmajor",
    "uid": 8766558,
    "tags": {
      "amenity": "restaurant",
      "name": "Euro-Snack"
    }
  },
  {
    "type": "node",
    "id": 12782249612,
    "lat": 33.9041023,
    "lon": -5.4831362,
    "timestamp": "2025-04-24T08:53:49Z",
    "version": 1,
    "changeset": 165367581,
    "user": "imadmajor",
    "uid": 8766558,
    "tags": {
      "amenity": "restaurant",
      "name": "Snack darna"
    }
  },
  {
    "type": "node",
    "id": 12787847735,
    "lat": 33.8986168,
    "lon": -5.514432,
    "timestamp": "2025-04-26T11:21:52Z",
    "version": 1,
    "changeset": 165460534,
    "user": "imadmajor",
    "uid": 8766558,
    "tags": {
      "amenity": "restaurant",
      "name": "Be wok"
    }
  },
  {
    "type": "node",
    "id": 12787862017,
    "lat": 33.858963,
    "lon": -5.5609159,
    "timestamp": "2025-04-26T11:15:50Z",
    "version": 1,
    "changeset": 165460312,
    "user": "imadmajor",
    "uid": 8766558,
    "tags": {
      "amenity": "restaurant",
      "name": "سناك حمادة"
    }
  },
  {
    "type": "way",
    "id": 292259297,
    "timestamp": "2020-02-02T13:07:17Z",
    "version": 3,
    "changeset": 80434962,
    "user": "imadmajor",
    "uid": 8766558,
    "center": {
      "lat": 33.9052656,
      "lon": -5.5521547
    },
    "nodes": [
      2958125377,
      2958125383,
      2958125382,
      2958125378,
      7178944615,
      7178944614,
      2958125379,
      7178944613,
      7178944612,
      2958125380,
      2958125377
    ],
    "tags": {
      "amenity": "restaurant",
      "building": "yes",
      "craft": "caterer",
      "cuisine": "regional",
      "name": "Cornette Palace",
      "phone": "+212 535526015",
      "phone:mobile": "+212 661081610",
      "smoking": "yes",
      "website": "http://cornette-palace.com"
    }
  },
  {
    "type": "way",
    "id": 307483288,
    "timestamp": "2024-07-11T17:36:53Z",
    "version": 2,
    "changeset": 153822350,
    "user": "osm10005",
    "uid": 4816089,
    "center": {
      "lat": 33.6882744,
      "lon": -5.3706689
    },
    "nodes": [
      3126503688,
      12047730751,
      3126503689,
      3126503690,
      12047730742,
      12047730743,
      12047730744,
      12047730745,
      12047730746,
      12047730747,
      3126503694,
      12047730748,
      3126503692,
      12047730749,
      12047730750,
      3126503688
    ],
    "tags": {
      "amenity": "restaurant",
      "building": "yes",
      "name": "café restaurant"
    }
  },
  {
    "type": "way",
    "id": 739532090,
    "timestamp": "2020-11-20T00:02:09Z",
    "version": 3,
    "changeset": 94465887,
    "user": "MustafaQasim",
    "uid": 9535554,
    "center": {
      "lat": 33.8999306,
      "lon": -5.5451983
    },
    "nodes": [
      6924413671,
      6924413672,
      6924413673,
      6924413674,
      6924413675,
      7856517495,
      6924413676,
      6924413671
    ],
    "tags": {
      "amenity": "restaurant",
      "building": "terrace",
      "cuisine": "chicken",
      "name": "مجزرة ومشواة واد الجديدة",
      "name:ar": "مجزرة ومشواة واد الجديدة"
    }
  }
]