[
  {
    "type": "node",
    "id": 4427042239,
    "lat": 34.4603878,
    "lon": 2.5287545,
    "timestamp": "2020-12-30T19:19:38Z",
    "version": 3,
    "changeset": 96687154,
    "user": "Vejoson",
    "uid": 11422772,
    "tags": {
      "addr:country": "DZ",
      "amenity": "restaurant",
      "name": "Resto",
      "name:fr": "Resto"
    }
  },
  {
    "type": "node",
    "id": 4703335887,
    "lat": 34.4513737,
    "lon": 2.5293294,
    "timestamp": "2020-12-30T19:19:38Z",
    "version": 3,
    "changeset": 96687154,
    "user": "Vejoson",
    "uid": 11422772,
    "tags": {
      "addr:country": "DZ",
      "amenity": "restaurant",
      "name": "Resto",
      "name:fr": "Resto"
    }
  },
  {
    "type": "node",
    "id": 4703335888,
    "lat": 34.451199,
    "lon": 2.5293603,
    "timestamp": "2020-12-30T19:19:38Z",
    "version": 3,
    "changeset": 96687154,
    "user": "Vejoson",
    "uid": 11422772,
    "tags": {
      "addr:country": "DZ",
      "amenity": "restaurant",
      "name": "Resto",
      "name:fr": "Resto"
    }
  },
  {
    "type": "node",
    "id": 4703336089,
    "lat": 34.4518847,
    "lon": 2.5299088,
    "timestamp": "2020-12-30T19:19:38Z",
    "version": 3,
    "changeset": 96687154,
    "user": "Vejoson",
    "uid": 11422772,
    "tags": {
      "addr:country": "DZ",
      "amenity": "restaurant",
      "name": "Resto",
      "name:fr": "Resto"
    }
  },
  {
    "type": "node",
    "id": 4703336090,
    "lat": 34.4517431,
    "lon": 2.5297935,
    "timestamp": "2020-12-30T19:19:38Z",
    "version": 3,
    "changeset": 96687154,
    "user": "Vejoson",
    "uid": 11422772,
    "tags": {
      "addr:country": "DZ",
      "amenity": "restaurant",
      "name": "Resto",
      "name:fr": "Resto"
    }
  },
  {
    "type": "node",
    "id": 4963625128,
    "lat": 34.2969123,
    "lon": 1.950848,
    "timestamp": "2024-08-31T16:09:17Z",
    "version": 4,
    "changeset": 156022443,
    "user": "Softmap",
    "uid": 2685472,
    "tags": {
      "addr:country": "DZ",
      "amenity": "restaurant",
      "name": "Resto",
      "name:fr": "Resto"
    }
  }
]