[
  {
    "type": "node",
    "id": 3141646030,
    "lat": 34.4364502,
    "lon": 5.0687851,
    "timestamp": "2018-06-13T17:53:21Z",
    "version": 7,
    "changeset": 59818370,
    "user": "ButterflyOfFire_",
    "uid": 2842609,
    "tags": {
      "addr:country": "DZ",
      "amenity": "restaurant",
      "name": "مطعم ترنزيت",
      "name:ar": "مطعم ترنزيت",
      "name:fr": "Restaurant transit"
    }
  },
  {
    "type": "node",
    "id": 3141646033,
    "lat": 34.4254993,
    "lon": 5.0654918,
    "timestamp": "2021-04-16T00:52:03Z",
    "version": 6,
    "changeset": 103021734,
    "user": "Zinoural",
    "uid": 6515906,
    "tags": {
      "amenity": "restaurant"
    }
  },
  {
    "type": "node",
    "id": 3141646034,
    "lat": 34.4253695,
    "lon": 5.0656404,
    "timestamp": "2021-04-16T00:52:03Z",
    "version": 6,
    "changeset": 103021734,
    "user": "Zinoural",
    "uid": 6515906,
    "tags": {
      "amenity": "restaurant"
    }
  },
  {
    "type": "node",
    "id": 3141646035,
    "lat": 34.425129,
    "lon": 5.0658707,
    "timestamp": "2021-04-16T00:52:03Z",
    "version": 6,
    "changeset": 103021734,
    "user": "Zinoural",
    "uid": 6515906,
    "tags": {
      "amenity": "restaurant"
    }
  },
  {
    "type": "node",
    "id": 3167111479,
    "lat": 34.4239874,
    "lon": 5.0614334,
    "timestamp": "2021-04-16T00:52:03Z",
    "version": 5,
    "changeset": 103021734,
    "user": "Zinoural",
    "uid": 6515906,
    "tags": {
      "amenity": "restaurant"
    }
  },
  {
    "type": "node",
    "id": 3241209602,
    "lat": 34.4261359,
    "lon": 5.0649957,
    "timestamp": "2018-06-13T17:53:28Z",
    "version": 3,
    "changeset": 59818370,
    "user": "ButterflyOfFire_",
    "uid": 2842609,
    "tags": {
      "addr:country": "DZ",
      "amenity": "restaurant",
      "name": "مطعم الفتح",
      "name:ar": "مطعم الفتح",
      "name:fr": "restaurant Elfath"
    }
  },
  {
    "type": "node",
    "id": 3257302637,
    "lat": 34.3958784,
    "lon": 4.9953529,
    "timestamp": "2018-06-13T17:53:30Z",
    "version": 5,
    "changeset": 59818370,
    "user": "ButterflyOfFire_",
    "uid": 2842609,
    "tags": {
      "addr:country": "DZ",
      "amenity": "restaurant",
      "name": "مطعم طكوك",
      "name:ar": "مطعم طكوك",
      "name:fr": "Restaurant Takouk"
    }
  },
  {
    "type": "node",
    "id": 3894809101,
    "lat": 34.4383971,
    "lon": 5.0701162,
    "timestamp": "2018-06-13T17:53:53Z",
    "version": 5,
    "changeset": 59818370,
    "user": "ButterflyOfFire_",
    "uid": 2842609,
    "tags": {
      "addr:country": "DZ",
      "amenity": "restaurant",
      "name": "مطعم الهناء",
      "name:ar": "مطعم الهناء",
      "name:fr": "restaurant El Hana",
      "operator": "Aqchiche"
    }
  },
  {
    "type": "node",
    "id": 3929047460,
    "lat": 34.4305424,
    "lon": 5.0681862,
    "timestamp": "2020-12-30T19:19:38Z",
    "version": 4,
    "changeset": 96687154,
    "user": "Vejoson",
    "uid": 11422772,
    "tags": {
      "addr:country": "DZ",
      "amenity": "restaurant",
      "name": "مطعم",
      "name:ar": "مطعم",
      "name:fr": "Resto"
    }
  },
  {
    "type": "node",
    "id": 4010751444,
    "lat": 34.4251684,
    "lon": 5.0659222,
    "timestamp": "2021-04-16T00:52:03Z",
    "version": 5,
    "changeset": 103021734,
    "user": "Zinoural",
    "uid": 6515906,
    "tags": {
      "amenity": "restaurant"
    }
  },
  {
    "type": "node",
    "id": 4010753331,
    "lat": 34.4254257,
    "lon": 5.0657136,
    "timestamp": "2021-04-16T00:52:03Z",
    "version": 5,
    "changeset": 103021734,
    "user": "Zinoural",
    "uid": 6515906,
    "tags": {
      "amenity": "restaurant"
    }
  },
  {
    "type": "node",
    "id": 4282920382,
    "lat": 34.3962152,
    "lon": 4.9973177,
    "timestamp": "2020-12-30T19:19:38Z",
    "version": 4,
    "changeset": 96687154,
    "user": "Vejoson",
    "uid": 11422772,
    "tags": {
      "addr:city": "سيدي خالد",
      "addr:city:ar": "سيدي خالد",
      "amenity": "restaurant",
      "brand": "بيتزا هت",
      "brand:ar": "بيتزا هت",
      "brand:wikidata": "Q191615",
      "brand:wikipedia": "ar:بيتزا هت",
      "cuisine": "pizza",
      "name": "بيتزا هت",
      "name:ar": "بيتزا هت",
      "name:en": "Pizza Hut",
      "name:fr": "Pizza Hut"
    }
  },
  {
    "type": "node",
    "id": 4787180716,
    "lat": 34.3959824,
    "lon": 4.9968651,
    "timestamp": "2020-11-03T03:34:18Z",
    "version": 4,
    "changeset": 93448915,
    "user": "MustafaQasim",
    "uid": 9535554,
    "tags": {
      "addr:country": "DZ",
      "amenity": "restaurant",
      "name": "مطعم خليفة",
      "name:ar": "مطعم خليفة",
      "name:en": "Restaurant khelifa",
      "name:fr": "Restaurant khelifa"
    }
  },
  {
    "type": "node",
    "id": 5102878627,
    "lat": 34.4487249,
    "lon": 5.0669106,
    "timestamp": "2020-11-03T03:34:18Z",
    "version": 4,
    "changeset": 93448915,
    "user": "MustafaQasim",
    "uid": 9535554,
    "tags": {
      "amenity": "restaurant",
      "name": "مطعم دار الضياف",
      "name:ar": "مطعم دار الضياف",
      "name:fr": "Restaurant Dar Edhiaf"
    }
  },
  {
    "type": "node",
    "id": 6234267793,
    "lat": 34.4349828,
    "lon": 5.0644798,
    "timestamp": "2020-11-03T03:34:18Z",
    "version": 2,
    "changeset": 93448915,
    "user": "MustafaQasim",
    "uid": 9535554,
    "tags": {
      "amenity": "restaurant",
      "name": "مطعم انس",
      "name:ar": "مطعم انس",
      "name:fr": "restaurant Anas"
    }
  },
  {
    "type": "node",
    "id": 7044810986,
    "lat": 34.4250302,
    "lon": 5.0666587,
    "timestamp": "2021-04-16T00:52:03Z",
    "version": 3,
    "changeset": 103021734,
    "user": "Zinoural",
    "uid": 6515906,
    "tags": {
      "amenity": "restaurant"
    }
  },
  {
    "type": "node",
    "id": 9930734417,
    "lat": 34.396128,
    "lon": 4.9930032,
    "timestamp": "2022-08-04T02:17:27Z",
    "version": 1,
    "changeset": 124458363,
    "user": "KadaDjoudi",
    "uid": 16735498,
    "tags": {
      "addr:street": "شارع قرمي محمد",
      "amenity": "restaurant",
      "cuisine": "breakfast",
      "name": "لعروسي للخفاف و الفول",
      "name:en": "Djoudi Laarroussi",
      "opening_hours": "Th-Tu 04:20-09:20"
    }
  }
]