[
  {
    "type": "node",
    "id": 3135807614,
    "lat": 35.3656529,
    "lon": 1.3272899,
    "timestamp": "2020-12-30T19:19:38Z",
    "version": 4,
    "changeset": 96687154,
    "user": "Vejoson",
    "uid": 11422772,
    "tags": {
      "addr:country": "DZ",
      "amenity": "restaurant",
      "name": "Resto",
      "name:fr": "Resto"
    }
  },
  {
    "type": "node",
    "id": 3449476539,
    "lat": 35.1844793,
    "lon": 1.4974643,
    "timestamp": "2018-06-13T17:53:38Z",
    "version": 3,
    "changeset": 59818370,
    "user": "ButterflyOfFire_",
    "uid": 2842609,
    "tags": {
      "addr:country": "DZ",
      "amenity": "restaurant",
      "name": "Chaanbi",
      "name:ar": "شعانبي"
    }
  },
  {
    "type": "node",
    "id": 3449476540,
    "lat": 35.185295,
    "lon": 1.4965123,
    "timestamp": "2018-06-13T17:53:38Z",
    "version": 3,
    "changeset": 59818370,
    "user": "ButterflyOfFire_",
    "uid": 2842609,
    "tags": {
      "addr:country": "DZ",
      "amenity": "restaurant",
      "name": "Hadj Kouider",
      "name:ar": "الحاج قويدر"
    }
  },
  {
    "type": "node",
    "id": 3449476541,
    "lat": 35.1857925,
    "lon": 1.4987349,
    "timestamp": "2018-06-13T17:53:38Z",
    "version": 2,
    "changeset": 59818370,
    "user": "ButterflyOfFire_",
    "uid": 2842609,
    "tags": {
      "addr:country": "DZ",
      "amenity": "restaurant",
      "name": "Ben Alia"
    }
  },
  {
    "type": "node",
    "id": 3449476542,
    "lat": 35.1851156,
    "lon": 1.4964981,
    "timestamp": "2018-06-13T17:53:38Z",
    "version": 3,
    "changeset": 59818370,
    "user": "ButterflyOfFire_",
    "uid": 2842609,
    "tags": {
      "addr:country": "DZ",
      "amenity": "restaurant",
      "name": "Djilali",
      "name:ar": "جيلالي"
    }
  },
  {
    "type": "node",
    "id": 3449476543,
    "lat": 35.1860412,
    "lon": 1.4939605,
    "timestamp": "2018-06-13T17:53:38Z",
    "version": 2,
    "changeset": 59818370,
    "user": "ButterflyOfFire_",
    "uid": 2842609,
    "tags": {
      "addr:country": "DZ",
      "amenity": "restaurant",
      "name": "Miloud chouwai"
    }
  },
  {
    "type": "node",
    "id": 3449476544,
    "lat": 35.1862987,
    "lon": 1.4964096,
    "timestamp": "2020-12-30T19:19:38Z",
    "version": 4,
    "changeset": 96687154,
    "user": "Vejoson",
    "uid": 11422772,
    "tags": {
      "addr:city": "السوقر",
      "amenity": "restaurant",
      "name": "Resto",
      "name:fr": "Resto"
    }
  },
  {
    "type": "node",
    "id": 3449476545,
    "lat": 35.1845371,
    "lon": 1.4983774,
    "timestamp": "2020-12-30T19:19:38Z",
    "version": 4,
    "changeset": 96687154,
    "user": "Vejoson",
    "uid": 11422772,
    "tags": {
      "addr:city": "السوقر",
      "amenity": "restaurant",
      "name": "Resto",
      "name:fr": "Resto"
    }
  },
  {
    "type": "node",
    "id": 3449476546,
    "lat": 35.1858098,
    "lon": 1.4989932,
    "timestamp": "2018-06-13T17:53:38Z",
    "version": 2,
    "changeset": 59818370,
    "user": "ButterflyOfFire_",
    "uid": 2842609,
    "tags": {
      "addr:country": "DZ",
      "amenity": "restaurant",
      "name": "Abdelmoula"
    }
  },
  {
    "type": "node",
    "id": 4274748302,
    "lat": 35.3894047,
    "lon": 1.5041223,
    "timestamp": "2021-11-15T13:36:28Z",
    "version": 4,
    "changeset": 113806131,
    "user": "zboot",
    "uid": 1867980,
    "tags": {
      "addr:country": "DZ",
      "amenity": "restaurant"
    }
  },
  {
    "type": "node",
    "id": 4274748303,
    "lat": 35.389241,
    "lon": 1.5052104,
    "timestamp": "2021-11-15T13:36:28Z",
    "version": 4,
    "changeset": 113806131,
    "user": "zboot",
    "uid": 1867980,
    "tags": {
      "addr:country": "DZ",
      "amenity": "restaurant"
    }
  },
  {
    "type": "node",
    "id": 4305799908,
    "lat": 35.3772713,
    "lon": 1.3298697,
    "timestamp": "2021-09-11T21:36:35Z",
    "version": 4,
    "changeset": 111077978,
    "user": "Softmap",
    "uid": 2685472,
    "tags": {
      "addr:country": "DZ",
      "amenity": "restaurant",
      "name": "Resto",
      "name:fr": "Resto"
    }
  },
  {
    "type": "node",
    "id": 4305813660,
    "lat": 35.37456,
    "lon": 1.3244397,
    "timestamp": "2023-06-06T13:26:50Z",
    "version": 7,
    "changeset": 137015368,
    "user": "Gurusraouta",
    "uid": 18913526,
    "tags": {
      "amenity": "restaurant",
      "name": "Restaurant Pacha",
      "name:ar": "مطعم الباشا",
      "name:fr": "Restaurant Pacha"
    }
  },
  {
    "type": "node",
    "id": 4306543658,
    "lat": 35.3645076,
    "lon": 1.3200324,
    "timestamp": "2020-12-30T19:19:38Z",
    "version": 5,
    "changeset": 96687154,
    "user": "Vejoson",
    "uid": 11422772,
    "tags": {
      "addr:city": "تيارت",
      "amenity": "restaurant",
      "name": "Resto",
      "name:fr": "Resto"
    }
  },
  {
    "type": "node",
    "id": 4306567187,
    "lat": 35.3571883,
    "lon": 1.3248374,
    "timestamp": "2020-12-31T00:28:55Z",
    "version": 7,
    "changeset": 96696052,
    "user": "Vejoson",
    "uid": 11422772,
    "tags": {
      "addr:country": "DZ",
      "amenity": "restaurant",
      "name": "مطعم قرببو",
      "name:ar": "مطعم قرببو",
      "name:fr": "karbebou"
    }
  },
  {
    "type": "node",
    "id": 4306567188,
    "lat": 35.3573275,
    "lon": 1.3247642,
    "timestamp": "2020-12-30T19:19:38Z",
    "version": 3,
    "changeset": 96687154,
    "user": "Vejoson",
    "uid": 11422772,
    "tags": {
      "addr:country": "DZ",
      "amenity": "restaurant",
      "name": "Resto",
      "name:fr": "Resto"
    }
  },
  {
    "type": "node",
    "id": 4306582797,
    "lat": 35.3599103,
    "lon": 1.3121466,
    "timestamp": "2020-12-30T19:19:38Z",
    "version": 3,
    "changeset": 96687154,
    "user": "Vejoson",
    "uid": 11422772,
    "tags": {
      "addr:country": "DZ",
      "amenity": "restaurant",
      "name": "Resto",
      "name:fr": "Resto"
    }
  },
  {
    "type": "node",
    "id": 4306635438,
    "lat": 35.3595452,
    "lon": 1.3321898,
    "timestamp": "2020-12-30T19:19:38Z",
    "version": 3,
    "changeset": 96687154,
    "user": "Vejoson",
    "uid": 11422772,
    "tags": {
      "addr:country": "DZ",
      "amenity": "restaurant",
      "name": "Resto",
      "name:fr": "Resto"
    }
  },
  {
    "type": "node",
    "id": 4325261492,
    "lat": 35.3594905,
    "lon": 1.3189123,
    "timestamp": "2020-11-02T04:41:13Z",
    "version": 4,
    "changeset": 93391325,
    "user": "MustafaQasim",
    "uid": 9535554,
    "tags": {
      "addr:city": "تيارت",
      "addr:city:ar": "تيارت",
      "addr:housenumber": "1",
      "addr:postcode": "14000",
      "amenity": "restaurant",
      "opening_hours": "Mo-Su 10:00-22:00"
    }
  },
  {
    "type": "node",
    "id": 4423521700,
    "lat": 35.349201,
    "lon": 1.3191474,
    "timestamp": "2021-05-20T11:55:42Z",
    "version": 4,
    "changeset": 105026908,
    "user": "Softmap",
    "uid": 2685472,
    "tags": {
      "addr:country": "DZ",
      "amenity": "restaurant",
      "name": "Resto",
      "name:fr": "Resto",
      "opening_hours": "Mo-Su 11:30-13:30,19:00-21:00"
    }
  },
  {
    "type": "node",
    "id": 4423528301,
    "lat": 35.3825916,
    "lon": 1.3526646,
    "timestamp": "2020-12-30T19:19:38Z",
    "version": 3,
    "changeset": 96687154,
    "user": "Vejoson",
    "uid": 11422772,
    "tags": {
      "addr:country": "DZ",
      "amenity": "restaurant",
      "name": "Resto",
      "name:fr": "Resto"
    }
  },
  {
    "type": "node",
    "id": 4423528893,
    "lat": 35.3782707,
    "lon": 1.3473346,
    "timestamp": "2021-09-03T21:27:36Z",
    "version": 4,
    "changeset": 110696289,
    "user": "Softmap",
    "uid": 2685472,
    "tags": {
      "addr:country": "DZ",
      "amenity": "restaurant",
      "name": "Resto",
      "name:fr": "Resto"
    }
  },
  {
    "type": "node",
    "id": 4537604492,
    "lat": 35.1884437,
    "lon": 1.4895526,
    "timestamp": "2020-12-30T19:19:38Z",
    "version": 3,
    "changeset": 96687154,
    "user": "Vejoson",
    "uid": 11422772,
    "tags": {
      "addr:country": "DZ",
      "amenity": "restaurant",
      "name": "Resto",
      "name:fr": "Resto"
    }
  },
  {
    "type": "node",
    "id": 4994827723,
    "lat": 35.3523246,
    "lon": 1.3242765,
    "timestamp": "2020-12-30T19:19:38Z",
    "version": 5,
    "changeset": 96687154,
    "user": "Vejoson",
    "uid": 11422772,
    "tags": {
      "addr:country": "DZ",
      "amenity": "restaurant",
      "name": "فتافيت الشان",
      "name:ar": "فتافيت الشان",
      "name:fr": "Fatafeat Al Sham"
    }
  },
  {
    "type": "node",
    "id": 6332943785,
    "lat": 35.3571109,
    "lon": 1.3169884,
    "timestamp": "2019-03-12T11:12:35Z",
    "version": 1,
    "changeset": 68057974,
    "user": "Mimo hamidi",
    "uid": 9520461,
    "tags": {
      "amenity": "restaurant",
      "name": "Jacos"
    }
  },
  {
    "type": "node",
    "id": 7276528586,
    "lat": 35.3734294,
    "lon": 1.3230161,
    "timestamp": "2020-12-30T19:19:38Z",
    "version": 4,
    "changeset": 96687154,
    "user": "Vejoson",
    "uid": 11422772,
    "tags": {
      "addr:city": "تيارت",
      "addr:city:ar": "تيارت",
      "amenity": "restaurant",
      "name": "جينوز",
      "name:ar": "جينوز",
      "name:en": "Gino's",
      "name:fr": "Gino's"
    }
  },
  {
    "type": "node",
    "id": 7410874708,
    "lat": 35.3718053,
    "lon": 1.3226531,
    "timestamp": "2020-04-16T12:34:47Z",
    "version": 1,
    "changeset": 83649284,
    "user": "Abdou741",
    "uid": 677684,
    "tags": {
      "addr:city": "Tiaret",
      "addr:postcode": "14000",
      "addr:street": "Rue Saimi Djillali",
      "amenity": "restaurant",
      "cuisine": "pizza",
      "name": "Pizeria Yazid Naak",
      "opening_hours": "Mo-Su 10:00-22:00",
      "phone": "+213 549 86 30 02"
    }
  },
  {
    "type": "node",
    "id": 7622488285,
    "lat": 35.4582583,
    "lon": 0.6885223,
    "timestamp": "2020-12-30T19:19:38Z",
    "version": 3,
    "changeset": 96687154,
    "user": "Vejoson",
    "uid": 11422772,
    "tags": {
      "amenity": "restaurant",
      "name": "مطعم",
      "name:ar": "مطعم",
      "name:fr": "Resto"
    }
  },
  {
    "type": "node",
    "id": 7650442185,
    "lat": 35.4597519,
    "lon": 0.6912033,
    "timestamp": "2020-12-30T19:19:38Z",
    "version": 3,
    "changeset": 96687154,
    "user": "Vejoson",
    "uid": 11422772,
    "tags": {
      "amenity": "restaurant",
      "name": "مطعم",
      "name:ar": "مطعم",
      "name:fr": "Resto"
    }
  },
  {
    "type": "node",
    "id": 8158163417,
    "lat": 35.3695248,
    "lon": 1.3315494,
    "timestamp": "2020-11-24T12:56:55Z",
    "version": 1,
    "changeset": 94707955,
    "user": "Hicham Hablal",
    "uid": 7937613,
    "tags": {
      "amenity": "restaurant",
      "name": "Valentino",
      "name:en": "Tacos"
    }
  },
  {
    "type": "node",
    "id": 8481287817,
    "lat": 35.0573308,
    "lon": 1.0542854,
    "timestamp": "2021-03-03T00:54:15Z",
    "version": 1,
    "changeset": 100309396,
    "user": "Algerino885",
    "uid": 7435425,
    "tags": {
      "amenity": "restaurant",
      "cuisine": "african;american;arab;chicken;coffee_shop;fine_dining;oriental",
      "name": "FRENDA FOOD"
    }
  },
  {
    "type": "node",
    "id": 9106251052,
    "lat": 34.8931816,
    "lon": 1.245463,
    "timestamp": "2021-09-19T21:43:55Z",
    "version": 1,
    "changeset": 111425234,
    "user": "Softmap",
    "uid": 2685472,
    "tags": {
      "amenity": "restaurant"
    }
  },
  {
    "type": "node",
    "id": 9126581217,
    "lat": 35.3698917,
    "lon": 1.3217419,
    "timestamp": "2021-09-27T12:28:35Z",
    "version": 1,
    "changeset": 111766939,
    "user": "Imad Boumendil",
    "uid": 8533097,
    "tags": {
      "addr:postcode": "14000",
      "amenity": "restaurant",
      "name:en": "Celtics Food"
    }
  },
  {
    "type": "node",
    "id": 12015259469,
    "lat": 35.3606786,
    "lon": 1.322693,
    "timestamp": "2024-06-27T16:31:51Z",
    "version": 2,
    "changeset": 153255771,
    "user": "Abdellah zin labidine",
    "uid": 21700168,
    "tags": {
      "amenity": "restaurant",
      "cuisine": "arab;burger;cake;chicken;kebab;noodles;pizza",
      "internet_access": "wlan",
      "name": "Havana Food",
      "opening_hours": "Mo-Su 10:00-23:00",
      "phone": "0776891901"
    }
  },
  {
    "type": "node",
    "id": 12405219679,
    "lat": 35.3701289,
    "lon": 1.3221332,
    "timestamp": "2024-12-08T17:34:28Z",
    "version": 1,
    "changeset": 160064913,
    "user": "Softmap",
    "uid": 2685472,
    "tags": {
      "amenity": "restaurant",
      "name": "Celtics - مطعم سلتيكس",
      "phone": "0558152775"
    }
  },
  {
    "type": "node",
    "id": 12405219680,
    "lat": 35.3689719,
    "lon": 1.3224873,
    "timestamp": "2024-12-08T17:34:28Z",
    "version": 1,
    "changeset": 160064913,
    "user": "Softmap",
    "uid": 2685472,
    "tags": {
      "amenity": "restaurant",
      "name": "GR Space - La Familia"
    }
  },
  {
    "type": "way",
    "id": 376316196,
    "timestamp": "2021-09-11T13:26:00Z",
    "version": 4,
    "changeset": 111062219,
    "user": "Softmap",
    "uid": 2685472,
    "center": {
      "lat": 35.3332581,
      "lon": 1.3010385
    },
    "nodes": [
      3797581472,
      3797581514,
      3797581456,
      3797581505,
      3797581503,
      3797580945,
      3797581363,
      3797581419,
      3797581447,
      3797581475,
      3797581380,
      3797581411,
      3797581509,
      3797581406,
      3797581368,
      3797581370,
      3797581403,
      3797581400,
      3797581498,
      3797581401,
      3797581472
    ],
    "tags": {
      "addr:country": "DZ",
      "amenity": "restaurant",
      "building": "university",
      "building:levels": "1",
      "name": "مطعم الكلية",
      "name:ar": "مطعم الكلية",
      "name:fr": "Resto U"
    }
  },
  {
    "type": "way",
    "id": 530499079,
    "timestamp": "2020-12-30T19:19:38Z",
    "version": 5,
    "changeset": 96687154,
    "user": "Vejoson",
    "uid": 11422772,
    "center": {
      "lat": 34.9034134,
      "lon": 1.2361129
    },
    "nodes": [
      5151353178,
      5151353175,
      5151353176,
      5151353177,
      5151353178
    ],
    "tags": {
      "amenity": "restaurant",
      "building": "yes",
      "name": "مطعم ومقهى",
      "name:ar": "مطعم ومقهى",
      "name:fr": "café restaurant",
      "opening_hours": "Mo-Su 05:00-21:00"
    }
  }
]