[
  {
    "type": "node",
    "id": 3210610561,
    "lat": 35.9514656,
    "lon": 0.1002999,
    "timestamp": "2020-12-30T19:19:38Z",
    "version": 3,
    "changeset": 96687154,
    "user": "Vejoson",
    "uid": 11422772,
    "tags": {
      "addr:country": "DZ",
      "amenity": "restaurant",
      "name": "Resto",
      "name:fr": "Resto"
    }
  },
  {
    "type": "node",
    "id": 3210610562,
    "lat": 35.9516487,
    "lon": 0.1004403,
    "timestamp": "2020-12-30T19:19:38Z",
    "version": 3,
    "changeset": 96687154,
    "user": "Vejoson",
    "uid": 11422772,
    "tags": {
      "addr:country": "DZ",
      "amenity": "restaurant",
      "name": "Resto",
      "name:fr": "Resto"
    }
  },
  {
    "type": "node",
    "id": 3210610563,
    "lat": 35.9513536,
    "lon": 0.1005027,
    "timestamp": "2020-12-30T19:19:38Z",
    "version": 3,
    "changeset": 96687154,
    "user": "Vejoson",
    "uid": 11422772,
    "tags": {
      "addr:country": "DZ",
      "amenity": "restaurant",
      "name": "Resto",
      "name:fr": "Resto"
    }
  },
  {
    "type": "node",
    "id": 3595242695,
    "lat": 35.9377334,
    "lon": 0.0818203,
    "timestamp": "2018-06-13T17:53:42Z",
    "version": 2,
    "changeset": 59818370,
    "user": "ButterflyOfFire_",
    "uid": 2842609,
    "tags": {
      "addr:country": "DZ",
      "amenity": "restaurant",
      "capacity": "20",
      "cuisine": "fish",
      "delivery": "no",
      "name": "La pêcherie",
      "takeaway": "no"
    }
  },
  {
    "type": "node",
    "id": 3788637361,
    "lat": 35.7513901,
    "lon": 0.255209,
    "timestamp": "2023-09-26T10:25:09Z",
    "version": 4,
    "changeset": 141767437,
    "user": "yamada-as",
    "uid": 346585,
    "tags": {
      "addr:country": "DZ",
      "amenity": "restaurant"
    }
  },
  {
    "type": "node",
    "id": 3788638314,
    "lat": 35.7837042,
    "lon": 0.1821972,
    "timestamp": "2018-06-13T17:53:51Z",
    "version": 4,
    "changeset": 59818370,
    "user": "ButterflyOfFire_",
    "uid": 2842609,
    "tags": {
      "addr:country": "DZ",
      "amenity": "restaurant",
      "name": "Restaurant familial"
    }
  },
  {
    "type": "node",
    "id": 3788638326,
    "lat": 35.7490729,
    "lon": 0.2647199,
    "timestamp": "2020-12-30T19:19:38Z",
    "version": 3,
    "changeset": 96687154,
    "user": "Vejoson",
    "uid": 11422772,
    "tags": {
      "addr:country": "DZ",
      "amenity": "restaurant",
      "name": "Resto",
      "name:fr": "Resto"
    }
  },
  {
    "type": "node",
    "id": 4053295793,
    "lat": 35.9270141,
    "lon": 0.0867869,
    "timestamp": "2019-11-10T22:58:30Z",
    "version": 4,
    "changeset": 76881550,
    "user": "MustafaQasim",
    "uid": 9535554,
    "tags": {
      "addr:city": "مستغانم",
      "addr:housenumber": "1",
      "amenity": "restaurant",
      "smoking": "separated"
    }
  },
  {
    "type": "node",
    "id": 4130376189,
    "lat": 35.7451576,
    "lon": 0.5566572,
    "timestamp": "2020-12-30T19:19:38Z",
    "version": 4,
    "changeset": 96687154,
    "user": "Vejoson",
    "uid": 11422772,
    "tags": {
      "addr:city": "غليزان",
      "amenity": "restaurant",
      "name": "Resto",
      "name:fr": "Resto"
    }
  },
  {
    "type": "node",
    "id": 4263098391,
    "lat": 35.805056,
    "lon": -0.2693265,
    "timestamp": "2020-12-30T19:19:38Z",
    "version": 3,
    "changeset": 96687154,
    "user": "Vejoson",
    "uid": 11422772,
    "tags": {
      "addr:country": "DZ",
      "amenity": "restaurant",
      "name": "Resto",
      "name:fr": "Resto"
    }
  },
  {
    "type": "node",
    "id": 4263118890,
    "lat": 35.8048847,
    "lon": -0.2686382,
    "timestamp": "2020-12-30T19:19:38Z",
    "version": 3,
    "changeset": 96687154,
    "user": "Vejoson",
    "uid": 11422772,
    "tags": {
      "addr:country": "DZ",
      "amenity": "restaurant",
      "name": "Resto",
      "name:fr": "Resto"
    }
  },
  {
    "type": "node",
    "id": 4321887943,
    "lat": 35.879317,
    "lon": -0.3018264,
    "timestamp": "2021-01-29T15:10:38Z",
    "version": 5,
    "changeset": 98373050,
    "user": "Mus Ben",
    "uid": 7240567,
    "tags": {
      "addr:city": "Arzew",
      "addr:country": "DZ",
      "addr:street": "80, fontaine des Gazelles",
      "amenity": "restaurant",
      "cuisine": "fish",
      "name": "Les Gazelles"
    }
  },
  {
    "type": "node",
    "id": 4377182489,
    "lat": 35.7521815,
    "lon": 0.2518818,
    "timestamp": "2020-12-30T19:19:38Z",
    "version": 3,
    "changeset": 96687154,
    "user": "Vejoson",
    "uid": 11422772,
    "tags": {
      "addr:country": "DZ",
      "amenity": "restaurant",
      "name": "Resto",
      "name:fr": "Resto"
    }
  },
  {
    "type": "node",
    "id": 4427603054,
    "lat": 35.914086,
    "lon": 0.0562999,
    "timestamp": "2018-06-13T17:54:23Z",
    "version": 2,
    "changeset": 59818370,
    "user": "ButterflyOfFire_",
    "uid": 2842609,
    "tags": {
      "addr:city": "Mostaganem",
      "addr:country": "DZ",
      "addr:postcode": "27000",
      "amenity": "restaurant",
      "cuisine": "pizza",
      "name": "Pizza 447"
    }
  },
  {
    "type": "node",
    "id": 4439520198,
    "lat": 36.0954008,
    "lon": 0.3264935,
    "timestamp": "2020-12-30T19:19:38Z",
    "version": 5,
    "changeset": 96687154,
    "user": "Vejoson",
    "uid": 11422772,
    "tags": {
      "addr:city": "حجاج",
      "addr:city:ar": "حجاج",
      "amenity": "restaurant",
      "name": "Resto",
      "name:fr": "Resto"
    }
  },
  {
    "type": "node",
    "id": 4439522398,
    "lat": 36.0956295,
    "lon": 0.3234499,
    "timestamp": "2020-12-30T19:19:38Z",
    "version": 5,
    "changeset": 96687154,
    "user": "Vejoson",
    "uid": 11422772,
    "tags": {
      "addr:city": "حجاج",
      "addr:city:ar": "حجاج",
      "amenity": "restaurant",
      "name": "Resto",
      "name:fr": "Resto"
    }
  },
  {
    "type": "node",
    "id": 4439522598,
    "lat": 36.09496,
    "lon": 0.3255703,
    "timestamp": "2020-12-30T19:19:38Z",
    "version": 5,
    "changeset": 96687154,
    "user": "Vejoson",
    "uid": 11422772,
    "tags": {
      "addr:city": "حجاج",
      "addr:city:ar": "حجاج",
      "amenity": "restaurant",
      "name": "Resto",
      "name:fr": "Resto"
    }
  },
  {
    "type": "node",
    "id": 4475663860,
    "lat": 36.1647408,
    "lon": 0.4413043,
    "timestamp": "2020-12-30T19:19:38Z",
    "version": 3,
    "changeset": 96687154,
    "user": "Vejoson",
    "uid": 11422772,
    "tags": {
      "addr:country": "DZ",
      "amenity": "restaurant",
      "name": "Resto",
      "name:fr": "Resto"
    }
  },
  {
    "type": "node",
    "id": 4518508690,
    "lat": 35.8067847,
    "lon": -0.270787,
    "timestamp": "2020-12-30T19:19:38Z",
    "version": 3,
    "changeset": 96687154,
    "user": "Vejoson",
    "uid": 11422772,
    "tags": {
      "addr:country": "DZ",
      "amenity": "restaurant",
      "name": "Resto",
      "name:fr": "Resto"
    }
  },
  {
    "type": "node",
    "id": 4528070891,
    "lat": 35.7444246,
    "lon": 0.5585618,
    "timestamp": "2020-12-30T19:19:38Z",
    "version": 6,
    "changeset": 96687154,
    "user": "Vejoson",
    "uid": 11422772,
    "tags": {
      "addr:city": "غليزان",
      "amenity": "restaurant",
      "name": "Resto",
      "name:fr": "Resto",
      "shop": "confectionery"
    }
  },
  {
    "type": "node",
    "id": 4541506791,
    "lat": 35.7049567,
    "lon": 0.5756204,
    "timestamp": "2018-06-13T17:54:31Z",
    "version": 3,
    "changeset": 59818370,
    "user": "ButterflyOfFire_",
    "uid": 2842609,
    "tags": {
      "addr:country": "DZ",
      "amenity": "restaurant",
      "name": "Millénium",
      "name:fr": "Millénium"
    }
  },
  {
    "type": "node",
    "id": 4550822790,
    "lat": 35.7449746,
    "lon": 0.5575375,
    "timestamp": "2020-12-30T19:19:38Z",
    "version": 5,
    "changeset": 96687154,
    "user": "Vejoson",
    "uid": 11422772,
    "tags": {
      "addr:city": "غليزان",
      "amenity": "restaurant",
      "name": "Resto",
      "name:fr": "Resto"
    }
  },
  {
    "type": "node",
    "id": 4550826496,
    "lat": 35.7449192,
    "lon": 0.5572716,
    "timestamp": "2020-12-30T19:19:38Z",
    "version": 4,
    "changeset": 96687154,
    "user": "Vejoson",
    "uid": 11422772,
    "tags": {
      "addr:city": "غليزان",
      "amenity": "restaurant",
      "name": "Resto",
      "name:fr": "Resto"
    }
  },
  {
    "type": "node",
    "id": 4579180729,
    "lat": 35.9991365,
    "lon": 0.2928138,
    "timestamp": "2020-12-30T19:19:38Z",
    "version": 3,
    "changeset": 96687154,
    "user": "Vejoson",
    "uid": 11422772,
    "tags": {
      "addr:country": "DZ",
      "amenity": "restaurant",
      "name": "Resto",
      "name:fr": "Resto"
    }
  },
  {
    "type": "node",
    "id": 4579539095,
    "lat": 35.9953845,
    "lon": 0.2948757,
    "timestamp": "2020-12-30T19:19:38Z",
    "version": 3,
    "changeset": 96687154,
    "user": "Vejoson",
    "uid": 11422772,
    "tags": {
      "addr:country": "DZ",
      "amenity": "restaurant",
      "name": "Resto",
      "name:fr": "Resto"
    }
  },
  {
    "type": "node",
    "id": 4579602793,
    "lat": 35.998008,
    "lon": 0.2939939,
    "timestamp": "2020-12-30T19:19:38Z",
    "version": 3,
    "changeset": 96687154,
    "user": "Vejoson",
    "uid": 11422772,
    "tags": {
      "addr:country": "DZ",
      "amenity": "restaurant",
      "name": "Resto",
      "name:fr": "Resto"
    }
  },
  {
    "type": "node",
    "id": 4579621289,
    "lat": 35.9993128,
    "lon": 0.2934232,
    "timestamp": "2020-12-30T19:19:38Z",
    "version": 3,
    "changeset": 96687154,
    "user": "Vejoson",
    "uid": 11422772,
    "tags": {
      "addr:country": "DZ",
      "amenity": "restaurant",
      "name": "Resto",
      "name:fr": "Resto"
    }
  },
  {
    "type": "node",
    "id": 4594137789,
    "lat": 35.7218842,
    "lon": 0.5188126,
    "timestamp": "2018-06-13T17:54:37Z",
    "version": 4,
    "changeset": 59818370,
    "user": "ButterflyOfFire_",
    "uid": 2842609,
    "tags": {
      "addr:country": "DZ",
      "amenity": "restaurant",
      "name": "Le Paradis",
      "name:fr": "Le Paradis"
    }
  },
  {
    "type": "node",
    "id": 4622328691,
    "lat": 35.9232251,
    "lon": 0.1014255,
    "timestamp": "2020-12-30T19:19:38Z",
    "version": 5,
    "changeset": 96687154,
    "user": "Vejoson",
    "uid": 11422772,
    "tags": {
      "addr:city": "مستغانم",
      "addr:city:ar": "مستغانم",
      "amenity": "restaurant",
      "name": "Resto",
      "name:fr": "Resto"
    }
  },
  {
    "type": "node",
    "id": 4622544489,
    "lat": 35.9292586,
    "lon": 0.0877121,
    "timestamp": "2025-03-08T08:23:54Z",
    "version": 5,
    "changeset": 163353630,
    "user": "Mateusz Konieczny",
    "uid": 1722488,
    "tags": {
      "addr:country": "DZ",
      "amenity": "restaurant",
      "name": "Pizzeria Harrud",
      "name:fr": "Pizzeria Harrud"
    }
  },
  {
    "type": "node",
    "id": 4709409195,
    "lat": 35.9194104,
    "lon": 0.069863,
    "timestamp": "2019-09-04T21:56:13Z",
    "version": 3,
    "changeset": 74105595,
    "user": "Mus Ben",
    "uid": 7240567,
    "tags": {
      "addr:country": "DZ",
      "amenity": "restaurant",
      "name": "Restaurant Mechoui",
      "name:ar": "مطعم مشوي",
      "name:en": "Restaurant grill",
      "name:fr": "Restaurant grillade"
    }
  },
  {
    "type": "node",
    "id": 4961256521,
    "lat": 35.8821567,
    "lon": -0.3065657,
    "timestamp": "2021-01-29T15:10:38Z",
    "version": 4,
    "changeset": 98373050,
    "user": "Mus Ben",
    "uid": 7240567,
    "tags": {
      "addr:city": "Arzew",
      "addr:country": "DZ",
      "addr:street": "Route de Cap Carbon",
      "amenity": "restaurant",
      "cuisine": "fish_and_chips;pizza;regional;french;coffee_shop",
      "internet_access": "wlan",
      "name": "Restaurant Les Dauphins",
      "name:en": "restaurant les Dauphins"
    }
  },
  {
    "type": "node",
    "id": 4976335521,
    "lat": 35.7312761,
    "lon": 0.5435414,
    "timestamp": "2018-06-13T17:54:53Z",
    "version": 2,
    "changeset": 59818370,
    "user": "ButterflyOfFire_",
    "uid": 2842609,
    "tags": {
      "addr:country": "DZ",
      "amenity": "restaurant",
      "cuisine": "arab;moroccan;oriental",
      "name:fr": "Mina"
    }
  },
  {
    "type": "node",
    "id": 5045379925,
    "lat": 35.7423554,
    "lon": 0.5587376,
    "timestamp": "2020-12-30T19:19:38Z",
    "version": 4,
    "changeset": 96687154,
    "user": "Vejoson",
    "uid": 11422772,
    "tags": {
      "addr:city": "غليزان",
      "addr:city:ar": "غليزان",
      "amenity": "restaurant",
      "name": "Resto",
      "name:fr": "Resto"
    }
  },
  {
    "type": "node",
    "id": 5125987922,
    "lat": 35.744323,
    "lon": 0.5556442,
    "timestamp": "2018-06-13T17:55:00Z",
    "version": 2,
    "changeset": 59818370,
    "user": "ButterflyOfFire_",
    "uid": 2842609,
    "tags": {
      "addr:country": "DZ",
      "amenity": "restaurant",
      "name:fr": "Restaurant placette"
    }
  },
  {
    "type": "node",
    "id": 5125989621,
    "lat": 35.9450558,
    "lon": 0.0876148,
    "timestamp": "2018-06-13T17:55:00Z",
    "version": 2,
    "changeset": 59818370,
    "user": "ButterflyOfFire_",
    "uid": 2842609,
    "tags": {
      "addr:country": "DZ",
      "amenity": "restaurant",
      "name:fr": "Poisson restaurant"
    }
  },
  {
    "type": "node",
    "id": 5327764321,
    "lat": 35.9206038,
    "lon": 0.0703065,
    "timestamp": "2020-12-30T19:19:38Z",
    "version": 3,
    "changeset": 96687154,
    "user": "Vejoson",
    "uid": 11422772,
    "tags": {
      "addr:country": "DZ",
      "amenity": "restaurant",
      "name": "Resto",
      "name:fr": "Resto"
    }
  },
  {
    "type": "node",
    "id": 5454989514,
    "lat": 35.9194273,
    "lon": 0.0614642,
    "timestamp": "2018-06-13T17:55:15Z",
    "version": 2,
    "changeset": 59818370,
    "user": "ButterflyOfFire_",
    "uid": 2842609,
    "tags": {
      "addr:city": "Mostaganem",
      "addr:country": "DZ",
      "addr:postcode": "27000",
      "addr:street": "salamandre",
      "amenity": "restaurant",
      "cuisine": "ice_cream;gelato",
      "delivery": "yes",
      "name": "Eataly",
      "opening_hours": "Tu-Su 12:00-23:30",
      "outdoor_seating": "yes",
      "smoking": "outside",
      "takeaway": "yes"
    }
  },
  {
    "type": "node",
    "id": 5554356723,
    "lat": 35.9156083,
    "lon": 0.0568975,
    "timestamp": "2018-06-13T17:55:18Z",
    "version": 2,
    "changeset": 59818370,
    "user": "ButterflyOfFire_",
    "uid": 2842609,
    "tags": {
      "addr:country": "DZ",
      "amenity": "restaurant",
      "name:fr": "Happy M"
    }
  },
  {
    "type": "node",
    "id": 5563075321,
    "lat": 35.7418473,
    "lon": 0.5480518,
    "timestamp": "2022-02-24T17:02:20Z",
    "version": 5,
    "changeset": 117820206,
    "user": "Jorisbo",
    "uid": 1983103,
    "tags": {
      "addr:city": "Relizane",
      "addr:country": "DZ",
      "addr:postcode": "48000",
      "addr:street": "bou40",
      "amenity": "restaurant",
      "cuisine": "pizza;burger;chicken;kebab;sandwich",
      "name": "King Dom"
    }
  },
  {
    "type": "node",
    "id": 5608662521,
    "lat": 35.9147552,
    "lon": 0.0565721,
    "timestamp": "2018-06-13T17:55:19Z",
    "version": 2,
    "changeset": 59818370,
    "user": "ButterflyOfFire_",
    "uid": 2842609,
    "tags": {
      "addr:country": "DZ",
      "amenity": "restaurant",
      "name:fr": "Tacos family"
    }
  },
  {
    "type": "node",
    "id": 6141046185,
    "lat": 35.9162215,
    "lon": 0.0713063,
    "timestamp": "2018-12-16T20:11:54Z",
    "version": 1,
    "changeset": 65530792,
    "user": "Oussama Amine Meberbeche",
    "uid": 7730934,
    "tags": {
      "addr:street": "Route du Port",
      "amenity": "restaurant",
      "internet_access": "wlan",
      "name:fr": "Trocadero",
      "opening_hours": "Sa-Th 00:00-24:00"
    }
  },
  {
    "type": "node",
    "id": 6954439016,
    "lat": 35.9554064,
    "lon": 0.0984062,
    "timestamp": "2019-11-07T14:25:03Z",
    "version": 1,
    "changeset": 76762053,
    "user": "Azaro sido corleon philip plain",
    "uid": 10097837,
    "tags": {
      "addr:postcode": "27000",
      "addr:street": "التجنب الشمالي لمستغانم",
      "amenity": "restaurant",
      "name": "مطعم الكرام",
      "name:ar": "مطعم الاكرام",
      "name:fr": "Restaurant el ekram"
    }
  },
  {
    "type": "node",
    "id": 7649895404,
    "lat": 35.8564679,
    "lon": -0.3121474,
    "timestamp": "2023-07-20T11:39:41Z",
    "version": 2,
    "changeset": 138760397,
    "user": "Gurusraouta",
    "uid": 18913526,
    "tags": {
      "amenity": "restaurant",
      "cuisine": "arab",
      "name": "Pizzéria",
      "name:fr": "Pizzéria"
    }
  },
  {
    "type": "node",
    "id": 7651766327,
    "lat": 35.8568331,
    "lon": -0.3114045,
    "timestamp": "2021-05-18T17:24:31Z",
    "version": 3,
    "changeset": 104905921,
    "user": "Nassimm",
    "uid": 13358985,
    "tags": {
      "addr:city": "Arzew",
      "addr:postcode": "31200",
      "addr:street": "Rue Didouche Mourad",
      "amenity": "restaurant",
      "cuisine": "pizza;sandwich;kebab",
      "name": "Pizzeria d'Arzew"
    }
  },
  {
    "type": "node",
    "id": 7934689285,
    "lat": 35.7459471,
    "lon": 0.5589652,
    "timestamp": "2020-09-23T13:57:33Z",
    "version": 1,
    "changeset": 91372392,
    "user": "Hicham Hablal",
    "uid": 7937613,
    "tags": {
      "amenity": "restaurant",
      "name": "Jazz pizza",
      "name:en": "Jazz"
    }
  },
  {
    "type": "node",
    "id": 9494990708,
    "lat": 35.9194721,
    "lon": 0.0767405,
    "timestamp": "2025-03-08T08:21:55Z",
    "version": 4,
    "changeset": 163353583,
    "user": "Mateusz Konieczny",
    "uid": 1722488,
    "tags": {
      "addr:city": "mostaganem",
      "addr:housenumber": "72 log",
      "addr:postcode": "27000",
      "addr:street": "route d'Oran",
      "amenity": "restaurant",
      "contact:instagram": "https://www.instagram.com/friendsmosta",
      "cuisine": "pizza;sandwich;burger",
      "diet:vegan": "yes",
      "name": "FRIEND'S",
      "opening_hours": "Mo-Su 10:00-22:00",
      "phone": "+213 771 554856"
    }
  },
  {
    "type": "way",
    "id": 635634765,
    "timestamp": "2018-10-18T13:41:35Z",
    "version": 2,
    "changeset": 63645621,
    "user": "idenet Géolocalisation",
    "uid": 1369858,
    "center": {
      "lat": 35.7727562,
      "lon": -0.2651325
    },
    "nodes": [
      5995425577,
      5995425578,
      5995425579,
      5995425580,
      5995425581,
      5995425582,
      5995425583,
      5995425584,
      5995428885,
      5995428886,
      5995428887,
      5995428888,
      5995425577
    ],
    "tags": {
      "amenity": "restaurant",
      "building": "yes",
      "name": "cuisine"
    }
  },
  {
    "type": "way",
    "id": 1220291487,
    "timestamp": "2023-11-02T14:20:25Z",
    "version": 1,
    "changeset": 143534276,
    "user": "bachounda",
    "uid": 427809,
    "center": {
      "lat": 36.1122716,
      "lon": 0.2352261
    },
    "nodes": [
      11307629635,
      11307629636,
      11307629637,
      11307629638,
      11307629635
    ],
    "tags": {
      "amenity": "restaurant",
      "building": "yes"
    }
  }
]