[
  {
    "type": "node",
    "id": 1733905565,
    "lat": 36.4730648,
    "lon": 2.8247058,
    "timestamp": "2018-06-13T17:52:51Z",
    "version": 3,
    "changeset": 59818370,
    "user": "ButterflyOfFire_",
    "uid": 2842609,
    "tags": {
      "addr:country": "DZ",
      "amenity": "restaurant",
      "cuisine": "chicken",
      "name": "Cheraga Family Chicken"
    }
  },
  {
    "type": "node",
    "id": 1964692364,
    "lat": 36.4758529,
    "lon": 2.8300766,
    "timestamp": "2018-06-13T17:52:52Z",
    "version": 5,
    "changeset": 59818370,
    "user": "ButterflyOfFire_",
    "uid": 2842609,
    "tags": {
      "addr:city": "Blida",
      "addr:country": "DZ",
      "addr:postcode": "09000",
      "amenity": "restaurant",
      "cuisine": "turkish",
      "name": "Restaurant Casbah"
    }
  },
  {
    "type": "node",
    "id": 2121828025,
    "lat": 36.4732549,
    "lon": 2.8232297,
    "timestamp": "2022-01-25T16:54:22Z",
    "version": 5,
    "changeset": 116593183,
    "user": "Yamílo",
    "uid": 11332999,
    "tags": {
      "addr:city": "البليدة",
      "addr:city:ar": "البليدة",
      "addr:city:es": "Blida",
      "amenity": "restaurant"
    }
  },
  {
    "type": "node",
    "id": 2406698407,
    "lat": 36.2576831,
    "lon": 2.7579099,
    "timestamp": "2018-06-13T17:52:55Z",
    "version": 3,
    "changeset": 59818370,
    "user": "ButterflyOfFire_",
    "uid": 2842609,
    "tags": {
      "addr:country": "DZ",
      "amenity": "restaurant",
      "cuisine": "international",
      "name": "Mallorca",
      "phone": "+21325599200",
      "website": "https://www.facebook.com/MallorcaGouterLaDifferenceMedea?fref=ts"
    }
  },
  {
    "type": "node",
    "id": 2428694914,
    "lat": 36.4310288,
    "lon": 2.8850854,
    "timestamp": "2018-06-13T17:52:56Z",
    "version": 4,
    "changeset": 59818370,
    "user": "ButterflyOfFire_",
    "uid": 2842609,
    "tags": {
      "addr:country": "DZ",
      "amenity": "restaurant",
      "cuisine": "regional",
      "name": "Restaurant Familial",
      "name:ar": "مطعم عائلي",
      "outdoor_seating": "yes",
      "smoking": "outside",
      "stars": "3",
      "takeaway": "yes",
      "wheelchair": "limited"
    }
  },
  {
    "type": "node",
    "id": 2880508880,
    "lat": 36.4819474,
    "lon": 2.8366463,
    "timestamp": "2020-12-30T19:19:38Z",
    "version": 3,
    "changeset": 96687154,
    "user": "Vejoson",
    "uid": 11422772,
    "tags": {
      "addr:city": "Blida",
      "addr:country": "DZ",
      "amenity": "restaurant",
      "name": "Resto",
      "name:fr": "Resto"
    }
  },
  {
    "type": "node",
    "id": 3000083619,
    "lat": 36.5139869,
    "lon": 2.8458657,
    "timestamp": "2020-12-30T19:19:38Z",
    "version": 3,
    "changeset": 96687154,
    "user": "Vejoson",
    "uid": 11422772,
    "tags": {
      "addr:country": "DZ",
      "amenity": "restaurant",
      "name": "Resto",
      "name:fr": "Resto"
    }
  },
  {
    "type": "node",
    "id": 3084505919,
    "lat": 36.484076,
    "lon": 2.829665,
    "timestamp": "2018-06-13T17:53:19Z",
    "version": 6,
    "changeset": 59818370,
    "user": "ButterflyOfFire_",
    "uid": 2842609,
    "tags": {
      "addr:country": "DZ",
      "amenity": "restaurant",
      "name": "La Casbah"
    }
  },
  {
    "type": "node",
    "id": 3090387015,
    "lat": 36.4627957,
    "lon": 2.7389107,
    "timestamp": "2020-12-30T19:19:38Z",
    "version": 4,
    "changeset": 96687154,
    "user": "Vejoson",
    "uid": 11422772,
    "tags": {
      "addr:country": "DZ",
      "amenity": "restaurant",
      "name": "Resto",
      "name:fr": "Resto"
    }
  },
  {
    "type": "node",
    "id": 3090387016,
    "lat": 36.462497,
    "lon": 2.7422022,
    "timestamp": "2018-06-13T17:53:19Z",
    "version": 2,
    "changeset": 59818370,
    "user": "ButterflyOfFire_",
    "uid": 2842609,
    "tags": {
      "addr:country": "DZ",
      "amenity": "restaurant",
      "name": "Poulets"
    }
  },
  {
    "type": "node",
    "id": 3090387017,
    "lat": 36.4624895,
    "lon": 2.7423727,
    "timestamp": "2018-06-13T17:53:19Z",
    "version": 2,
    "changeset": 59818370,
    "user": "ButterflyOfFire_",
    "uid": 2842609,
    "tags": {
      "addr:country": "DZ",
      "amenity": "restaurant",
      "name": "Poulets"
    }
  },
  {
    "type": "node",
    "id": 3090387018,
    "lat": 36.462482,
    "lon": 2.7425245,
    "timestamp": "2018-06-13T17:53:19Z",
    "version": 3,
    "changeset": 59818370,
    "user": "ButterflyOfFire_",
    "uid": 2842609,
    "tags": {
      "addr:country": "DZ",
      "amenity": "restaurant",
      "cuisine": "chicken",
      "name": "Poulets"
    }
  },
  {
    "type": "node",
    "id": 3130420688,
    "lat": 36.4962613,
    "lon": 2.8530904,
    "timestamp": "2018-06-13T17:53:21Z",
    "version": 2,
    "changeset": 59818370,
    "user": "ButterflyOfFire_",
    "uid": 2842609,
    "tags": {
      "addr:country": "DZ",
      "amenity": "restaurant",
      "name": "Chez Guerguite"
    }
  },
  {
    "type": "node",
    "id": 3225706072,
    "lat": 36.4853794,
    "lon": 2.8376315,
    "timestamp": "2020-12-30T19:19:38Z",
    "version": 3,
    "changeset": 96687154,
    "user": "Vejoson",
    "uid": 11422772,
    "tags": {
      "addr:country": "DZ",
      "amenity": "restaurant",
      "name": "Resto",
      "name:fr": "Resto"
    }
  },
  {
    "type": "node",
    "id": 3290832866,
    "lat": 36.372344,
    "lon": 2.7716767,
    "timestamp": "2020-12-30T19:19:38Z",
    "version": 3,
    "changeset": 96687154,
    "user": "Vejoson",
    "uid": 11422772,
    "tags": {
      "addr:country": "DZ",
      "amenity": "restaurant",
      "name": "Resto",
      "name:fr": "Resto"
    }
  },
  {
    "type": "node",
    "id": 3290832871,
    "lat": 36.3622944,
    "lon": 2.766457,
    "timestamp": "2020-12-30T19:19:38Z",
    "version": 3,
    "changeset": 96687154,
    "user": "Vejoson",
    "uid": 11422772,
    "tags": {
      "addr:country": "DZ",
      "amenity": "restaurant",
      "name": "Resto",
      "name:fr": "Resto"
    }
  },
  {
    "type": "node",
    "id": 3290833046,
    "lat": 36.4324952,
    "lon": 2.752488,
    "timestamp": "2020-12-30T19:19:38Z",
    "version": 3,
    "changeset": 96687154,
    "user": "Vejoson",
    "uid": 11422772,
    "tags": {
      "addr:country": "DZ",
      "amenity": "restaurant",
      "name": "Resto",
      "name:fr": "Resto"
    }
  },
  {
    "type": "node",
    "id": 3290833050,
    "lat": 36.4306401,
    "lon": 2.7520638,
    "timestamp": "2020-12-30T19:19:38Z",
    "version": 3,
    "changeset": 96687154,
    "user": "Vejoson",
    "uid": 11422772,
    "tags": {
      "addr:country": "DZ",
      "amenity": "restaurant",
      "name": "Resto",
      "name:fr": "Resto"
    }
  },
  {
    "type": "node",
    "id": 3290965095,
    "lat": 36.1371223,
    "lon": 2.9136358,
    "timestamp": "2018-06-13T17:53:33Z",
    "version": 3,
    "changeset": 59818370,
    "user": "ButterflyOfFire_",
    "uid": 2842609,
    "tags": {
      "addr:country": "DZ",
      "amenity": "restaurant",
      "name": "Andalous Berrouaghia"
    }
  },
  {
    "type": "node",
    "id": 3352134069,
    "lat": 36.2700479,
    "lon": 2.7621334,
    "timestamp": "2018-06-13T17:53:34Z",
    "version": 2,
    "changeset": 59818370,
    "user": "ButterflyOfFire_",
    "uid": 2842609,
    "tags": {
      "addr:country": "DZ",
      "amenity": "restaurant",
      "name": "seddouki mahjoub"
    }
  },
  {
    "type": "node",
    "id": 3354076278,
    "lat": 36.2713821,
    "lon": 2.7632975,
    "timestamp": "2018-06-13T17:53:34Z",
    "version": 4,
    "changeset": 59818370,
    "user": "ButterflyOfFire_",
    "uid": 2842609,
    "tags": {
      "addr:country": "DZ",
      "amenity": "restaurant",
      "name": "Benwaklil"
    }
  },
  {
    "type": "node",
    "id": 3354164285,
    "lat": 36.2660222,
    "lon": 2.7525159,
    "timestamp": "2018-06-13T17:53:34Z",
    "version": 3,
    "changeset": 59818370,
    "user": "ButterflyOfFire_",
    "uid": 2842609,
    "tags": {
      "addr:country": "DZ",
      "amenity": "restaurant",
      "name": "aussama safar"
    }
  },
  {
    "type": "node",
    "id": 3354184870,
    "lat": 36.2648761,
    "lon": 2.7523843,
    "timestamp": "2020-12-30T19:19:38Z",
    "version": 5,
    "changeset": 96687154,
    "user": "Vejoson",
    "uid": 11422772,
    "tags": {
      "addr:country": "DZ",
      "amenity": "restaurant",
      "name": "Resto",
      "name:fr": "Resto"
    }
  },
  {
    "type": "node",
    "id": 3355556265,
    "lat": 36.2732465,
    "lon": 2.7691387,
    "timestamp": "2020-12-30T19:19:38Z",
    "version": 3,
    "changeset": 96687154,
    "user": "Vejoson",
    "uid": 11422772,
    "tags": {
      "addr:country": "DZ",
      "amenity": "restaurant",
      "name": "Resto",
      "name:fr": "Resto"
    }
  },
  {
    "type": "node",
    "id": 3359189233,
    "lat": 36.2755986,
    "lon": 2.7613127,
    "timestamp": "2018-06-13T17:53:34Z",
    "version": 5,
    "changeset": 59818370,
    "user": "ButterflyOfFire_",
    "uid": 2842609,
    "tags": {
      "addr:country": "DZ",
      "amenity": "restaurant",
      "cuisine": "syrian",
      "name": "Restaurant syrien",
      "name:en": "Syrian restaurant"
    }
  },
  {
    "type": "node",
    "id": 3359436773,
    "lat": 36.267292,
    "lon": 2.7641147,
    "timestamp": "2018-06-13T17:53:35Z",
    "version": 3,
    "changeset": 59818370,
    "user": "ButterflyOfFire_",
    "uid": 2842609,
    "tags": {
      "addr:country": "DZ",
      "amenity": "restaurant",
      "name": "Baraka"
    }
  },
  {
    "type": "node",
    "id": 3635866702,
    "lat": 36.4902807,
    "lon": 2.8595,
    "timestamp": "2018-06-13T17:53:43Z",
    "version": 3,
    "changeset": 59818370,
    "user": "ButterflyOfFire_",
    "uid": 2842609,
    "tags": {
      "addr:country": "DZ",
      "amenity": "restaurant",
      "cuisine": "pizza",
      "name": "Pizzeria"
    }
  },
  {
    "type": "node",
    "id": 3692181752,
    "lat": 36.4929436,
    "lon": 2.8524849,
    "timestamp": "2018-06-13T17:53:45Z",
    "version": 4,
    "changeset": 59818370,
    "user": "ButterflyOfFire_",
    "uid": 2842609,
    "tags": {
      "addr:city": "Ouled Yaïch",
      "addr:country": "DZ",
      "amenity": "restaurant",
      "cuisine": "pizza",
      "name": "Pizzeria Abdelhak"
    }
  },
  {
    "type": "node",
    "id": 3692239010,
    "lat": 36.4929484,
    "lon": 2.8574553,
    "timestamp": "2018-06-13T17:53:45Z",
    "version": 3,
    "changeset": 59818370,
    "user": "ButterflyOfFire_",
    "uid": 2842609,
    "tags": {
      "addr:city": "Ouled Yaïch",
      "addr:country": "DZ",
      "amenity": "restaurant",
      "cuisine": "pizza",
      "name": "Pizzeria Mc Koubia"
    }
  },
  {
    "type": "node",
    "id": 3692239011,
    "lat": 36.4931187,
    "lon": 2.8570999,
    "timestamp": "2018-06-13T17:53:45Z",
    "version": 4,
    "changeset": 59818370,
    "user": "ButterflyOfFire_",
    "uid": 2842609,
    "tags": {
      "addr:country": "DZ",
      "amenity": "restaurant",
      "cuisine": "pizza",
      "name": "Pizzeria"
    }
  },
  {
    "type": "node",
    "id": 3704413276,
    "lat": 36.4896473,
    "lon": 2.8426886,
    "timestamp": "2020-12-30T19:19:38Z",
    "version": 5,
    "changeset": 96687154,
    "user": "Vejoson",
    "uid": 11422772,
    "tags": {
      "addr:country": "DZ",
      "amenity": "restaurant",
      "name": "Resto",
      "name:fr": "Resto"
    }
  },
  {
    "type": "node",
    "id": 3743650831,
    "lat": 36.5533872,
    "lon": 3.5918494,
    "timestamp": "2018-06-13T17:53:49Z",
    "version": 3,
    "changeset": 59818370,
    "user": "ButterflyOfFire_",
    "uid": 2842609,
    "tags": {
      "addr:country": "DZ",
      "amenity": "restaurant",
      "name": "restaurant familial"
    }
  },
  {
    "type": "node",
    "id": 3795551505,
    "lat": 36.4831591,
    "lon": 2.808726,
    "timestamp": "2018-06-13T17:53:51Z",
    "version": 2,
    "changeset": 59818370,
    "user": "ButterflyOfFire_",
    "uid": 2842609,
    "tags": {
      "addr:country": "DZ",
      "amenity": "restaurant",
      "name": "khaima casablanca"
    }
  },
  {
    "type": "node",
    "id": 3795551506,
    "lat": 36.4840526,
    "lon": 2.8082453,
    "timestamp": "2018-06-13T17:53:51Z",
    "version": 3,
    "changeset": 59818370,
    "user": "ButterflyOfFire_",
    "uid": 2842609,
    "tags": {
      "addr:country": "DZ",
      "amenity": "restaurant",
      "name": "Restaurant Social"
    }
  },
  {
    "type": "node",
    "id": 3811355887,
    "lat": 36.4729008,
    "lon": 2.8241708,
    "timestamp": "2022-01-25T16:54:22Z",
    "version": 4,
    "changeset": 116593183,
    "user": "Yamílo",
    "uid": 11332999,
    "tags": {
      "addr:country": "DZ",
      "amenity": "restaurant"
    }
  },
  {
    "type": "node",
    "id": 3811355889,
    "lat": 36.4728555,
    "lon": 2.8242713,
    "timestamp": "2022-01-25T16:54:22Z",
    "version": 4,
    "changeset": 116593183,
    "user": "Yamílo",
    "uid": 11332999,
    "tags": {
      "addr:country": "DZ",
      "amenity": "restaurant"
    }
  },
  {
    "type": "node",
    "id": 3811355892,
    "lat": 36.4727458,
    "lon": 2.8240265,
    "timestamp": "2022-01-25T16:54:22Z",
    "version": 4,
    "changeset": 116593183,
    "user": "Yamílo",
    "uid": 11332999,
    "tags": {
      "addr:country": "DZ",
      "amenity": "restaurant"
    }
  },
  {
    "type": "node",
    "id": 3847659011,
    "lat": 36.4006162,
    "lon": 2.7619575,
    "timestamp": "2020-12-30T19:19:38Z",
    "version": 4,
    "changeset": 96687154,
    "user": "Vejoson",
    "uid": 11422772,
    "tags": {
      "addr:country": "DZ",
      "amenity": "restaurant",
      "name": "Resto",
      "name:fr": "Resto"
    }
  },
  {
    "type": "node",
    "id": 3847659043,
    "lat": 36.4808511,
    "lon": 2.8213405,
    "timestamp": "2018-06-13T17:53:53Z",
    "version": 4,
    "changeset": 59818370,
    "user": "ButterflyOfFire_",
    "uid": 2842609,
    "tags": {
      "addr:city": "Blida",
      "addr:country": "DZ",
      "addr:postcode": "09000",
      "addr:street": "Boulevard Mohamed Boudiaf",
      "amenity": "restaurant",
      "cuisine": "pizza",
      "name": "Pizzeria Fissa Food",
      "smoking": "no"
    }
  },
  {
    "type": "node",
    "id": 3847659044,
    "lat": 36.4807714,
    "lon": 2.8209623,
    "timestamp": "2018-06-13T17:53:53Z",
    "version": 2,
    "changeset": 59818370,
    "user": "ButterflyOfFire_",
    "uid": 2842609,
    "tags": {
      "addr:country": "DZ",
      "amenity": "restaurant",
      "cuisine": "pizza",
      "name": "Pizzeria"
    }
  },
  {
    "type": "node",
    "id": 3861541235,
    "lat": 36.2345155,
    "lon": 3.649407,
    "timestamp": "2020-12-30T19:19:38Z",
    "version": 3,
    "changeset": 96687154,
    "user": "Vejoson",
    "uid": 11422772,
    "tags": {
      "addr:country": "DZ",
      "amenity": "restaurant",
      "name": "Resto",
      "name:fr": "Resto"
    }
  },
  {
    "type": "node",
    "id": 4078680052,
    "lat": 35.8901782,
    "lon": 3.1450164,
    "timestamp": "2018-06-13T17:53:58Z",
    "version": 2,
    "changeset": 59818370,
    "user": "ButterflyOfFire_",
    "uid": 2842609,
    "tags": {
      "addr:country": "DZ",
      "amenity": "restaurant",
      "name": "Restaurant Belaid"
    }
  },
  {
    "type": "node",
    "id": 4170409060,
    "lat": 35.9025921,
    "lon": 2.7571274,
    "timestamp": "2020-12-30T19:19:38Z",
    "version": 3,
    "changeset": 96687154,
    "user": "Vejoson",
    "uid": 11422772,
    "tags": {
      "addr:country": "DZ",
      "amenity": "restaurant",
      "name": "Resto",
      "name:fr": "Resto"
    }
  },
  {
    "type": "node",
    "id": 4329471990,
    "lat": 36.4664501,
    "lon": 2.6901098,
    "timestamp": "2018-06-13T17:54:13Z",
    "version": 4,
    "changeset": 59818370,
    "user": "ButterflyOfFire_",
    "uid": 2842609,
    "tags": {
      "addr:country": "DZ",
      "amenity": "restaurant",
      "cuisine": "regional",
      "name": "Restaurant geurmit"
    }
  },
  {
    "type": "node",
    "id": 4370447093,
    "lat": 36.4799294,
    "lon": 2.8205789,
    "timestamp": "2018-06-13T17:54:18Z",
    "version": 3,
    "changeset": 59818370,
    "user": "ButterflyOfFire_",
    "uid": 2842609,
    "tags": {
      "addr:country": "DZ",
      "amenity": "restaurant",
      "cuisine": "pizza",
      "name": "Pizzeria Oui Oui",
      "name:ar": "مطعم وي وي",
      "name:fr": "Pizzeria Oui Oui"
    }
  },
  {
    "type": "node",
    "id": 4377021293,
    "lat": 36.2632973,
    "lon": 2.7773605,
    "timestamp": "2018-06-13T17:54:18Z",
    "version": 3,
    "changeset": 59818370,
    "user": "ButterflyOfFire_",
    "uid": 2842609,
    "tags": {
      "addr:country": "DZ",
      "amenity": "restaurant",
      "internet_access": "wlan",
      "name": "infinty",
      "name:fr": "infinty"
    }
  },
  {
    "type": "node",
    "id": 4377783091,
    "lat": 35.884933,
    "lon": 2.7488424,
    "timestamp": "2018-06-13T17:54:19Z",
    "version": 2,
    "changeset": 59818370,
    "user": "ButterflyOfFire_",
    "uid": 2842609,
    "tags": {
      "addr:country": "DZ",
      "amenity": "restaurant",
      "name": "مطعم زلاق",
      "name:ar": "مطعم زلاق",
      "name:fr": "restaurant de zlak"
    }
  },
  {
    "type": "node",
    "id": 4506645752,
    "lat": 36.5060873,
    "lon": 2.8789906,
    "timestamp": "2020-12-30T19:19:38Z",
    "version": 4,
    "changeset": 96687154,
    "user": "Vejoson",
    "uid": 11422772,
    "tags": {
      "addr:country": "DZ",
      "amenity": "restaurant",
      "name": "Restaurant universitaire",
      "name:ar": "مطعم جامعي",
      "name:en": "U Resto",
      "name:fr": "Resto U",
      "smoking": "no"
    }
  },
  {
    "type": "node",
    "id": 4523276776,
    "lat": 36.524983,
    "lon": 2.8600617,
    "timestamp": "2018-06-13T17:54:30Z",
    "version": 2,
    "changeset": 59818370,
    "user": "ButterflyOfFire_",
    "uid": 2842609,
    "tags": {
      "addr:city": "Beni Mered",
      "addr:country": "DZ",
      "amenity": "restaurant",
      "facebook": "https://www.facebook.com/Pacanier-188377748206451/",
      "name": "Pacanier",
      "opening_hours": "11:15-22:30",
      "phone": "+213 25 27 64 27"
    }
  },
  {
    "type": "node",
    "id": 4530795291,
    "lat": 36.4820622,
    "lon": 2.8333844,
    "timestamp": "2018-06-13T17:54:31Z",
    "version": 3,
    "changeset": 59818370,
    "user": "ButterflyOfFire_",
    "uid": 2842609,
    "tags": {
      "addr:country": "DZ",
      "amenity": "restaurant",
      "name": "Dar Nouar",
      "name:fr": "Dar Nouar"
    }
  },
  {
    "type": "node",
    "id": 4596604283,
    "lat": 36.4265957,
    "lon": 2.876469,
    "timestamp": "2018-06-13T17:54:38Z",
    "version": 2,
    "changeset": 59818370,
    "user": "ButterflyOfFire_",
    "uid": 2842609,
    "tags": {
      "addr:city": "Chréa",
      "addr:country": "DZ",
      "amenity": "restaurant",
      "name": "Restaurant Terminus"
    }
  },
  {
    "type": "node",
    "id": 4777249221,
    "lat": 35.8847912,
    "lon": 2.7372734,
    "timestamp": "2020-12-30T19:19:38Z",
    "version": 3,
    "changeset": 96687154,
    "user": "Vejoson",
    "uid": 11422772,
    "tags": {
      "addr:country": "DZ",
      "amenity": "restaurant",
      "name": "Resto",
      "name:fr": "Resto"
    }
  },
  {
    "type": "node",
    "id": 4971160021,
    "lat": 36.5237618,
    "lon": 2.9189829,
    "timestamp": "2018-06-13T17:54:53Z",
    "version": 5,
    "changeset": 59818370,
    "user": "ButterflyOfFire_",
    "uid": 2842609,
    "tags": {
      "addr:city": "Bahli",
      "addr:country": "DZ",
      "amenity": "restaurant",
      "cuisine": "regional",
      "name": "Khaimat Hadj Brahim",
      "name:ar": "خيمة الحاج ابراهيم",
      "name:fr": "Khaimat Hadj Brahim",
      "outdoor_seating": "yes"
    }
  },
  {
    "type": "node",
    "id": 5407190922,
    "lat": 36.2671392,
    "lon": 2.7642681,
    "timestamp": "2018-06-13T17:55:13Z",
    "version": 2,
    "changeset": 59818370,
    "user": "ButterflyOfFire_",
    "uid": 2842609,
    "tags": {
      "addr:country": "DZ",
      "amenity": "restaurant",
      "name:fr": "Restaurant baraka"
    }
  },
  {
    "type": "node",
    "id": 5414509845,
    "lat": 36.4956545,
    "lon": 2.8583613,
    "timestamp": "2018-06-13T17:55:13Z",
    "version": 2,
    "changeset": 59818370,
    "user": "ButterflyOfFire_",
    "uid": 2842609,
    "tags": {
      "addr:city": "Ouled Yaïch",
      "addr:country": "DZ",
      "amenity": "restaurant",
      "name": "Mc Silo Food"
    }
  },
  {
    "type": "node",
    "id": 5448943445,
    "lat": 36.4991389,
    "lon": 2.859352,
    "timestamp": "2018-08-20T17:11:28Z",
    "version": 3,
    "changeset": 61830287,
    "user": "abdeldjalil",
    "uid": 2117145,
    "tags": {
      "addr:country": "DZ",
      "amenity": "restaurant",
      "name": "Restaurant Chemissou",
      "name:ar": "مطعم شميسو",
      "name:fr": "Restaurant Chemissou"
    }
  },
  {
    "type": "node",
    "id": 5686204422,
    "lat": 36.2696272,
    "lon": 2.7742903,
    "timestamp": "2019-09-24T12:22:26Z",
    "version": 4,
    "changeset": 74854841,
    "user": "Wà Łiḑ Ƀhđ",
    "uid": 9641653,
    "tags": {
      "addr:country": "DZ",
      "addr:street": "Boulevard du 5 juillet",
      "amenity": "restaurant",
      "name": "Tyiba Food",
      "name:ar": "طيبة فود",
      "name:en": "Tyiba Food"
    }
  },
  {
    "type": "node",
    "id": 6166676348,
    "lat": 36.4535417,
    "lon": 2.7349012,
    "timestamp": "2020-12-30T19:19:38Z",
    "version": 2,
    "changeset": 96687154,
    "user": "Vejoson",
    "uid": 11422772,
    "tags": {
      "amenity": "restaurant",
      "name": "Resto",
      "name:fr": "Resto"
    }
  },
  {
    "type": "node",
    "id": 6249937725,
    "lat": 36.2345529,
    "lon": 3.6488485,
    "timestamp": "2020-12-30T19:19:38Z",
    "version": 3,
    "changeset": 96687154,
    "user": "Vejoson",
    "uid": 11422772,
    "tags": {
      "amenity": "restaurant",
      "name": "عيشون",
      "name:ar": "عيشون",
      "name:fr": "Aichoun"
    }
  },
  {
    "type": "node",
    "id": 6412815085,
    "lat": 36.4635516,
    "lon": 2.6894407,
    "timestamp": "2020-12-30T19:19:38Z",
    "version": 3,
    "changeset": 96687154,
    "user": "Vejoson",
    "uid": 11422772,
    "tags": {
      "amenity": "restaurant",
      "name": "مطعم",
      "name:ar": "مطعم",
      "name:en": "Restaurant",
      "name:fr": "Resto"
    }
  },
  {
    "type": "node",
    "id": 6825717085,
    "lat": 36.4854452,
    "lon": 2.8378601,
    "timestamp": "2019-09-26T10:48:24Z",
    "version": 1,
    "changeset": 74951650,
    "user": "Di oo",
    "uid": 9313891,
    "tags": {
      "amenity": "restaurant",
      "name": "First date"
    }
  },
  {
    "type": "node",
    "id": 7040862392,
    "lat": 36.5522172,
    "lon": 3.1043106,
    "timestamp": "2019-12-07T20:21:22Z",
    "version": 1,
    "changeset": 78095688,
    "user": "Géomètre topographe djoudi",
    "uid": 10500558,
    "tags": {
      "amenity": "restaurant",
      "name": "Ouled slama salle des fêtes Farah"
    }
  },
  {
    "type": "node",
    "id": 7122317385,
    "lat": 36.4255542,
    "lon": 2.7128776,
    "timestamp": "2020-12-30T19:19:38Z",
    "version": 3,
    "changeset": 96687154,
    "user": "Vejoson",
    "uid": 11422772,
    "tags": {
      "amenity": "restaurant",
      "internet_access": "wlan",
      "name": "مطعم",
      "name:ar": "مطعم",
      "name:fr": "Resto",
      "phone": "025244727"
    }
  },
  {
    "type": "node",
    "id": 11215190737,
    "lat": 36.5506482,
    "lon": 3.1025322,
    "timestamp": "2023-09-24T08:46:33Z",
    "version": 1,
    "changeset": 141672256,
    "user": "Fouzi daaou",
    "uid": 20185265,
    "tags": {
      "amenity": "restaurant",
      "name:fr": "El hidhab",
      "phone": "0770747610"
    }
  },
  {
    "type": "node",
    "id": 11254897139,
    "lat": 36.531826,
    "lon": 2.95595,
    "timestamp": "2023-10-11T10:54:25Z",
    "version": 1,
    "changeset": 142431191,
    "user": "Fouzi daaou",
    "uid": 20185265,
    "tags": {
      "amenity": "restaurant",
      "name:fr": "Roi du poulet"
    }
  },
  {
    "type": "way",
    "id": 244606889,
    "timestamp": "2020-11-02T04:33:54Z",
    "version": 2,
    "changeset": 93391015,
    "user": "MustafaQasim",
    "uid": 9535554,
    "center": {
      "lat": 35.6877848,
      "lon": 2.8561564
    },
    "nodes": [
      2519058922,
      2519058925,
      2519058929,
      2519058933,
      2519058922
    ],
    "tags": {
      "amenity": "restaurant",
      "building": "yes",
      "name": "Restaurant مطعم",
      "name:ar": "Restaurant مطعم"
    }
  },
  {
    "type": "way",
    "id": 354090724,
    "timestamp": "2015-06-16T14:33:21Z",
    "version": 1,
    "changeset": 32007948,
    "user": "kazoya",
    "uid": 720275,
    "center": {
      "lat": 36.4355827,
      "lon": 3.3078794
    },
    "nodes": [
      3598655056,
      3598655057,
      3598655058,
      3598655059,
      3598655056
    ],
    "tags": {
      "amenity": "restaurant",
      "building": "yes"
    }
  },
  {
    "type": "way",
    "id": 386317512,
    "timestamp": "2015-12-17T10:36:27Z",
    "version": 1,
    "changeset": 36006246,
    "user": "FREDJ_AF",
    "uid": 3043409,
    "center": {
      "lat": 35.7031644,
      "lon": 3.2139359
    },
    "nodes": [
      3896325032,
      3896325033,
      3896325034,
      3896325035,
      3896325032
    ],
    "tags": {
      "amenity": "restaurant",
      "building": "yes"
    }
  },
  {
    "type": "way",
    "id": 1172977238,
    "timestamp": "2023-05-15T08:01:59Z",
    "version": 1,
    "changeset": 136113432,
    "user": "Superadlen",
    "uid": 1922193,
    "center": {
      "lat": 36.4667751,
      "lon": 2.6879005
    },
    "nodes": [
      10898757447,
      4329475891,
      10898762547,
      10898766756,
      10898765915,
      10898766812,
      10898766584,
      10898761419,
      10898760237,
      10898758776,
      10898757447
    ],
    "tags": {
      "addr:country": "DZ",
      "amenity": "restaurant",
      "building": "yes",
      "name": "Restaurant Meziane",
      "name:ar": "مطعم مزيان",
      "source": "FB: Algerie Mapper Team : (Superadlen)"
    }
  },
  {
    "type": "way",
    "id": 1172984665,
    "timestamp": "2023-05-15T08:13:41Z",
    "version": 1,
    "changeset": 136113909,
    "user": "Superadlen",
    "uid": 1922193,
    "center": {
      "lat": 36.433305,
      "lon": 2.7518901
    },
    "nodes": [
      2519062371,
      10898815692,
      10898817087,
      10898811428,
      2519062371
    ],
    "tags": {
      "addr:country": "DZ",
      "amenity": "restaurant",
      "building": "yes",
      "name": "Resto",
      "name:ar": "مطعم",
      "name:fr": "Resto",
      "source": "Algerie Mapper Team (Superadlen)"
    }
  },
  {
    "type": "way",
    "id": 1173463967,
    "timestamp": "2023-05-16T18:47:14Z",
    "version": 1,
    "changeset": 136182379,
    "user": "Superadlen",
    "uid": 1922193,
    "center": {
      "lat": 36.410741,
      "lon": 3.3111469
    },
    "nodes": [
      10903060687,
      10903058151,
      4249418460,
      10903060561,
      10903060687
    ],
    "tags": {
      "addr:country": "DZ",
      "amenity": "restaurant",
      "building": "yes",
      "name": "Resto",
      "name:fr": "Resto",
      "source": "FB: Algerie Mapper Team : (Superadlen)"
    }
  },
  {
    "type": "way",
    "id": 1173476671,
    "timestamp": "2023-05-16T19:08:49Z",
    "version": 1,
    "changeset": 136183070,
    "user": "Superadlen",
    "uid": 1922193,
    "center": {
      "lat": 36.2728368,
      "lon": 2.7698057
    },
    "nodes": [
      10903184478,
      3355556264,
      10903186434,
      10903187556,
      10903187619,
      10903184268,
      10903185623,
      10903183762,
      10903184478
    ],
    "tags": {
      "addr:country": "DZ",
      "amenity": "restaurant",
      "building": "yes",
      "name": "Le Coq",
      "name:fr": "Le Coq",
      "source": "FB: Algerie Mapper Team : (Superadlen)"
    }
  },
  {
    "type": "way",
    "id": 1173477914,
    "timestamp": "2023-10-28T17:42:29Z",
    "version": 2,
    "changeset": 143274717,
    "user": "CactiStaccingCrane",
    "uid": 14538650,
    "center": {
      "lat": 36.2649539,
      "lon": 2.7996299
    },
    "nodes": [
      10903192664,
      10903194480,
      10903193497,
      10903145372,
      10903196167,
      10903194428,
      10903191045,
      10903191526,
      10903193094,
      10903194049,
      10903191694,
      4581721850,
      11296032494,
      10903190252,
      11296032495,
      11296032496,
      11296032497,
      11296032498,
      10903190559,
      10903193777,
      10903193401,
      11296032499,
      11296032500,
      11296032501,
      11296032502,
      10903189856,
      10903196216,
      11296032527,
      11296032526,
      11296032503,
      10903191870,
      11296032504,
      11296032505,
      11296032507,
      11296032509,
      11296032508,
      11296032506,
      10903195642,
      10903194280,
      10903192521,
      10903195919,
      10903193485,
      11296032510,
      11296032511,
      10903194398,
      10903193322,
      10903192664
    ],
    "tags": {
      "addr:country": "DZ",
      "amenity": "restaurant",
      "building": "yes",
      "smoking": "no",
      "source": "FB: Algerie Mapper Team : (Superadlen)"
    }
  },
  {
    "type": "way",
    "id": 1173496832,
    "timestamp": "2023-05-16T19:46:12Z",
    "version": 1,
    "changeset": 136184173,
    "user": "Superadlen",
    "uid": 1922193,
    "center": {
      "lat": 36.3740157,
      "lon": 2.7737717
    },
    "nodes": [
      10903340222,
      10903339580,
      10903339901,
      3290833622,
      10903340222
    ],
    "tags": {
      "addr:country": "DZ",
      "amenity": "restaurant",
      "building": "yes",
      "name": "Resto",
      "name:fr": "Resto",
      "source": "Algerie Mapper Team (Superadlen)"
    }
  },
  {
    "type": "way",
    "id": 1174128314,
    "timestamp": "2023-05-18T22:16:16Z",
    "version": 1,
    "changeset": 136275127,
    "user": "Superadlen",
    "uid": 1922193,
    "center": {
      "lat": 36.4797404,
      "lon": 2.8031392
    },
    "nodes": [
      10909663494,
      10909665405,
      10909668100,
      10909670957,
      2710907927,
      10909670333,
      10909663494
    ],
    "tags": {
      "addr:country": "DZ",
      "amenity": "restaurant",
      "brand": "Syrien",
      "building": "yes",
      "name": "Eldimashki",
      "source": "Algerie Mapper Team"
    }
  },
  {
    "type": "way",
    "id": 1174770121,
    "timestamp": "2023-05-21T13:55:36Z",
    "version": 1,
    "changeset": 136373402,
    "user": "Superadlen",
    "uid": 1922193,
    "center": {
      "lat": 36.5245383,
      "lon": 2.8630691
    },
    "nodes": [
      10916101677,
      2799526256,
      10916099822,
      10916100720,
      10916101797,
      10916098413,
      10916100693,
      10916101303,
      10916101677
    ],
    "tags": {
      "addr:country": "DZ",
      "amenity": "restaurant",
      "building": "yes",
      "name": "Margarita",
      "source": "Algrien Mapper Team"
    }
  },
  {
    "type": "way",
    "id": 1189619884,
    "timestamp": "2023-07-14T11:23:37Z",
    "version": 1,
    "changeset": 138503155,
    "user": "Superadlen",
    "uid": 1922193,
    "center": {
      "lat": 36.3527272,
      "lon": 3.5328777
    },
    "nodes": [
      11046302567,
      11046303691,
      11046302482,
      11046303557,
      11046302983,
      11046303926,
      4938148215,
      11046303559,
      11046303745,
      11046302537,
      11046303877,
      11046303126,
      11046303318,
      11046302838,
      11046302833,
      11046303694,
      11046303440,
      11046279360,
      11046302567
    ],
    "tags": {
      "addr:country": "DZ",
      "amenity": "restaurant",
      "building": "yes",
      "name": "Cantine Scolaire",
      "name:ar": "مطعم مدرسي",
      "name:ber": "Tneccit n uɣerbaz",
      "name:en": "school canteen",
      "name:fr": "Cantine scolaire",
      "source": "FB: Algerie Mapper Team"
    }
  },
  {
    "type": "way",
    "id": 1200796662,
    "timestamp": "2023-08-21T11:19:10Z",
    "version": 1,
    "changeset": 140176112,
    "user": "حسام عبد الناصر",
    "uid": 19359683,
    "center": {
      "lat": 36.1713327,
      "lon": 2.9996273
    },
    "nodes": [
      4908193021,
      11133867991,
      11133871757,
      11133867549,
      11133868481,
      11133861822,
      4908193021
    ],
    "tags": {
      "addr:country": "DZ",
      "amenity": "restaurant",
      "building": "yes",
      "name": "Resto",
      "name:fr": "Resto"
    }
  },
  {
    "type": "way",
    "id": 1205640768,
    "timestamp": "2023-09-06T22:00:39Z",
    "version": 1,
    "changeset": 140914741,
    "user": "حسام عبد الناصر",
    "uid": 19359683,
    "center": {
      "lat": 35.8860598,
      "lon": 2.749746
    },
    "nodes": [
      11173044135,
      11173042786,
      4383817390,
      11173043610,
      11173044135
    ],
    "tags": {
      "addr:country": "DZ",
      "amenity": "restaurant",
      "building": "yes",
      "cuisine": "chicken;steak_house;friture;sandwich;salad;pasta",
      "diet:halal": "yes",
      "name": "Restaurant Mansouri",
      "opening_hours": "saturday-thursday 07:00-16:00",
      "source": "microsoft/BuildingFootprints"
    }
  },
  {
    "type": "way",
    "id": 1205640780,
    "timestamp": "2023-09-06T22:00:39Z",
    "version": 1,
    "changeset": 140914741,
    "user": "حسام عبد الناصر",
    "uid": 19359683,
    "center": {
      "lat": 35.8864256,
      "lon": 2.7479492
    },
    "nodes": [
      11173042863,
      4377501607,
      11173043578,
      11173042406,
      11173042863
    ],
    "tags": {
      "addr:country": "DZ",
      "amenity": "restaurant",
      "building": "yes",
      "name": "مطعم الطيب",
      "name:ar": "مطعم الطيب",
      "name:fr": "Restaurant tayeb",
      "source": "microsoft/BuildingFootprints"
    }
  },
  {
    "type": "way",
    "id": 1205641108,
    "timestamp": "2023-09-06T22:00:39Z",
    "version": 1,
    "changeset": 140914741,
    "user": "حسام عبد الناصر",
    "uid": 19359683,
    "center": {
      "lat": 35.8850993,
      "lon": 2.7488506
    },
    "nodes": [
      11173042768,
      11173041108,
      4377753893,
      11173040405,
      11173039238,
      11173043947,
      11173042768
    ],
    "tags": {
      "addr:country": "DZ",
      "amenity": "restaurant",
      "building": "yes",
      "name": "مطعم الشعنبي",
      "name:ar": "مطعم الشعنبي",
      "name:fr": "restaurant el chaanbi",
      "source": "microsoft/BuildingFootprints"
    }
  }
]