[
  {
    "type": "node",
    "id": 1693367713,
    "lat": 36.6252205,
    "lon": 2.6553688,
    "timestamp": "2018-06-13T17:52:51Z",
    "version": 3,
    "changeset": 59818370,
    "user": "ButterflyOfFire_",
    "uid": 2842609,
    "tags": {
      "addr:country": "DZ",
      "amenity": "restaurant",
      "cuisine": "fish",
      "designation": "Several Fish Restaurants",
      "name": "Bou Haroun Fish"
    }
  },
  {
    "type": "node",
    "id": 2477663404,
    "lat": 36.6427668,
    "lon": 2.6909973,
    "timestamp": "2020-12-30T19:19:38Z",
    "version": 4,
    "changeset": 96687154,
    "user": "Vejoson",
    "uid": 11422772,
    "tags": {
      "addr:city": "بو إسماعيل",
      "amenity": "restaurant",
      "name": "Resto",
      "name:fr": "Resto"
    }
  },
  {
    "type": "node",
    "id": 2479493018,
    "lat": 36.6432101,
    "lon": 2.6917081,
    "timestamp": "2018-06-13T17:52:57Z",
    "version": 3,
    "changeset": 59818370,
    "user": "ButterflyOfFire_",
    "uid": 2842609,
    "tags": {
      "addr:city": "Bou Ismaïl",
      "addr:country": "DZ",
      "addr:postcode": "42004",
      "amenity": "restaurant",
      "cuisine": "regional",
      "name": "Le perdrix"
    }
  },
  {
    "type": "node",
    "id": 2720663173,
    "lat": 36.5931136,
    "lon": 2.4471677,
    "timestamp": "2023-01-13T02:23:20Z",
    "version": 6,
    "changeset": 131210793,
    "user": "Kadubei",
    "uid": 16642036,
    "tags": {
      "addr:city": "Tipaza",
      "addr:city:fr": "Tipaza",
      "amenity": "restaurant",
      "name": "Le Romana",
      "name:fr": "Le Romana"
    }
  },
  {
    "type": "node",
    "id": 2720663182,
    "lat": 36.5929481,
    "lon": 2.4473893,
    "timestamp": "2022-01-25T16:54:22Z",
    "version": 4,
    "changeset": 116593183,
    "user": "Yamílo",
    "uid": 11332999,
    "tags": {
      "addr:city": "تيبازة",
      "addr:city:ar": "تيبازة",
      "addr:city:es": "Tipasa",
      "amenity": "restaurant"
    }
  },
  {
    "type": "node",
    "id": 2720663206,
    "lat": 36.5930318,
    "lon": 2.4477842,
    "timestamp": "2022-01-25T16:54:22Z",
    "version": 4,
    "changeset": 116593183,
    "user": "Yamílo",
    "uid": 11332999,
    "tags": {
      "addr:city": "تيبازة",
      "addr:city:ar": "تيبازة",
      "addr:city:es": "Tipasa",
      "amenity": "restaurant",
      "cuisine": "ice_cream"
    }
  },
  {
    "type": "node",
    "id": 2753887081,
    "lat": 36.5744799,
    "lon": 2.5539678,
    "timestamp": "2018-06-13T17:53:04Z",
    "version": 7,
    "changeset": 59818370,
    "user": "ButterflyOfFire_",
    "uid": 2842609,
    "tags": {
      "addr:city": "Sidi Rached",
      "addr:country": "DZ",
      "addr:postcode": "42250",
      "amenity": "restaurant",
      "name": "Restaurant Mausolée Royal de Maurétanie",
      "name:ar": "مطعم الضريح الملكي الموريتاني"
    }
  },
  {
    "type": "node",
    "id": 2753929922,
    "lat": 36.5943161,
    "lon": 2.4730588,
    "timestamp": "2020-12-30T19:19:38Z",
    "version": 3,
    "changeset": 96687154,
    "user": "Vejoson",
    "uid": 11422772,
    "tags": {
      "addr:country": "DZ",
      "amenity": "restaurant",
      "name": "Resto",
      "name:fr": "Resto"
    }
  },
  {
    "type": "node",
    "id": 2940393676,
    "lat": 36.5929586,
    "lon": 2.4502282,
    "timestamp": "2018-06-13T17:53:08Z",
    "version": 3,
    "changeset": 59818370,
    "user": "ButterflyOfFire_",
    "uid": 2842609,
    "tags": {
      "addr:country": "DZ",
      "amenity": "restaurant",
      "name": "Poisson Tipaza"
    }
  },
  {
    "type": "node",
    "id": 2952897870,
    "lat": 36.6466754,
    "lon": 2.6973106,
    "timestamp": "2020-12-30T19:19:38Z",
    "version": 4,
    "changeset": 96687154,
    "user": "Vejoson",
    "uid": 11422772,
    "tags": {
      "addr:city": "Bou Ismaïl",
      "addr:country": "DZ",
      "addr:postcode": "42415",
      "addr:street": "RN11",
      "amenity": "restaurant",
      "cuisine": "regional",
      "name": "Resto",
      "name:fr": "Resto"
    }
  },
  {
    "type": "node",
    "id": 2980404383,
    "lat": 36.5994617,
    "lon": 2.5953822,
    "timestamp": "2019-10-07T23:34:25Z",
    "version": 7,
    "changeset": 75396267,
    "user": "MustafaQasim",
    "uid": 9535554,
    "tags": {
      "addr:city": "عين تقورايت",
      "addr:country": "DZ",
      "amenity": "restaurant",
      "name": "لي أورسن مطعم قنفد بحر",
      "name:ar": "لي أورسن مطعم قنفد بحر",
      "name:fr": "Les Oursins"
    }
  },
  {
    "type": "node",
    "id": 2980404389,
    "lat": 36.6382176,
    "lon": 2.6945447,
    "timestamp": "2018-06-13T17:53:10Z",
    "version": 3,
    "changeset": 59818370,
    "user": "ButterflyOfFire_",
    "uid": 2842609,
    "tags": {
      "addr:country": "DZ",
      "amenity": "restaurant",
      "name": "poison de jour"
    }
  },
  {
    "type": "node",
    "id": 2994070688,
    "lat": 36.6049356,
    "lon": 2.614747,
    "timestamp": "2020-12-30T19:19:38Z",
    "version": 3,
    "changeset": 96687154,
    "user": "Vejoson",
    "uid": 11422772,
    "tags": {
      "addr:country": "DZ",
      "amenity": "restaurant",
      "name": "Resto",
      "name:fr": "Resto"
    }
  },
  {
    "type": "node",
    "id": 2994075150,
    "lat": 36.6253684,
    "lon": 2.6555782,
    "timestamp": "2018-06-13T17:53:11Z",
    "version": 3,
    "changeset": 59818370,
    "user": "ButterflyOfFire_",
    "uid": 2842609,
    "tags": {
      "addr:country": "DZ",
      "amenity": "restaurant",
      "cuisine": "regional",
      "name": "Cartena"
    }
  },
  {
    "type": "node",
    "id": 2994075157,
    "lat": 36.6268142,
    "lon": 2.6621364,
    "timestamp": "2018-06-13T17:53:11Z",
    "version": 4,
    "changeset": 59818370,
    "user": "ButterflyOfFire_",
    "uid": 2842609,
    "tags": {
      "addr:country": "DZ",
      "amenity": "restaurant",
      "cuisine": "regional",
      "name": "Chez Houari"
    }
  },
  {
    "type": "node",
    "id": 2994075708,
    "lat": 36.6262206,
    "lon": 2.6571259,
    "timestamp": "2020-12-30T19:19:38Z",
    "version": 4,
    "changeset": 96687154,
    "user": "Vejoson",
    "uid": 11422772,
    "tags": {
      "addr:country": "DZ",
      "amenity": "restaurant",
      "cuisine": "regional",
      "name": "Resto",
      "name:fr": "Resto"
    }
  },
  {
    "type": "node",
    "id": 2994076015,
    "lat": 36.6253055,
    "lon": 2.6554456,
    "timestamp": "2018-06-13T17:53:11Z",
    "version": 3,
    "changeset": 59818370,
    "user": "ButterflyOfFire_",
    "uid": 2842609,
    "tags": {
      "addr:country": "DZ",
      "amenity": "restaurant",
      "cuisine": "regional",
      "name": "Lala Aicha"
    }
  },
  {
    "type": "node",
    "id": 2994076016,
    "lat": 36.6250545,
    "lon": 2.6553613,
    "timestamp": "2018-06-13T17:53:11Z",
    "version": 2,
    "changeset": 59818370,
    "user": "ButterflyOfFire_",
    "uid": 2842609,
    "tags": {
      "addr:country": "DZ",
      "amenity": "restaurant",
      "name": "le lampare"
    }
  },
  {
    "type": "node",
    "id": 2994076017,
    "lat": 36.6258301,
    "lon": 2.6565428,
    "timestamp": "2018-06-13T17:53:11Z",
    "version": 2,
    "changeset": 59818370,
    "user": "ButterflyOfFire_",
    "uid": 2842609,
    "tags": {
      "addr:country": "DZ",
      "amenity": "restaurant",
      "name": "fich"
    }
  },
  {
    "type": "node",
    "id": 3001117756,
    "lat": 36.6115805,
    "lon": 2.6246616,
    "timestamp": "2018-06-13T17:53:12Z",
    "version": 2,
    "changeset": 59818370,
    "user": "ButterflyOfFire_",
    "uid": 2842609,
    "tags": {
      "addr:country": "DZ",
      "amenity": "restaurant",
      "name": "Moules d'or Bouharoun"
    }
  },
  {
    "type": "node",
    "id": 3006450135,
    "lat": 36.6289568,
    "lon": 2.4011013,
    "timestamp": "2020-12-30T19:19:38Z",
    "version": 4,
    "changeset": 96687154,
    "user": "Vejoson",
    "uid": 11422772,
    "tags": {
      "addr:country": "DZ",
      "amenity": "restaurant",
      "cuisine": "regional",
      "name": "Resto",
      "name:fr": "Resto"
    }
  },
  {
    "type": "node",
    "id": 3006450136,
    "lat": 36.6416097,
    "lon": 2.3603208,
    "timestamp": "2023-02-03T18:46:03Z",
    "version": 5,
    "changeset": 132053665,
    "user": "Kadubei",
    "uid": 16642036,
    "tags": {
      "amenity": "restaurant"
    }
  },
  {
    "type": "node",
    "id": 3006450139,
    "lat": 36.6417119,
    "lon": 2.3556859,
    "timestamp": "2023-02-03T18:46:03Z",
    "version": 5,
    "changeset": 132053665,
    "user": "Kadubei",
    "uid": 16642036,
    "tags": {
      "addr:country": "DZ",
      "amenity": "restaurant",
      "name": "Restaurant familial",
      "name:fr": "Restaurant familial"
    }
  },
  {
    "type": "node",
    "id": 3160427465,
    "lat": 36.260884,
    "lon": 2.2117427,
    "timestamp": "2018-06-13T17:53:23Z",
    "version": 4,
    "changeset": 59818370,
    "user": "ButterflyOfFire_",
    "uid": 2842609,
    "tags": {
      "addr:city": "Khémis Miliana",
      "addr:country": "DZ",
      "addr:postcode": "44225",
      "addr:street": "Rue Tahraoui Benmira",
      "amenity": "restaurant",
      "cuisine": "regional",
      "name": "Vieux King Food",
      "opening_hours": "10:00-16:00"
    }
  },
  {
    "type": "node",
    "id": 3160474392,
    "lat": 36.2605008,
    "lon": 2.2210906,
    "timestamp": "2018-06-13T17:53:23Z",
    "version": 4,
    "changeset": 59818370,
    "user": "ButterflyOfFire_",
    "uid": 2842609,
    "tags": {
      "addr:city": "Khémis Miliana",
      "addr:country": "DZ",
      "addr:postcode": "44225",
      "addr:street": "rue belsaadi aek",
      "amenity": "restaurant",
      "cuisine": "chicken",
      "name": "Roi Du Poulet"
    }
  },
  {
    "type": "node",
    "id": 3161208608,
    "lat": 36.2539051,
    "lon": 1.9532717,
    "timestamp": "2024-03-23T21:46:04Z",
    "version": 9,
    "changeset": 149068323,
    "user": "Lotfi Amari",
    "uid": 2776616,
    "tags": {
      "addr:city": "Aïn Defla",
      "addr:country": "DZ",
      "addr:postcode": "44000",
      "amenity": "restaurant",
      "cuisine": "regional",
      "name": "دار الضياف",
      "name:ar": "دار الضياف",
      "name:fr": "Dar Dhiaf",
      "opening_hours": "06:00-20:00"
    }
  },
  {
    "type": "node",
    "id": 3161685247,
    "lat": 36.6021695,
    "lon": 2.180301,
    "timestamp": "2018-06-13T17:53:23Z",
    "version": 3,
    "changeset": 59818370,
    "user": "ButterflyOfFire_",
    "uid": 2842609,
    "tags": {
      "addr:city": "Cherchell",
      "addr:country": "DZ",
      "addr:postcode": "42100",
      "amenity": "restaurant",
      "name": "Mc Biba"
    }
  },
  {
    "type": "node",
    "id": 3595061387,
    "lat": 36.2550718,
    "lon": 2.2203507,
    "timestamp": "2020-12-30T19:19:38Z",
    "version": 4,
    "changeset": 96687154,
    "user": "Vejoson",
    "uid": 11422772,
    "tags": {
      "addr:country": "DZ",
      "amenity": "restaurant",
      "name": "Resto",
      "name:fr": "Resto"
    }
  },
  {
    "type": "node",
    "id": 3668593321,
    "lat": 36.6416216,
    "lon": 2.3597183,
    "timestamp": "2023-02-03T18:46:03Z",
    "version": 4,
    "changeset": 132053665,
    "user": "Kadubei",
    "uid": 16642036,
    "tags": {
      "amenity": "restaurant"
    }
  },
  {
    "type": "node",
    "id": 3986489249,
    "lat": 36.6463989,
    "lon": 2.6921786,
    "timestamp": "2020-12-30T19:19:38Z",
    "version": 4,
    "changeset": 96687154,
    "user": "Vejoson",
    "uid": 11422772,
    "tags": {
      "amenity": "restaurant",
      "cuisine": "pizza",
      "name": "Resto",
      "name:fr": "Resto"
    }
  },
  {
    "type": "node",
    "id": 3986642716,
    "lat": 36.6423316,
    "lon": 2.6931708,
    "timestamp": "2018-06-13T17:53:56Z",
    "version": 2,
    "changeset": 59818370,
    "user": "ButterflyOfFire_",
    "uid": 2842609,
    "tags": {
      "addr:country": "DZ",
      "amenity": "restaurant",
      "cuisine": "regional",
      "name": "Pizzeria"
    }
  },
  {
    "type": "node",
    "id": 4145014790,
    "lat": 36.6429075,
    "lon": 2.6912099,
    "timestamp": "2018-06-13T17:54:03Z",
    "version": 2,
    "changeset": 59818370,
    "user": "ButterflyOfFire_",
    "uid": 2842609,
    "tags": {
      "addr:country": "DZ",
      "amenity": "restaurant",
      "cuisine": "arab;american;local;french",
      "name": "Restaurant Kahina",
      "opening_hours": "Sa-Th 10:00-00:00"
    }
  },
  {
    "type": "node",
    "id": 4323077291,
    "lat": 36.6456488,
    "lon": 2.6942347,
    "timestamp": "2020-12-30T19:19:38Z",
    "version": 3,
    "changeset": 96687154,
    "user": "Vejoson",
    "uid": 11422772,
    "tags": {
      "addr:country": "DZ",
      "amenity": "restaurant",
      "name": "Resto",
      "name:fr": "Resto"
    }
  },
  {
    "type": "node",
    "id": 4326327181,
    "lat": 36.2447282,
    "lon": 1.7975197,
    "timestamp": "2020-12-30T19:19:38Z",
    "version": 3,
    "changeset": 96687154,
    "user": "Vejoson",
    "uid": 11422772,
    "tags": {
      "addr:country": "DZ",
      "amenity": "restaurant",
      "name": "Resto",
      "name:fr": "Resto"
    }
  },
  {
    "type": "node",
    "id": 4329471990,
    "lat": 36.4664501,
    "lon": 2.6901098,
    "timestamp": "2018-06-13T17:54:13Z",
    "version": 4,
    "changeset": 59818370,
    "user": "ButterflyOfFire_",
    "uid": 2842609,
    "tags": {
      "addr:country": "DZ",
      "amenity": "restaurant",
      "cuisine": "regional",
      "name": "Restaurant geurmit"
    }
  },
  {
    "type": "node",
    "id": 4513210791,
    "lat": 36.3674546,
    "lon": 2.4557074,
    "timestamp": "2020-12-30T19:19:38Z",
    "version": 7,
    "changeset": 96687154,
    "user": "Vejoson",
    "uid": 11422772,
    "tags": {
      "addr:country": "DZ",
      "amenity": "restaurant",
      "name": "مطعم",
      "name:ar": "مطعم",
      "name:fr": "Resto"
    }
  },
  {
    "type": "node",
    "id": 4551542989,
    "lat": 36.2619885,
    "lon": 1.9548235,
    "timestamp": "2025-01-29T19:27:11Z",
    "version": 4,
    "changeset": 161910962,
    "user": "Lotfi Amari",
    "uid": 2776616,
    "tags": {
      "addr:country": "DZ",
      "amenity": "restaurant",
      "name": "Pâtisserie Benasser",
      "name:fr": "Pâtisserie Benasser"
    }
  },
  {
    "type": "node",
    "id": 4573970589,
    "lat": 36.5930839,
    "lon": 2.4502193,
    "timestamp": "2019-09-25T20:55:14Z",
    "version": 4,
    "changeset": 74928057,
    "user": "mattclld",
    "uid": 6106305,
    "tags": {
      "addr:country": "DZ",
      "amenity": "restaurant",
      "name": "Restaurant Le Dauphin",
      "name:fr": "Restaurant Dauphin"
    }
  },
  {
    "type": "node",
    "id": 4577967289,
    "lat": 36.2657805,
    "lon": 1.970947,
    "timestamp": "2020-12-30T19:19:38Z",
    "version": 6,
    "changeset": 96687154,
    "user": "Vejoson",
    "uid": 11422772,
    "tags": {
      "addr:country": "DZ",
      "amenity": "restaurant",
      "name": "مطعم الرحمة",
      "name:ar": "مطعم الرحمة",
      "name:fr": "Rahma",
      "opening_hours": "Sa-Th 10:00-22:00"
    }
  },
  {
    "type": "node",
    "id": 4581256291,
    "lat": 36.6402241,
    "lon": 2.6933016,
    "timestamp": "2020-12-30T19:19:38Z",
    "version": 4,
    "changeset": 96687154,
    "user": "Vejoson",
    "uid": 11422772,
    "tags": {
      "addr:country": "DZ",
      "amenity": "restaurant",
      "name": "Resto",
      "name:fr": "Resto"
    }
  },
  {
    "type": "node",
    "id": 4588225589,
    "lat": 36.2659637,
    "lon": 1.971756,
    "timestamp": "2023-07-06T21:07:10Z",
    "version": 5,
    "changeset": 138205071,
    "user": "Lotfi Amari",
    "uid": 2776616,
    "tags": {
      "addr:country": "DZ",
      "amenity": "restaurant",
      "name": "Restaurant El Nouare",
      "name:fr": "Restaurant El Nouare"
    }
  },
  {
    "type": "node",
    "id": 4610649990,
    "lat": 36.2653658,
    "lon": 2.1608743,
    "timestamp": "2018-06-13T17:54:39Z",
    "version": 2,
    "changeset": 59818370,
    "user": "ButterflyOfFire_",
    "uid": 2842609,
    "tags": {
      "addr:country": "DZ",
      "amenity": "restaurant",
      "name": "Lamdani",
      "name:ar": "Lamdani"
    }
  },
  {
    "type": "node",
    "id": 4692780489,
    "lat": 36.5961935,
    "lon": 2.1642156,
    "timestamp": "2018-06-13T17:54:42Z",
    "version": 5,
    "changeset": 59818370,
    "user": "ButterflyOfFire_",
    "uid": 2842609,
    "tags": {
      "addr:country": "DZ",
      "amenity": "restaurant",
      "name": "La Pointe Rouge",
      "name:fr": "La Pointe Rouge"
    }
  },
  {
    "type": "node",
    "id": 4709394794,
    "lat": 36.642082,
    "lon": 2.6889976,
    "timestamp": "2018-06-13T17:54:43Z",
    "version": 2,
    "changeset": 59818370,
    "user": "ButterflyOfFire_",
    "uid": 2842609,
    "tags": {
      "addr:country": "DZ",
      "amenity": "restaurant",
      "name": "مطعم مشوي",
      "name:ar": "مطعم مشوي",
      "name:en": "Restaurant grill",
      "name:fr": "Restaurant grillade"
    }
  },
  {
    "type": "node",
    "id": 4882248821,
    "lat": 36.3035689,
    "lon": 2.2251869,
    "timestamp": "2020-12-30T19:19:38Z",
    "version": 4,
    "changeset": 96687154,
    "user": "Vejoson",
    "uid": 11422772,
    "tags": {
      "addr:country": "DZ",
      "amenity": "restaurant",
      "name": "Resto",
      "name:fr": "Resto"
    }
  },
  {
    "type": "node",
    "id": 5013455225,
    "lat": 36.205634,
    "lon": 1.9131463,
    "timestamp": "2020-11-15T23:45:40Z",
    "version": 3,
    "changeset": 94169285,
    "user": "MustafaQasim",
    "uid": 9535554,
    "tags": {
      "addr:country": "DZ",
      "addr:street": "House Commander",
      "amenity": "restaurant",
      "name": "السنوسية",
      "name:ar": "السنوسية",
      "name:en": "Sanoucia",
      "name:fr": "Sanoucia",
      "opening_hours": "Mo-Su 07:00-23:00",
      "phone": "0550469704"
    }
  },
  {
    "type": "node",
    "id": 5303846523,
    "lat": 36.5644066,
    "lon": 2.0031142,
    "timestamp": "2020-12-30T19:19:38Z",
    "version": 3,
    "changeset": 96687154,
    "user": "Vejoson",
    "uid": 11422772,
    "tags": {
      "addr:country": "DZ",
      "amenity": "restaurant",
      "name": "Resto",
      "name:fr": "Resto"
    }
  },
  {
    "type": "node",
    "id": 5303846524,
    "lat": 36.5634807,
    "lon": 2.0049689,
    "timestamp": "2020-12-30T19:19:38Z",
    "version": 3,
    "changeset": 96687154,
    "user": "Vejoson",
    "uid": 11422772,
    "tags": {
      "addr:country": "DZ",
      "amenity": "restaurant",
      "name": "Resto",
      "name:fr": "Resto"
    }
  },
  {
    "type": "node",
    "id": 5303867324,
    "lat": 36.5644398,
    "lon": 2.0029071,
    "timestamp": "2020-12-30T19:19:38Z",
    "version": 3,
    "changeset": 96687154,
    "user": "Vejoson",
    "uid": 11422772,
    "tags": {
      "addr:country": "DZ",
      "amenity": "restaurant",
      "name": "Resto",
      "name:fr": "Resto"
    }
  },
  {
    "type": "node",
    "id": 5395763161,
    "lat": 36.2652452,
    "lon": 2.1622266,
    "timestamp": "2020-12-30T19:19:38Z",
    "version": 6,
    "changeset": 96687154,
    "user": "Vejoson",
    "uid": 11422772,
    "tags": {
      "addr:country": "DZ",
      "amenity": "restaurant",
      "cuisine": "regional",
      "name": "Resto",
      "name:fr": "Resto"
    }
  },
  {
    "type": "node",
    "id": 5535768765,
    "lat": 36.2615812,
    "lon": 2.2263473,
    "timestamp": "2018-06-13T17:55:17Z",
    "version": 2,
    "changeset": 59818370,
    "user": "ButterflyOfFire_",
    "uid": 2842609,
    "tags": {
      "addr:country": "DZ",
      "amenity": "restaurant",
      "cuisine": "regional",
      "name": "Black and white restaurant"
    }
  },
  {
    "type": "node",
    "id": 5598759321,
    "lat": 36.6398581,
    "lon": 2.6917629,
    "timestamp": "2020-12-30T19:19:38Z",
    "version": 4,
    "changeset": 96687154,
    "user": "Vejoson",
    "uid": 11422772,
    "tags": {
      "addr:country": "DZ",
      "amenity": "restaurant",
      "name": "مطعم 111",
      "name:ar": "مطعم 111",
      "name:fr": "Resto"
    }
  },
  {
    "type": "node",
    "id": 5951340185,
    "lat": 36.5909058,
    "lon": 2.4468493,
    "timestamp": "2020-11-15T23:45:40Z",
    "version": 2,
    "changeset": 94169285,
    "user": "MustafaQasim",
    "uid": 9535554,
    "tags": {
      "amenity": "restaurant",
      "name": "عند كادر",
      "name:ar": "عند كادر",
      "name:fr": "Chez Kader"
    }
  },
  {
    "type": "node",
    "id": 5980421704,
    "lat": 36.2525654,
    "lon": 1.9446299,
    "timestamp": "2020-12-30T19:19:38Z",
    "version": 5,
    "changeset": 96687154,
    "user": "Vejoson",
    "uid": 11422772,
    "tags": {
      "addr:city": "ain defla",
      "addr:housenumber": "4",
      "addr:postcode": "44000",
      "addr:street": "mohamed khayet",
      "amenity": "restaurant",
      "capacity": "50",
      "cuisine": "steak_house;regional;coffee_shop;sandwich;kebab;asian;chicken;seafood;fish_and_chips;ice_cream;international;pizza",
      "level": "3",
      "name": "الشاف التونسي",
      "name:ar": "الشاف التونسي",
      "name:fr": "Chef tunisien",
      "smoking": "outside",
      "takeaway": "yes"
    }
  },
  {
    "type": "node",
    "id": 6166676353,
    "lat": 36.4265418,
    "lon": 2.568407,
    "timestamp": "2020-12-30T19:19:38Z",
    "version": 2,
    "changeset": 96687154,
    "user": "Vejoson",
    "uid": 11422772,
    "tags": {
      "amenity": "restaurant",
      "name": "Resto",
      "name:fr": "Resto"
    }
  },
  {
    "type": "node",
    "id": 6166676365,
    "lat": 36.1799016,
    "lon": 2.229972,
    "timestamp": "2020-12-30T19:19:38Z",
    "version": 2,
    "changeset": 96687154,
    "user": "Vejoson",
    "uid": 11422772,
    "tags": {
      "amenity": "restaurant",
      "name": "Resto",
      "name:fr": "Resto"
    }
  },
  {
    "type": "node",
    "id": 6166676374,
    "lat": 36.1778832,
    "lon": 2.2289137,
    "timestamp": "2020-12-30T19:19:38Z",
    "version": 2,
    "changeset": 96687154,
    "user": "Vejoson",
    "uid": 11422772,
    "tags": {
      "amenity": "restaurant",
      "name": "Resto",
      "name:fr": "Resto"
    }
  },
  {
    "type": "node",
    "id": 6412815085,
    "lat": 36.4635516,
    "lon": 2.6894407,
    "timestamp": "2020-12-30T19:19:38Z",
    "version": 3,
    "changeset": 96687154,
    "user": "Vejoson",
    "uid": 11422772,
    "tags": {
      "amenity": "restaurant",
      "name": "مطعم",
      "name:ar": "مطعم",
      "name:en": "Restaurant",
      "name:fr": "Resto"
    }
  },
  {
    "type": "node",
    "id": 7142166085,
    "lat": 36.5901118,
    "lon": 2.4871755,
    "timestamp": "2020-12-30T19:19:38Z",
    "version": 3,
    "changeset": 96687154,
    "user": "Vejoson",
    "uid": 11422772,
    "tags": {
      "amenity": "restaurant",
      "internet_access": "wlan",
      "name": "مطعم",
      "name:ar": "مطعم",
      "name:en": "Restaurant",
      "name:fr": "Resto",
      "opening_hours": "Mo-Su 09:00-18:00"
    }
  },
  {
    "type": "node",
    "id": 7257833087,
    "lat": 36.5534068,
    "lon": 1.7890522,
    "timestamp": "2020-12-30T19:19:38Z",
    "version": 2,
    "changeset": 96687154,
    "user": "Vejoson",
    "uid": 11422772,
    "tags": {
      "amenity": "restaurant",
      "name": "Resto",
      "name:fr": "Resto"
    }
  },
  {
    "type": "node",
    "id": 9949929599,
    "lat": 36.2656078,
    "lon": 2.1834927,
    "timestamp": "2022-08-12T18:58:18Z",
    "version": 1,
    "changeset": 124830575,
    "user": "numide",
    "uid": 1772800,
    "tags": {
      "amenity": "restaurant",
      "name": "Restaurant djidjli مطعم الجيجلي"
    }
  },
  {
    "type": "node",
    "id": 10991138529,
    "lat": 36.2646423,
    "lon": 1.9665318,
    "timestamp": "2023-06-20T02:49:44Z",
    "version": 1,
    "changeset": 137540381,
    "user": "Lotfi Amari",
    "uid": 2776616,
    "tags": {
      "amenity": "restaurant",
      "cuisine": "regional;steak_house;sandwich;chicken;dessert;juice;fish",
      "diet:halal": "yes"
    }
  },
  {
    "type": "node",
    "id": 11074571504,
    "lat": 36.5548957,
    "lon": 1.7688421,
    "timestamp": "2023-07-29T07:07:54Z",
    "version": 1,
    "changeset": 139161219,
    "user": "Superadlen",
    "uid": 1922193,
    "tags": {
      "amenity": "restaurant",
      "name": "Restaurant ikhlifaine - مطعم إخليفاين"
    }
  },
  {
    "type": "node",
    "id": 11118202974,
    "lat": 36.600887,
    "lon": 2.6038941,
    "timestamp": "2023-08-16T05:24:19Z",
    "version": 1,
    "changeset": 139944305,
    "user": "Superadlen",
    "uid": 1922193,
    "tags": {
      "amenity": "restaurant"
    }
  },
  {
    "type": "node",
    "id": 11118207484,
    "lat": 36.6164336,
    "lon": 2.6426217,
    "timestamp": "2023-08-16T05:24:11Z",
    "version": 1,
    "changeset": 139944305,
    "user": "Superadlen",
    "uid": 1922193,
    "tags": {
      "amenity": "restaurant"
    }
  },
  {
    "type": "node",
    "id": 11118213877,
    "lat": 36.5985072,
    "lon": 2.5925433,
    "timestamp": "2023-08-16T05:24:23Z",
    "version": 1,
    "changeset": 139944305,
    "user": "Superadlen",
    "uid": 1922193,
    "tags": {
      "amenity": "restaurant"
    }
  },
  {
    "type": "node",
    "id": 11118227657,
    "lat": 36.6021616,
    "lon": 2.6080674,
    "timestamp": "2023-08-16T05:24:18Z",
    "version": 1,
    "changeset": 139944305,
    "user": "Superadlen",
    "uid": 1922193,
    "tags": {
      "amenity": "restaurant"
    }
  },
  {
    "type": "node",
    "id": 11118245376,
    "lat": 36.6041297,
    "lon": 2.6128584,
    "timestamp": "2023-08-16T05:24:16Z",
    "version": 1,
    "changeset": 139944305,
    "user": "Superadlen",
    "uid": 1922193,
    "tags": {
      "amenity": "restaurant"
    }
  },
  {
    "type": "node",
    "id": 11118245377,
    "lat": 36.5995533,
    "lon": 2.5952805,
    "timestamp": "2023-08-16T05:24:21Z",
    "version": 1,
    "changeset": 139944305,
    "user": "Superadlen",
    "uid": 1922193,
    "tags": {
      "amenity": "restaurant"
    }
  },
  {
    "type": "node",
    "id": 11271905121,
    "lat": 36.2249944,
    "lon": 2.6314858,
    "timestamp": "2023-10-18T15:00:14Z",
    "version": 1,
    "changeset": 142768058,
    "user": "ibnduck",
    "uid": 20159037,
    "tags": {
      "amenity": "restaurant"
    }
  },
  {
    "type": "node",
    "id": 11822877419,
    "lat": 36.3043718,
    "lon": 2.2248431,
    "timestamp": "2024-04-16T19:55:34Z",
    "version": 1,
    "changeset": 150101221,
    "user": "radis noir",
    "uid": 189720,
    "tags": {
      "amenity": "restaurant",
      "name": "Mc Jimmy"
    }
  },
  {
    "type": "node",
    "id": 11881289280,
    "lat": 36.6479932,
    "lon": 2.6894493,
    "timestamp": "2024-05-05T13:47:45Z",
    "version": 1,
    "changeset": 150921032,
    "user": "numide",
    "uid": 1772800,
    "tags": {
      "addr:country": "DZ",
      "amenity": "restaurant",
      "name": "Resto",
      "name:fr": "Resto",
      "source": "FB: Algerie Mapper Team : (Superadlen)"
    }
  },
  {
    "type": "node",
    "id": 12152399449,
    "lat": 36.3054627,
    "lon": 2.2241473,
    "timestamp": "2024-09-02T20:51:29Z",
    "version": 1,
    "changeset": 156116467,
    "user": "numide",
    "uid": 1772800,
    "tags": {
      "addr:country": "DZ",
      "amenity": "restaurant",
      "name:fr": "Chez Benhmida"
    }
  },
  {
    "type": "node",
    "id": 12542485841,
    "lat": 36.2617184,
    "lon": 1.9610893,
    "timestamp": "2025-01-29T19:27:11Z",
    "version": 1,
    "changeset": 161910962,
    "user": "Lotfi Amari",
    "uid": 2776616,
    "tags": {
      "amenity": "restaurant",
      "cuisine": "pizza;burger;sandwich;crepe;regional",
      "name": "Savannah Ain Defla"
    }
  },
  {
    "type": "node",
    "id": 12657188370,
    "lat": 36.2574534,
    "lon": 1.9592686,
    "timestamp": "2025-03-12T19:58:34Z",
    "version": 1,
    "changeset": 163543270,
    "user": "Lotfi Amari",
    "uid": 2776616,
    "tags": {
      "addr:city": "Aïn Defla",
      "addr:postcode": "44000",
      "addr:street": "Rue du 20 Aout 1955",
      "amenity": "restaurant",
      "cuisine": "pizza;regional;arab;sandwich;tacos",
      "name": "HISTORIA"
    }
  },
  {
    "type": "node",
    "id": 12657188371,
    "lat": 36.2576936,
    "lon": 1.9593117,
    "timestamp": "2025-03-12T19:58:34Z",
    "version": 1,
    "changeset": 163543270,
    "user": "Lotfi Amari",
    "uid": 2776616,
    "tags": {
      "addr:city": "Aïn Defla",
      "addr:postcode": "44000",
      "addr:street": "Rue du 20 Aout 1955",
      "amenity": "restaurant",
      "cuisine": "pizza;regional;arab;sandwich;tacos",
      "name": "O'Seven"
    }
  },
  {
    "type": "way",
    "id": 267276967,
    "timestamp": "2017-08-12T20:26:10Z",
    "version": 3,
    "changeset": 51067247,
    "user": "numide",
    "uid": 1772800,
    "center": {
      "lat": 36.5809528,
      "lon": 2.0994371
    },
    "nodes": [
      2727452897,
      2727452898,
      2727452899,
      2727452900,
      2727452897
    ],
    "tags": {
      "amenity": "restaurant",
      "building": "yes"
    }
  },
  {
    "type": "way",
    "id": 273801123,
    "timestamp": "2017-01-09T06:52:26Z",
    "version": 2,
    "changeset": 45018863,
    "user": "Eva Blue",
    "uid": 4803528,
    "center": {
      "lat": 36.5907654,
      "lon": 2.4822061
    },
    "nodes": [
      2786122038,
      2786122049,
      2786122040,
      2786122041,
      2786122043,
      2786122038
    ],
    "tags": {
      "amenity": "restaurant"
    }
  },
  {
    "type": "way",
    "id": 332482436,
    "timestamp": "2022-12-23T14:14:35Z",
    "version": 3,
    "changeset": 130423279,
    "user": "lsono",
    "uid": 18039464,
    "center": {
      "lat": 36.5930071,
      "lon": 2.44966
    },
    "nodes": [
      3396224070,
      3396224071,
      3396224072,
      10059044793,
      3396224070
    ],
    "tags": {
      "amenity": "restaurant",
      "building": "yes",
      "cuisine": "fish",
      "name": "Casa Mia Poissonerie",
      "outdoor_seating": "yes"
    }
  },
  {
    "type": "way",
    "id": 333906138,
    "timestamp": "2015-10-10T18:09:17Z",
    "version": 3,
    "changeset": 34555045,
    "user": "abdeldjalil",
    "uid": 2117145,
    "center": {
      "lat": 36.4496183,
      "lon": 2.6304299
    },
    "nodes": [
      3409562462,
      3664508379,
      3409562463,
      3409562464,
      3664508378,
      3664508377,
      3664508376,
      3409562465,
      3409562466,
      3409562467,
      3409562468,
      3409562469,
      3409562470,
      3409562471,
      3409562472,
      3409562473,
      3409562462
    ],
    "tags": {
      "amenity": "restaurant",
      "building": "yes"
    }
  },
  {
    "type": "way",
    "id": 333907011,
    "timestamp": "2015-10-10T18:09:17Z",
    "version": 3,
    "changeset": 34555045,
    "user": "abdeldjalil",
    "uid": 2117145,
    "center": {
      "lat": 36.4502924,
      "lon": 2.6314685
    },
    "nodes": [
      3409578341,
      3409578342,
      3409578343,
      3409578344,
      3409578345,
      3409578346,
      3409578347,
      3409578348,
      3409578349,
      3409578350,
      3409578351,
      3409578352,
      3409578353,
      3409578354,
      3409578355,
      3409578356,
      3409578341
    ],
    "tags": {
      "amenity": "restaurant",
      "building": "yes"
    }
  },
  {
    "type": "way",
    "id": 1171701731,
    "timestamp": "2023-05-11T16:31:08Z",
    "version": 1,
    "changeset": 135985335,
    "user": "Superadlen",
    "uid": 1922193,
    "center": {
      "lat": 36.6421735,
      "lon": 2.6913701
    },
    "nodes": [
      4588726489,
      10887280067,
      10887279965,
      10887278226,
      10887278640,
      10887281431,
      4588726489
    ],
    "tags": {
      "addr:country": "DZ",
      "amenity": "restaurant",
      "building": "yes",
      "name": "Plats traditionnels",
      "name:fr": "Plats traditionnels",
      "source": "FB: Algerie Mapper Team : (Superadlen)"
    }
  },
  {
    "type": "way",
    "id": 1172219410,
    "timestamp": "2023-05-12T19:28:21Z",
    "version": 1,
    "changeset": 136032230,
    "user": "Superadlen",
    "uid": 1922193,
    "center": {
      "lat": 36.5912865,
      "lon": 2.4554205
    },
    "nodes": [
      10891666802,
      10891668699,
      3792667651,
      10891663786,
      10891666802
    ],
    "tags": {
      "addr:country": "DZ",
      "amenity": "restaurant",
      "building": "yes",
      "name": "Dolphino",
      "name:fr": "Dolphino",
      "source": "FB: Algerie Mapper Team : (Superadlen)"
    }
  },
  {
    "type": "way",
    "id": 1172977238,
    "timestamp": "2023-05-15T08:01:59Z",
    "version": 1,
    "changeset": 136113432,
    "user": "Superadlen",
    "uid": 1922193,
    "center": {
      "lat": 36.4667751,
      "lon": 2.6879005
    },
    "nodes": [
      10898757447,
      4329475891,
      10898762547,
      10898766756,
      10898765915,
      10898766812,
      10898766584,
      10898761419,
      10898760237,
      10898758776,
      10898757447
    ],
    "tags": {
      "addr:country": "DZ",
      "amenity": "restaurant",
      "building": "yes",
      "name": "Restaurant Meziane",
      "name:ar": "مطعم مزيان",
      "source": "FB: Algerie Mapper Team : (Superadlen)"
    }
  },
  {
    "type": "way",
    "id": 1178472790,
    "timestamp": "2023-06-02T22:25:26Z",
    "version": 1,
    "changeset": 136885764,
    "user": "Superadlen",
    "uid": 1922193,
    "center": {
      "lat": 36.6248462,
      "lon": 2.6550163
    },
    "nodes": [
      10947805927,
      2994075154,
      10947805933,
      10947811038,
      10947805927
    ],
    "tags": {
      "addr:country": "DZ",
      "amenity": "restaurant",
      "building": "yes",
      "cuisine": "chinese",
      "name": "Chinois",
      "source": "FB: Algerie Mapper Team"
    }
  },
  {
    "type": "way",
    "id": 1202402862,
    "timestamp": "2023-08-26T21:47:02Z",
    "version": 1,
    "changeset": 140430247,
    "user": "حسام عبد الناصر",
    "uid": 19359683,
    "center": {
      "lat": 36.5122669,
      "lon": 2.4114349
    },
    "nodes": [
      5439845321,
      11147113471,
      11147120737,
      11147118707,
      5439845321
    ],
    "tags": {
      "addr:country": "DZ",
      "amenity": "restaurant",
      "building": "yes",
      "name": "عنابي",
      "name:ar": "عنابي",
      "name:en": "Annabi",
      "name:fr": "Annabi",
      "source": "microsoft/BuildingFootprints"
    }
  }
]