[
  {
    "type": "node",
    "id": 361576879,
    "lat": 39.8830548,
    "lon": -6.2759689,
    "timestamp": "2019-07-17T16:19:44Z",
    "version": 4,
    "changeset": 72356339,
    "user": "Juan_Carlos_G_F-imports",
    "uid": 2802925,
    "tags": {
      "addr:city": "Malpartida de Plasencia",
      "addr:country": "ES",
      "addr:housenumber": "km 494",
      "addr:postcode": "10680",
      "addr:street": "Autovía A-66",
      "amenity": "restaurant",
      "cuisine": "regional",
      "name": "Venta El Caldero"
    }
  },
  {
    "type": "node",
    "id": 366945534,
    "lat": 39.1724844,
    "lon": -5.8969266,
    "timestamp": "2016-04-16T04:03:04Z",
    "version": 2,
    "changeset": 38610960,
    "user": "5R-MFT",
    "uid": 3417876,
    "tags": {
      "amenity": "restaurant"
    }
  },
  {
    "type": "node",
    "id": 370183301,
    "lat": 39.7680571,
    "lon": -6.0109806,
    "timestamp": "2023-10-28T18:59:31Z",
    "version": 9,
    "changeset": 143278445,
    "user": "b-jazz-bot",
    "uid": 9451067,
    "tags": {
      "addr:city": "Torrejón el Rubio",
      "addr:country": "ES",
      "addr:housenumber": "54",
      "addr:postcode": "10694",
      "addr:street": "Paseo Pizarro",
      "amenity": "restaurant",
      "cuisine": "regional",
      "name": "Hotel Carvajal",
      "phone": "+34 927 455 260",
      "tourism": "hotel",
      "website": "https://www.monfrague.net/"
    }
  },
  {
    "type": "node",
    "id": 387756969,
    "lat": 39.8472582,
    "lon": -6.0296732,
    "timestamp": "2025-04-11T12:27:19Z",
    "version": 10,
    "changeset": 164813700,
    "user": "Etzharai",
    "uid": 3771138,
    "tags": {
      "air_conditioning": "yes",
      "amenity": "restaurant",
      "cuisine": "regional",
      "diet:vegan": "no",
      "diet:vegetarian": "yes",
      "indoor_seating": "yes",
      "name": "Casa Paqui",
      "outdoor_seating": "yes",
      "smoking": "outside"
    }
  },
  {
    "type": "node",
    "id": 389636510,
    "lat": 39.8603232,
    "lon": -5.9399443,
    "timestamp": "2019-07-17T16:19:44Z",
    "version": 2,
    "changeset": 72356339,
    "user": "Juan_Carlos_G_F-imports",
    "uid": 2802925,
    "tags": {
      "addr:city": "Toril",
      "addr:country": "ES",
      "addr:housenumber": "km 9",
      "addr:postcode": "10591",
      "addr:street": "Ctra. La Bazagona-Saltos de Torrejón",
      "amenity": "restaurant",
      "cuisine": "regional",
      "name": "Restaurante Puerta de Monfragüe",
      "phone": "+34 927 198 110"
    }
  },
  {
    "type": "node",
    "id": 412285774,
    "lat": 39.6882864,
    "lon": -5.720678,
    "timestamp": "2024-07-06T13:55:50Z",
    "version": 3,
    "changeset": 153624905,
    "user": "Arturo Francisco Barbero",
    "uid": 12605644,
    "tags": {
      "addr:city": "Jaraicejo",
      "addr:country": "ES",
      "addr:housenumber": "km 219",
      "addr:postcode": "10380",
      "addr:street": "Autovía A-5",
      "amenity": "restaurant",
      "check_date": "2024-07-06",
      "cuisine": "regional",
      "name": "La Ventilla del Camionero"
    }
  },
  {
    "type": "node",
    "id": 412290241,
    "lat": 39.7914741,
    "lon": -5.6965067,
    "timestamp": "2019-07-17T16:19:44Z",
    "version": 2,
    "changeset": 72356339,
    "user": "Juan_Carlos_G_F-imports",
    "uid": 2802925,
    "tags": {
      "addr:city": "Almaraz",
      "addr:country": "ES",
      "addr:housenumber": "km 200",
      "addr:postcode": "10350",
      "addr:street": "Autovía A-5",
      "amenity": "restaurant",
      "cuisine": "regional",
      "name": "Restaurante Portugal"
    }
  },
  {
    "type": "node",
    "id": 416385853,
    "lat": 39.7843342,
    "lon": -5.4779754,
    "timestamp": "2009-06-06T11:34:41Z",
    "version": 1,
    "changeset": 1436759,
    "user": "antecessor",
    "uid": 87939,
    "tags": {
      "amenity": "restaurant",
      "name": "Los Ibores"
    }
  },
  {
    "type": "node",
    "id": 459998183,
    "lat": 39.6244725,
    "lon": -5.4143327,
    "timestamp": "2011-04-21T21:20:24Z",
    "version": 2,
    "changeset": 7929464,
    "user": "cdavila",
    "uid": 26599,
    "tags": {
      "amenity": "restaurant",
      "name": "Solaire",
      "tourism": "hotel"
    }
  },
  {
    "type": "node",
    "id": 671959760,
    "lat": 39.8958719,
    "lon": -5.3327736,
    "timestamp": "2025-02-11T22:57:07Z",
    "version": 2,
    "changeset": 162409957,
    "user": "gpesquero",
    "uid": 3584,
    "tags": {
      "amenity": "restaurant",
      "email": "karentoredessociales@gmail.com",
      "name": "Karento",
      "phone": "+34 925 43 52 62",
      "source": "survey",
      "website": "https://www.lacalzadadeoropesa.es/seccion/estacion-de-servicio-karento.html"
    }
  },
  {
    "type": "node",
    "id": 727589896,
    "lat": 39.9463706,
    "lon": -6.0865034,
    "timestamp": "2019-07-17T16:19:44Z",
    "version": 2,
    "changeset": 72356339,
    "user": "Juan_Carlos_G_F-imports",
    "uid": 2802925,
    "tags": {
      "addr:city": "Malpartida de Plasencia",
      "addr:country": "ES",
      "addr:street": "Ctra. EX-208",
      "amenity": "restaurant",
      "cuisine": "regional",
      "name": "Restaurante Monfragüe"
    }
  },
  {
    "type": "node",
    "id": 828606438,
    "lat": 39.4536567,
    "lon": -5.8839991,
    "timestamp": "2011-06-03T18:47:42Z",
    "version": 2,
    "changeset": 8332356,
    "user": "cdavila",
    "uid": 26599,
    "tags": {
      "amenity": "restaurant",
      "name": "Restaurante Bizcocho",
      "source": "survey"
    }
  },
  {
    "type": "node",
    "id": 829480884,
    "lat": 39.6617792,
    "lon": -5.8151113,
    "timestamp": "2013-07-21T10:51:56Z",
    "version": 2,
    "changeset": 17034255,
    "user": "cdavila",
    "uid": 26599,
    "tags": {
      "addr:city": "Jaraicejo",
      "addr:country": "ES",
      "addr:postcode": "10380",
      "amenity": "restaurant",
      "cuisine": "regional",
      "name": "Bar Restaurante Mont Blanc"
    }
  },
  {
    "type": "node",
    "id": 870070690,
    "lat": 39.9782209,
    "lon": -6.0345493,
    "timestamp": "2010-08-20T10:36:56Z",
    "version": 1,
    "changeset": 5542775,
    "user": "cdavila",
    "uid": 26599,
    "tags": {
      "amenity": "restaurant",
      "cuisine": "regional"
    }
  },
  {
    "type": "node",
    "id": 993572076,
    "lat": 39.2910401,
    "lon": -5.6949359,
    "timestamp": "2014-09-30T11:35:15Z",
    "version": 3,
    "changeset": 25765016,
    "user": "yiemes",
    "uid": 2308772,
    "tags": {
      "amenity": "restaurant",
      "name": "Restaurante El Parador"
    }
  },
  {
    "type": "node",
    "id": 1005286653,
    "lat": 39.2307871,
    "lon": -6.1627573,
    "timestamp": "2011-05-13T09:16:11Z",
    "version": 4,
    "changeset": 8129674,
    "user": "cdavila",
    "uid": 26599,
    "tags": {
      "amenity": "restaurant",
      "name": "Parador de Padrino"
    }
  },
  {
    "type": "node",
    "id": 1333662924,
    "lat": 39.4607848,
    "lon": -5.88201,
    "timestamp": "2019-05-01T23:23:54Z",
    "version": 4,
    "changeset": 69784598,
    "user": "sanchi",
    "uid": 170106,
    "tags": {
      "amenity": "restaurant",
      "cuisine": "regional",
      "name": "Mesón La Cadena",
      "phone": "+34 927321463"
    }
  },
  {
    "type": "node",
    "id": 1333674538,
    "lat": 39.4608252,
    "lon": -5.8818464,
    "timestamp": "2015-12-08T19:38:22Z",
    "version": 3,
    "changeset": 35832817,
    "user": "Luiyo",
    "uid": 316694,
    "tags": {
      "addr:housenumber": "10",
      "addr:street": "Plaza Mayor",
      "amenity": "restaurant",
      "cuisine": "regional",
      "name": "La Troya",
      "phone": "+34 927 32 13 64",
      "source:addr": "survey"
    }
  },
  {
    "type": "node",
    "id": 1516924611,
    "lat": 39.4577406,
    "lon": -5.8723831,
    "timestamp": "2011-11-30T19:54:08Z",
    "version": 2,
    "changeset": 10002465,
    "user": "cdavila",
    "uid": 26599,
    "tags": {
      "addr:city": "Trujillo",
      "addr:country": "ES",
      "addr:postcode": "10200",
      "addr:street": "Avda. Virgen de Guadalupe",
      "amenity": "restaurant",
      "name": "Ruedo"
    }
  },
  {
    "type": "node",
    "id": 1517076284,
    "lat": 39.1039783,
    "lon": -5.4663111,
    "timestamp": "2018-08-11T18:07:35Z",
    "version": 3,
    "changeset": 61571428,
    "user": "Begavil84",
    "uid": 1725439,
    "tags": {
      "addr:city": "Navalvillar de Pela",
      "addr:country": "ES",
      "amenity": "restaurant",
      "name": "Las Dehesas",
      "tourism": "hotel"
    }
  },
  {
    "type": "node",
    "id": 1530864846,
    "lat": 39.383909,
    "lon": -6.2476183,
    "timestamp": "2011-12-04T10:04:20Z",
    "version": 1,
    "changeset": 10031262,
    "user": "leandroteleco",
    "uid": 564096,
    "tags": {
      "amenity": "restaurant",
      "cuisine": "spanish",
      "name": "Parador de Los Llanos"
    }
  },
  {
    "type": "node",
    "id": 1596417298,
    "lat": 39.181714,
    "lon": -6.2362827,
    "timestamp": "2015-07-26T17:07:19Z",
    "version": 2,
    "changeset": 32893160,
    "user": "Luiyo",
    "uid": 316694,
    "tags": {
      "amenity": "restaurant",
      "name": "Alta Cuesta"
    }
  },
  {
    "type": "node",
    "id": 1596417309,
    "lat": 39.1796473,
    "lon": -6.2324096,
    "timestamp": "2025-03-05T16:16:24Z",
    "version": 3,
    "changeset": 163251087,
    "user": "Currillo",
    "uid": 2344044,
    "tags": {
      "addr:city": "Alcuéscar",
      "addr:postcode": "10160",
      "addr:street": "Calle Eduardo Hernández Pacheco",
      "amenity": "restaurant",
      "cuisine": "regional",
      "name": "Marqués arroces y brasas"
    }
  },
  {
    "type": "node",
    "id": 2149730578,
    "lat": 39.4520013,
    "lon": -5.3271427,
    "timestamp": "2016-03-13T08:47:04Z",
    "version": 4,
    "changeset": 37795849,
    "user": "Creando",
    "uid": 132740,
    "tags": {
      "amenity": "restaurant"
    }
  },
  {
    "type": "node",
    "id": 2184659799,
    "lat": 39.7145078,
    "lon": -6.281743,
    "timestamp": "2013-10-19T08:58:33Z",
    "version": 2,
    "changeset": 18430696,
    "user": "cdavila",
    "uid": 26599,
    "tags": {
      "addr:city": "Talaván",
      "addr:country": "ES",
      "addr:housenumber": "1",
      "addr:postcode": "10193",
      "addr:street": "Calle Sol",
      "amenity": "restaurant",
      "cuisine": "regional",
      "name": "Mesón El Loro",
      "source": "survey"
    }
  },
  {
    "type": "node",
    "id": 2199519061,
    "lat": 39.144858,
    "lon": -5.9134863,
    "timestamp": "2013-03-13T12:44:00Z",
    "version": 1,
    "changeset": 15351309,
    "user": "wodan",
    "uid": 27949,
    "tags": {
      "amenity": "restaurant",
      "cuisine": "spanish",
      "name": "Restaurante El Sitio"
    }
  },
  {
    "type": "node",
    "id": 2222929712,
    "lat": 39.4601889,
    "lon": -5.8813265,
    "timestamp": "2015-12-08T18:41:22Z",
    "version": 2,
    "changeset": 35831795,
    "user": "Luiyo",
    "uid": 316694,
    "tags": {
      "amenity": "restaurant",
      "cuisine": "regional",
      "name": "Nuria"
    }
  },
  {
    "type": "node",
    "id": 2222929715,
    "lat": 39.460179,
    "lon": -5.8811851,
    "timestamp": "2015-12-08T18:44:09Z",
    "version": 3,
    "changeset": 35831866,
    "user": "Luiyo",
    "uid": 316694,
    "tags": {
      "amenity": "restaurant",
      "name": "Hermanos Marcelo"
    }
  },
  {
    "type": "node",
    "id": 2290061153,
    "lat": 39.3328433,
    "lon": -5.4773871,
    "timestamp": "2014-09-04T08:11:09Z",
    "version": 2,
    "changeset": 25220954,
    "user": "yiemes",
    "uid": 2308772,
    "tags": {
      "amenity": "restaurant",
      "cuisine": "spanish",
      "name": "El Cortijo del Jamón"
    }
  },
  {
    "type": "node",
    "id": 2290107250,
    "lat": 39.4519287,
    "lon": -5.327114,
    "timestamp": "2013-05-03T08:33:57Z",
    "version": 1,
    "changeset": 15957170,
    "user": "elhoir",
    "uid": 1167223,
    "tags": {
      "amenity": "restaurant"
    }
  },
  {
    "type": "node",
    "id": 2293065817,
    "lat": 39.4607584,
    "lon": -5.8833569,
    "timestamp": "2015-12-08T18:17:14Z",
    "version": 3,
    "changeset": 35831369,
    "user": "Luiyo",
    "uid": 316694,
    "tags": {
      "amenity": "restaurant",
      "name": "El Mirador de las Monjas",
      "source": "survey",
      "stars": "2",
      "tourism": "hotel"
    }
  },
  {
    "type": "node",
    "id": 2293065819,
    "lat": 39.4605785,
    "lon": -5.8808697,
    "timestamp": "2013-05-05T21:52:17Z",
    "version": 1,
    "changeset": 15990725,
    "user": "gpesquero",
    "uid": 3584,
    "tags": {
      "amenity": "restaurant",
      "name": "La Victoria",
      "source": "survey"
    }
  },
  {
    "type": "node",
    "id": 2320811144,
    "lat": 39.1459159,
    "lon": -5.9014038,
    "timestamp": "2013-05-26T15:19:43Z",
    "version": 1,
    "changeset": 16295156,
    "user": "cdavila",
    "uid": 26599,
    "tags": {
      "amenity": "restaurant"
    }
  },
  {
    "type": "node",
    "id": 2406784524,
    "lat": 39.2612215,
    "lon": -6.1064323,
    "timestamp": "2014-01-27T22:59:54Z",
    "version": 3,
    "changeset": 20238803,
    "user": "SK53",
    "uid": 84681,
    "tags": {
      "amenity": "restaurant",
      "cuisine": "portuguese",
      "name": "Restaurante Tropical",
      "source": "survey"
    }
  },
  {
    "type": "node",
    "id": 2406985495,
    "lat": 39.2606606,
    "lon": -6.1058812,
    "timestamp": "2014-01-27T22:59:54Z",
    "version": 2,
    "changeset": 20238803,
    "user": "SK53",
    "uid": 84681,
    "tags": {
      "amenity": "restaurant",
      "name": "El Encinar",
      "source": "survey"
    }
  },
  {
    "type": "node",
    "id": 2406986332,
    "lat": 39.2608143,
    "lon": -6.1060771,
    "timestamp": "2014-01-27T22:59:54Z",
    "version": 2,
    "changeset": 20238803,
    "user": "SK53",
    "uid": 84681,
    "tags": {
      "amenity": "restaurant",
      "cuisine": "regional",
      "name": "La Estrella",
      "source": "survey",
      "tourism": "motel"
    }
  },
  {
    "type": "node",
    "id": 2501385422,
    "lat": 39.5667005,
    "lon": -5.8952543,
    "timestamp": "2017-01-23T09:59:47Z",
    "version": 2,
    "changeset": 45394831,
    "user": "cdavila",
    "uid": 26599,
    "tags": {
      "amenity": "restaurant",
      "name": "El Chozo"
    }
  },
  {
    "type": "node",
    "id": 2634539958,
    "lat": 39.4598488,
    "lon": -5.8819093,
    "timestamp": "2025-01-24T21:16:11Z",
    "version": 3,
    "changeset": 161728551,
    "user": "5R-MFT",
    "uid": 3417876,
    "tags": {
      "addr:city": "Trujillo",
      "addr:housenumber": "4",
      "addr:postcode": "10200",
      "addr:street": "Calle d'Arquillo",
      "amenity": "restaurant",
      "name": "Hostal Hueso",
      "phone": "+34 927 322 820",
      "source": "survey",
      "stars": "2",
      "tourism": "hotel",
      "website": "http://hostalhueso.com/"
    }
  },
  {
    "type": "node",
    "id": 2634568980,
    "lat": 39.4603375,
    "lon": -5.883945,
    "timestamp": "2014-01-27T20:59:18Z",
    "version": 3,
    "changeset": 20234645,
    "user": "SK53",
    "uid": 84681,
    "tags": {
      "amenity": "restaurant",
      "cuisine": "asado",
      "name": "Alberca",
      "source": "survey"
    }
  },
  {
    "type": "node",
    "id": 2640094008,
    "lat": 39.4604547,
    "lon": -5.8809166,
    "timestamp": "2015-12-08T18:41:45Z",
    "version": 2,
    "changeset": 35831811,
    "user": "Luiyo",
    "uid": 316694,
    "tags": {
      "amenity": "restaurant",
      "name": "Polete",
      "source": "survey"
    }
  },
  {
    "type": "node",
    "id": 3008232061,
    "lat": 39.8351899,
    "lon": -5.3799655,
    "timestamp": "2025-02-02T22:00:35Z",
    "version": 3,
    "changeset": 162064598,
    "user": "5R-MFT",
    "uid": 3417876,
    "tags": {
      "addr:city": "El Gordo",
      "addr:postcode": "10392",
      "amenity": "restaurant",
      "outdoor_seating": "yes"
    }
  },
  {
    "type": "node",
    "id": 3178887425,
    "lat": 39.1515937,
    "lon": -5.9068182,
    "timestamp": "2017-12-12T10:45:36Z",
    "version": 2,
    "changeset": 54562842,
    "user": "JesusSr",
    "uid": 7216411,
    "tags": {
      "amenity": "restaurant",
      "name": "Casablanca"
    }
  },
  {
    "type": "node",
    "id": 3455972287,
    "lat": 39.4567183,
    "lon": -5.8816637,
    "timestamp": "2019-03-19T10:18:36Z",
    "version": 5,
    "changeset": 68288280,
    "user": "b-jazz-bot",
    "uid": 9451067,
    "tags": {
      "addr:city": "Trujillo",
      "addr:housenumber": "1",
      "addr:postcode": "10200",
      "addr:street": "Avenida de Miajadas",
      "amenity": "restaurant",
      "cuisine": "regional",
      "name": "Los Arcos",
      "phone": "+34 927320338",
      "smoking": "outside",
      "takeaway": "yes",
      "website": "https://trujillo.portaldetuciudad.com/restaurantes-donde-comer/restaurante-los-arcos/002_39627.html"
    }
  },
  {
    "type": "node",
    "id": 3652989219,
    "lat": 39.4415994,
    "lon": -6.2729338,
    "timestamp": "2015-07-15T16:09:21Z",
    "version": 1,
    "changeset": 32655639,
    "user": "cdavila",
    "uid": 26599,
    "tags": {
      "amenity": "restaurant",
      "cuisine": "regional",
      "name": "La Tapita"
    }
  },
  {
    "type": "node",
    "id": 3700859547,
    "lat": 39.4410819,
    "lon": -6.2741436,
    "timestamp": "2015-08-17T11:04:09Z",
    "version": 1,
    "changeset": 33387710,
    "user": "cdavila",
    "uid": 26599,
    "tags": {
      "amenity": "restaurant",
      "name": "Ambigú"
    }
  },
  {
    "type": "node",
    "id": 3700859550,
    "lat": 39.4417376,
    "lon": -6.2746064,
    "timestamp": "2015-08-17T11:04:09Z",
    "version": 1,
    "changeset": 33387710,
    "user": "cdavila",
    "uid": 26599,
    "tags": {
      "amenity": "restaurant",
      "name": "La Pista"
    }
  },
  {
    "type": "node",
    "id": 3883741539,
    "lat": 39.4610154,
    "lon": -5.882436,
    "timestamp": "2015-12-08T18:26:46Z",
    "version": 1,
    "changeset": 35831529,
    "user": "Luiyo",
    "uid": 316694,
    "tags": {
      "amenity": "restaurant",
      "name": "La Sonata"
    }
  },
  {
    "type": "node",
    "id": 3883758283,
    "lat": 39.4606842,
    "lon": -5.8808626,
    "timestamp": "2017-11-13T18:39:15Z",
    "version": 3,
    "changeset": 53748700,
    "user": "ansuta",
    "uid": 3188422,
    "tags": {
      "addr:housenumber": "22",
      "addr:place": "Plaza Mayor",
      "addr:postcode": "10200",
      "addr:street": "Plaza Mayor",
      "amenity": "restaurant",
      "name": "Plaza Mayor"
    }
  },
  {
    "type": "node",
    "id": 3883766225,
    "lat": 39.4604937,
    "lon": -5.8808932,
    "timestamp": "2015-12-08T18:41:45Z",
    "version": 1,
    "changeset": 35831811,
    "user": "Luiyo",
    "uid": 316694,
    "tags": {
      "amenity": "restaurant",
      "name": "Medievo"
    }
  },
  {
    "type": "node",
    "id": 4192001152,
    "lat": 39.4519917,
    "lon": -5.3275962,
    "timestamp": "2023-06-14T20:51:21Z",
    "version": 2,
    "changeset": 137345006,
    "user": "gpesquero",
    "uid": 3584,
    "tags": {
      "amenity": "restaurant",
      "name": "Meson Extremeño"
    }
  },
  {
    "type": "node",
    "id": 4192027688,
    "lat": 39.4517561,
    "lon": -5.3277354,
    "timestamp": "2023-06-16T18:10:53Z",
    "version": 3,
    "changeset": 137424065,
    "user": "gpesquero",
    "uid": 3584,
    "tags": {
      "addr:city": "Guadalupe",
      "addr:housenumber": "33",
      "addr:postcode": "10140",
      "addr:street": "Plaza Santa María de Guadalupe",
      "amenity": "restaurant",
      "name": "Mesón Cerezo",
      "phone": "+34 927 154177"
    }
  },
  {
    "type": "node",
    "id": 4192028189,
    "lat": 39.4515722,
    "lon": -5.3277172,
    "timestamp": "2023-06-16T18:10:53Z",
    "version": 2,
    "changeset": 137424065,
    "user": "gpesquero",
    "uid": 3584,
    "tags": {
      "amenity": "restaurant",
      "name": "Mesón Altamira"
    }
  },
  {
    "type": "node",
    "id": 4192028192,
    "lat": 39.4515292,
    "lon": -5.327749,
    "timestamp": "2023-06-16T18:10:53Z",
    "version": 2,
    "changeset": 137424065,
    "user": "gpesquero",
    "uid": 3584,
    "tags": {
      "amenity": "restaurant",
      "name": "Guadalupe"
    }
  },
  {
    "type": "node",
    "id": 4192127754,
    "lat": 39.4513265,
    "lon": -5.3270151,
    "timestamp": "2023-06-16T19:17:58Z",
    "version": 2,
    "changeset": 137426131,
    "user": "gpesquero",
    "uid": 3584,
    "tags": {
      "amenity": "restaurant",
      "name": "Asador El Abuelo"
    }
  },
  {
    "type": "node",
    "id": 4193413528,
    "lat": 39.4516981,
    "lon": -5.3276111,
    "timestamp": "2016-05-18T11:48:20Z",
    "version": 1,
    "changeset": 39398746,
    "user": "Creando",
    "uid": 132740,
    "tags": {
      "amenity": "restaurant",
      "name": "El Mesón de Juan José"
    }
  },
  {
    "type": "node",
    "id": 4193808966,
    "lat": 39.4532062,
    "lon": -5.3285251,
    "timestamp": "2025-01-31T14:03:35Z",
    "version": 3,
    "changeset": 161978426,
    "user": "xbbr",
    "uid": 12362932,
    "tags": {
      "amenity": "restaurant",
      "cuisine": "spanish",
      "email": "info@lasanimasdeltiempo.com",
      "name": "Las Ánimas del Tiempo",
      "phone": "+34 643 21 40 04",
      "website": "https://www.lasanimasdeltiempo.com/"
    }
  },
  {
    "type": "node",
    "id": 4195075917,
    "lat": 39.3812066,
    "lon": -5.3888385,
    "timestamp": "2016-05-19T10:59:56Z",
    "version": 1,
    "changeset": 39421127,
    "user": "Creando",
    "uid": 132740,
    "tags": {
      "amenity": "restaurant",
      "name": "Ximenez"
    }
  },
  {
    "type": "node",
    "id": 4195256648,
    "lat": 39.4371943,
    "lon": -5.4609661,
    "timestamp": "2020-09-06T18:55:44Z",
    "version": 3,
    "changeset": 90490429,
    "user": "GonVid",
    "uid": 11511992,
    "tags": {
      "amenity": "restaurant",
      "name": "El Brezo Rojo"
    }
  },
  {
    "type": "node",
    "id": 4196923881,
    "lat": 39.0029463,
    "lon": -5.5446865,
    "timestamp": "2016-05-20T10:53:23Z",
    "version": 1,
    "changeset": 39447724,
    "user": "Creando",
    "uid": 132740,
    "tags": {
      "amenity": "restaurant",
      "name": "Altamirano"
    }
  },
  {
    "type": "node",
    "id": 5325769521,
    "lat": 39.7722491,
    "lon": -6.011859,
    "timestamp": "2018-01-07T17:17:59Z",
    "version": 1,
    "changeset": 55241145,
    "user": "Hoogie",
    "uid": 5469110,
    "tags": {
      "amenity": "restaurant"
    }
  },
  {
    "type": "node",
    "id": 5469847018,
    "lat": 39.8914182,
    "lon": -5.5433192,
    "timestamp": "2018-03-10T20:45:36Z",
    "version": 1,
    "changeset": 57067511,
    "user": "tadaa3x",
    "uid": 398789,
    "tags": {
      "amenity": "restaurant",
      "cuisine": "spanish",
      "name": "La Giralda"
    }
  },
  {
    "type": "node",
    "id": 5801320653,
    "lat": 39.4112487,
    "lon": -5.8908089,
    "timestamp": "2025-04-24T12:20:48Z",
    "version": 3,
    "changeset": 165376562,
    "user": "Viajeronimo",
    "uid": 20457508,
    "tags": {
      "addr:postcode": "10200",
      "air_conditioning": "yes",
      "amenity": "restaurant",
      "check_date": "2025-04-24",
      "cuisine": "regional;spanish",
      "internet_access": "wlan",
      "name": "Restaurante La Majada",
      "outdoor_seating": "yes",
      "payment:cash": "yes",
      "payment:mastercard": "yes",
      "payment:visa": "yes",
      "phone": "+34 927 32 11 88",
      "source": "survey",
      "toilets": "yes",
      "website": "https://www.lamajadarestaurante.es"
    }
  },
  {
    "type": "node",
    "id": 6146168853,
    "lat": 39.4249188,
    "lon": -5.7583219,
    "timestamp": "2018-12-18T20:07:28Z",
    "version": 1,
    "changeset": 65592300,
    "user": "Mar97",
    "uid": 9100776,
    "tags": {
      "amenity": "restaurant",
      "name": "Cafetería Restaurante San Andrés"
    }
  },
  {
    "type": "node",
    "id": 6414175226,
    "lat": 39.8946825,
    "lon": -5.3042087,
    "timestamp": "2025-02-11T22:57:07Z",
    "version": 3,
    "changeset": 162409957,
    "user": "gpesquero",
    "uid": 3584,
    "tags": {
      "amenity": "restaurant",
      "changing_table": "yes",
      "changing_table:location": "female_toilet",
      "cuisine": "regional",
      "name": "Puerta de Extremadura"
    }
  },
  {
    "type": "node",
    "id": 6681319325,
    "lat": 39.1093928,
    "lon": -5.7878336,
    "timestamp": "2019-08-04T12:16:52Z",
    "version": 1,
    "changeset": 72988526,
    "user": "ottokar55",
    "uid": 101355,
    "tags": {
      "amenity": "restaurant"
    }
  },
  {
    "type": "node",
    "id": 7079888509,
    "lat": 39.8160856,
    "lon": -5.599243,
    "timestamp": "2019-12-23T13:50:03Z",
    "version": 1,
    "changeset": 78776563,
    "user": "jlcc78",
    "uid": 7078793,
    "tags": {
      "amenity": "restaurant",
      "name": "Bar Restaurante Piscina Belvis de Monroy-Las casas"
    }
  },
  {
    "type": "node",
    "id": 7715674185,
    "lat": 39.902033,
    "lon": -5.6852637,
    "timestamp": "2025-04-11T10:27:08Z",
    "version": 3,
    "changeset": 164808891,
    "user": "Etzharai",
    "uid": 3771138,
    "tags": {
      "amenity": "restaurant",
      "indoor_seating": "yes",
      "name": "El Nogal de Casatejada",
      "outdoor_seating": "yes"
    }
  },
  {
    "type": "node",
    "id": 7857159285,
    "lat": 39.1797472,
    "lon": -6.2293358,
    "timestamp": "2023-03-25T20:58:03Z",
    "version": 2,
    "changeset": 134118273,
    "user": "Parie",
    "uid": 246941,
    "tags": {
      "amenity": "restaurant",
      "cuisine": "spanish",
      "name": "El Bodegón"
    }
  },
  {
    "type": "node",
    "id": 8526100941,
    "lat": 39.7273176,
    "lon": -5.7435769,
    "timestamp": "2021-03-16T20:52:58Z",
    "version": 1,
    "changeset": 101144170,
    "user": "@jareyme",
    "uid": 12687707,
    "tags": {
      "amenity": "restaurant",
      "cuisine": "regional",
      "name": "Bar El Vasco"
    }
  },
  {
    "type": "node",
    "id": 9214015461,
    "lat": 39.8909591,
    "lon": -5.5236708,
    "timestamp": "2021-10-31T11:40:41Z",
    "version": 1,
    "changeset": 113189071,
    "user": "gpesquero",
    "uid": 3584,
    "tags": {
      "addr:city": "Navalmoral de la Mata",
      "addr:housenumber": "KM 179",
      "addr:postcode": "10300",
      "addr:street": "Carretera N-V",
      "amenity": "restaurant",
      "cuisine": "regional",
      "delivery": "no",
      "email": "informacion@hostallabamba.com",
      "fax": "+34 927 530 854",
      "name": "La Bamba",
      "phone": "+34 927 530 850",
      "smoking": "outside",
      "takeaway": "no",
      "website": "https://hostallabamba.com/restaurante"
    }
  },
  {
    "type": "node",
    "id": 9859323824,
    "lat": 39.8939699,
    "lon": -5.533238,
    "timestamp": "2022-06-30T23:43:40Z",
    "version": 1,
    "changeset": 123064317,
    "user": "MarinoBM",
    "uid": 11454828,
    "tags": {
      "amenity": "restaurant",
      "name": "El Fogón"
    }
  },
  {
    "type": "node",
    "id": 9859323825,
    "lat": 39.8924483,
    "lon": -5.5514521,
    "timestamp": "2022-06-30T23:43:40Z",
    "version": 1,
    "changeset": 123064317,
    "user": "MarinoBM",
    "uid": 11454828,
    "tags": {
      "amenity": "restaurant",
      "name": "El Asador de Iván"
    }
  },
  {
    "type": "node",
    "id": 9859323846,
    "lat": 39.8923436,
    "lon": -5.5461304,
    "timestamp": "2022-06-30T23:43:40Z",
    "version": 1,
    "changeset": 123064317,
    "user": "MarinoBM",
    "uid": 11454828,
    "tags": {
      "amenity": "restaurant",
      "name": "Casa do Bacalhau",
      "phone": "+34 927532532"
    }
  },
  {
    "type": "node",
    "id": 9859323847,
    "lat": 39.8906659,
    "lon": -5.5389059,
    "timestamp": "2022-06-30T23:43:40Z",
    "version": 1,
    "changeset": 123064317,
    "user": "MarinoBM",
    "uid": 11454828,
    "tags": {
      "amenity": "restaurant",
      "name": "Mesón Extremadura",
      "phone": "+34 927 53 00 22"
    }
  },
  {
    "type": "node",
    "id": 10069442135,
    "lat": 39.8474499,
    "lon": -6.0307387,
    "timestamp": "2022-10-02T21:08:19Z",
    "version": 1,
    "changeset": 126909828,
    "user": "taeke63",
    "uid": 567682,
    "tags": {
      "amenity": "restaurant",
      "cuisine": "regional",
      "name": "Bar - Chiringuito \" Al Mofrag\"",
      "outdoor_seating": "yes"
    }
  },
  {
    "type": "node",
    "id": 10278940939,
    "lat": 39.667104,
    "lon": -5.8138625,
    "timestamp": "2022-12-21T21:36:17Z",
    "version": 1,
    "changeset": 130349384,
    "user": "sanchi",
    "uid": 170106,
    "tags": {
      "amenity": "restaurant",
      "name": "Restaurante Montefragoso",
      "phone": "+34 927 336 141"
    }
  },
  {
    "type": "node",
    "id": 10762098657,
    "lat": 39.2250455,
    "lon": -6.1525385,
    "timestamp": "2023-03-25T21:18:56Z",
    "version": 1,
    "changeset": 134118703,
    "user": "Parie",
    "uid": 246941,
    "tags": {
      "amenity": "restaurant",
      "cuisine": "spanish",
      "name": "Meson Asador El Escudo",
      "outdoor_seating": "yes"
    }
  },
  {
    "type": "node",
    "id": 10766759298,
    "lat": 39.2244687,
    "lon": -6.1526398,
    "timestamp": "2024-03-23T18:45:30Z",
    "version": 3,
    "changeset": 149063517,
    "user": "Parie",
    "uid": 246941,
    "tags": {
      "amenity": "restaurant",
      "cuisine": "pizza; Menu",
      "name": "El Rincon Flamenco"
    }
  },
  {
    "type": "node",
    "id": 10766958188,
    "lat": 39.9883737,
    "lon": -5.6080278,
    "timestamp": "2024-01-28T16:55:58Z",
    "version": 3,
    "changeset": 146787026,
    "user": "kapazao_import",
    "uid": 8770019,
    "tags": {
      "addr:housenumber": "27",
      "addr:street": "Avenida de Santa María de las Lomas",
      "amenity": "restaurant",
      "name": "Restaurante Palomas",
      "opening_hours": "Tu-Fr 09:30-01:30; Sa, Su 10:00-01:30",
      "phone": "+34 699 99 45 00",
      "website": "https://restaurante-palomas.negocio.site/"
    }
  },
  {
    "type": "node",
    "id": 10779482877,
    "lat": 39.411294,
    "lon": -5.886283,
    "timestamp": "2023-04-02T11:23:27Z",
    "version": 1,
    "changeset": 134409706,
    "user": "Almorca",
    "uid": 71626,
    "tags": {
      "amenity": "restaurant"
    }
  },
  {
    "type": "node",
    "id": 10782687693,
    "lat": 39.4583488,
    "lon": -5.8759958,
    "timestamp": "2023-04-03T21:46:58Z",
    "version": 1,
    "changeset": 134471880,
    "user": "Almorca",
    "uid": 71626,
    "tags": {
      "amenity": "restaurant",
      "name": "Restaurante Julio"
    }
  },
  {
    "type": "node",
    "id": 10782771038,
    "lat": 39.458657,
    "lon": -5.8775057,
    "timestamp": "2023-04-03T21:47:03Z",
    "version": 1,
    "changeset": 134471880,
    "user": "Almorca",
    "uid": 71626,
    "tags": {
      "amenity": "restaurant",
      "name": "Restaurante El refectorio"
    }
  },
  {
    "type": "node",
    "id": 11345982173,
    "lat": 39.4519196,
    "lon": -5.3282206,
    "timestamp": "2023-11-14T16:38:55Z",
    "version": 2,
    "changeset": 144017923,
    "user": "b-jazz-bot",
    "uid": 9451067,
    "tags": {
      "addr:city": "Guadalupe",
      "addr:housenumber": "4",
      "addr:postcode": "10140",
      "addr:street": "Calle de la Cruz",
      "amenity": "restaurant",
      "cuisine": "regional",
      "email": "info@restaurantealtamira-guadalupe.com",
      "name": "Altamira",
      "phone": "+34 606948555",
      "source": "local knowledge",
      "website": "https://www.altamira.me/"
    }
  },
  {
    "type": "node",
    "id": 11756423332,
    "lat": 39.2250699,
    "lon": -6.1514697,
    "timestamp": "2024-03-23T18:45:30Z",
    "version": 1,
    "changeset": 149063517,
    "user": "Parie",
    "uid": 246941,
    "tags": {
      "amenity": "restaurant",
      "outdoor_seating": "yes"
    }
  },
  {
    "type": "node",
    "id": 11756423337,
    "lat": 39.2249573,
    "lon": -6.1522268,
    "timestamp": "2024-03-23T18:45:30Z",
    "version": 1,
    "changeset": 149063517,
    "user": "Parie",
    "uid": 246941,
    "tags": {
      "amenity": "restaurant",
      "cuisine": "spanish",
      "name": "Gastrobar Monte Calabria",
      "operator": "Bar en restaurant",
      "outdoor_seating": "yes"
    }
  },
  {
    "type": "node",
    "id": 12170073542,
    "lat": 39.4606332,
    "lon": -5.8808823,
    "timestamp": "2024-09-11T14:20:39Z",
    "version": 1,
    "changeset": 156487187,
    "user": "geospot_mike",
    "uid": 232498,
    "tags": {
      "addr:city": "Trujillo",
      "addr:housenumber": "22",
      "addr:postcode": "10200",
      "addr:street": "Plaza Mayor",
      "amenity": "restaurant",
      "name": "Cerveceria Origen",
      "phone": "+34 678 02 86 53",
      "ref:vatin": "SP 76027515A"
    }
  },
  {
    "type": "node",
    "id": 12293538886,
    "lat": 39.8891595,
    "lon": -5.5384555,
    "timestamp": "2024-10-28T10:09:33Z",
    "version": 1,
    "changeset": 158448240,
    "user": "Astrino",
    "uid": 22115745,
    "tags": {
      "amenity": "restaurant",
      "cuisine": "pizza",
      "name": "La Vera Pizza"
    }
  },
  {
    "type": "node",
    "id": 12650011217,
    "lat": 39.4527671,
    "lon": -5.3303549,
    "timestamp": "2025-03-10T14:15:57Z",
    "version": 1,
    "changeset": 163444701,
    "user": "xbbr",
    "uid": 12362932,
    "tags": {
      "amenity": "restaurant",
      "cuisine": "spanish",
      "name": "El Zaguán"
    }
  },
  {
    "type": "way",
    "id": 38151545,
    "timestamp": "2009-07-27T16:02:56Z",
    "version": 1,
    "changeset": 1956291,
    "user": "cdavila",
    "uid": 26599,
    "center": {
      "lat": 39.9444769,
      "lon": -6.0850107
    },
    "nodes": [
      449081551,
      449081552,
      449081553,
      449081554,
      449081551
    ],
    "tags": {
      "amenity": "restaurant",
      "building": "yes",
      "cuisine": "regional",
      "name": "Camping Monfragüe"
    }
  },
  {
    "type": "way",
    "id": 138357851,
    "timestamp": "2011-11-25T21:00:08Z",
    "version": 1,
    "changeset": 9948611,
    "user": "cdavila",
    "uid": 26599,
    "center": {
      "lat": 39.1121278,
      "lon": -5.496029
    },
    "nodes": [
      1516949640,
      1516949615,
      1516949613,
      1516949638,
      1516949640
    ],
    "tags": {
      "amenity": "restaurant",
      "building": "yes",
      "name": "Hostal El Olivo",
      "tourism": "motel"
    }
  },
  {
    "type": "way",
    "id": 297889414,
    "timestamp": "2014-08-15T12:19:35Z",
    "version": 1,
    "changeset": 24766004,
    "user": "guiked",
    "uid": 817734,
    "center": {
      "lat": 39.9741156,
      "lon": -6.2429941
    },
    "nodes": [
      3017888330,
      3017888331,
      3017888332,
      3017895333,
      3017895334,
      3017895335,
      3017895336,
      3017895337,
      3017888330
    ],
    "tags": {
      "addr:city": "San Gil",
      "addr:housenumber": "65",
      "addr:postcode": "10690",
      "addr:street": "EX-108",
      "amenity": "restaurant",
      "building": "yes",
      "cuisine": "regional",
      "name": "Las Pizarras"
    }
  },
  {
    "type": "way",
    "id": 451783088,
    "timestamp": "2022-06-30T23:43:40Z",
    "version": 2,
    "changeset": 123064317,
    "user": "MarinoBM",
    "uid": 11454828,
    "center": {
      "lat": 39.8972504,
      "lon": -5.5392541
    },
    "nodes": [
      4485990925,
      4485990931,
      4485990935,
      4485990932,
      4485990936,
      4485990933,
      4485990934,
      4485990928,
      4485990925
    ],
    "tags": {
      "amenity": "restaurant",
      "building": "yes",
      "name": "Mesón El Burladero"
    }
  },
  {
    "type": "way",
    "id": 476941319,
    "timestamp": "2024-08-22T22:42:19Z",
    "version": 2,
    "changeset": 155628625,
    "user": "Nazanial76",
    "uid": 21264156,
    "center": {
      "lat": 39.5656364,
      "lon": -5.8328768
    },
    "nodes": [
      4703628379,
      4703628373,
      4703628378,
      4703628377,
      4703628380,
      4703628376,
      4703628372,
      4703628368,
      4703628374,
      12128703215,
      12128703216,
      4703628371,
      4703628375,
      4703628381,
      4703628369,
      4703628370,
      4703628379
    ],
    "tags": {
      "amenity": "restaurant",
      "building": "yes",
      "name": "El Cruce"
    }
  },
  {
    "type": "way",
    "id": 570769566,
    "timestamp": "2022-10-06T20:40:28Z",
    "version": 2,
    "changeset": 127118580,
    "user": "Juanro49",
    "uid": 7147887,
    "center": {
      "lat": 39.4647315,
      "lon": -6.2959848
    },
    "nodes": [
      5487209764,
      5487209762,
      5487209770,
      5487209768,
      5487209765,
      5487209767,
      5487209771,
      5487209766,
      5487209763,
      5487209769,
      5487209764
    ],
    "tags": {
      "amenity": "restaurant",
      "building": "yes",
      "cuisine": "regional",
      "name": "Casa Luciano",
      "source": "survey"
    }
  },
  {
    "type": "way",
    "id": 637861484,
    "timestamp": "2018-10-25T12:48:10Z",
    "version": 1,
    "changeset": 63866284,
    "user": "dvidrie",
    "uid": 8076,
    "center": {
      "lat": 39.8517642,
      "lon": -5.6300174
    },
    "nodes": [
      6012678784,
      6012684429,
      6012684385,
      6012678765,
      6012684426,
      6012678784
    ],
    "tags": {
      "amenity": "restaurant",
      "building": "yes"
    }
  },
  {
    "type": "way",
    "id": 678798728,
    "timestamp": "2024-06-05T18:47:36Z",
    "version": 5,
    "changeset": 152301220,
    "user": "Nazanial76",
    "uid": 21264156,
    "center": {
      "lat": 39.8832315,
      "lon": -6.2760228
    },
    "nodes": [
      6355722314,
      6355722318,
      6355722319,
      6355722320,
      11958985512,
      11958985513,
      6355722321,
      6355722322,
      6355722323,
      6355722324,
      6355722325,
      6355722326,
      6355722327,
      6355722328,
      6355722329,
      6355722330,
      6355722315,
      6355722314
    ],
    "tags": {
      "amenity": "restaurant",
      "building": "yes",
      "indoor_seating": "yes",
      "name": "Venta el Caldero",
      "outdoor_seating": "yes",
      "smoking": "outside",
      "wheelchair": "yes"
    }
  },
  {
    "type": "way",
    "id": 690889847,
    "timestamp": "2021-07-25T15:25:38Z",
    "version": 2,
    "changeset": 108569738,
    "user": "ansuta",
    "uid": 3188422,
    "center": {
      "lat": 39.525378,
      "lon": -5.8326828
    },
    "nodes": [
      6482352456,
      6482352457,
      6482352458,
      6482352459,
      6482352460,
      6482352461,
      6482352462,
      6482352463,
      6482352464,
      6482352465,
      6482352466,
      6482352467,
      6482352456
    ],
    "tags": {
      "amenity": "restaurant",
      "building": "yes",
      "name": "La Brasería de la Viña",
      "opening_hours": "Fr,Sa 08:00-24:00; PH,Su-Th 08:00-23:00"
    }
  },
  {
    "type": "way",
    "id": 710675387,
    "timestamp": "2022-06-30T23:43:40Z",
    "version": 2,
    "changeset": 123064317,
    "user": "MarinoBM",
    "uid": 11454828,
    "center": {
      "lat": 39.892326,
      "lon": -5.5289108
    },
    "nodes": [
      6681514069,
      6681514068,
      6681514067,
      6681514066,
      6681514065,
      6681514064,
      6681514063,
      6681514062,
      6681514069
    ],
    "tags": {
      "amenity": "restaurant",
      "building": "yes",
      "name": "La Terrazita",
      "phone": "+34 927537309",
      "source:geometry": "Imagen de Catastro de España",
      "website": "https://www.laterrazitarestaurante.es/"
    }
  },
  {
    "type": "way",
    "id": 785130323,
    "timestamp": "2020-03-27T16:27:03Z",
    "version": 1,
    "changeset": 82724181,
    "user": "Toni Serra",
    "uid": 3859465,
    "center": {
      "lat": 39.6200257,
      "lon": -5.4447421
    },
    "nodes": [
      7335398967,
      7335398966,
      7335398965,
      7335398964,
      7335398967
    ],
    "tags": {
      "amenity": "restaurant",
      "building": "yes",
      "cuisine": "spanish",
      "name": "el Chiringuito"
    }
  },
  {
    "type": "way",
    "id": 997905649,
    "timestamp": "2022-06-30T23:43:40Z",
    "version": 3,
    "changeset": 123064317,
    "user": "MarinoBM",
    "uid": 11454828,
    "center": {
      "lat": 39.8905976,
      "lon": -5.5231034
    },
    "nodes": [
      9214015423,
      9214015422,
      9214015421,
      9214015420,
      9214015419,
      9214015418,
      9214015417,
      9214015416,
      9214015415,
      9214015414,
      9214015413,
      9214015412,
      9214015411,
      9214015410,
      9214015409,
      9214015408,
      9214015407,
      9214015406,
      9214015405,
      9214015404,
      9214015403,
      9214015402,
      9214015401,
      9214015400,
      9214015399,
      9214015398,
      9214015397,
      9214015396,
      9214015395,
      9214015394,
      9214015393,
      9214015392,
      9214015391,
      9214015390,
      9214015389,
      9214015388,
      9214015387,
      9214015386,
      9214015385,
      9214015384,
      9214015383,
      9214015382,
      9214015381,
      9214015380,
      9214015379,
      9214015378,
      9214015377,
      9214015376,
      9214015375,
      9214015374,
      9214015373,
      9214015372,
      9214015371,
      9214015370,
      9214015369,
      9214015368,
      9214015367,
      9214015366,
      9214015365,
      9214015364,
      9214015363,
      9214015362,
      9214015423
    ],
    "tags": {
      "amenity": "restaurant",
      "building": "yes",
      "name": "Baram",
      "source:geometry": "Imagen de Catastro de España"
    }
  },
  {
    "type": "way",
    "id": 1117940623,
    "timestamp": "2024-02-03T19:47:41Z",
    "version": 2,
    "changeset": 147032139,
    "user": "kapazao_import",
    "uid": 8770019,
    "center": {
      "lat": 39.0771019,
      "lon": -5.5759148
    },
    "nodes": [
      10224686783,
      10224686784,
      10224686785,
      10224686786,
      10224686798,
      10224686787,
      10224686789,
      10224686788,
      10224686783
    ],
    "tags": {
      "addr:city": "Acedera",
      "addr:housenumber": "131",
      "addr:street": "Carretera Nacional 430",
      "amenity": "restaurant",
      "building": "yes",
      "cuisine": "regional",
      "name": "El Acueducto",
      "phone": "+34 924825018",
      "website": "https://www.acueductoacedera.com/"
    }
  },
  {
    "type": "way",
    "id": 1136370765,
    "timestamp": "2023-01-30T05:40:09Z",
    "version": 1,
    "changeset": 131863897,
    "user": "Achiper",
    "uid": 10226939,
    "center": {
      "lat": 39.1082244,
      "lon": -5.4753616
    },
    "nodes": [
      10593394826,
      10593394827,
      10593394828,
      10593394829,
      10593394830,
      10593394831,
      10593394832,
      10593394833,
      10593394826
    ],
    "tags": {
      "amenity": "restaurant",
      "building": "yes"
    }
  },
  {
    "type": "way",
    "id": 1175462680,
    "timestamp": "2024-12-31T16:13:17Z",
    "version": 6,
    "changeset": 160839807,
    "user": "Hugoren Martinako",
    "uid": 3392826,
    "center": {
      "lat": 39.509777,
      "lon": -5.4394046
    },
    "nodes": [
      10922932277,
      10922932276,
      10922932275,
      10922932274,
      10922932273,
      10922932272,
      10922932271,
      10922932270,
      10922932269,
      10922932268,
      10922932267,
      10922932266,
      10922932265,
      10922932264,
      10922932408,
      10922932409,
      10922932410,
      10922932263,
      10922932277
    ],
    "tags": {
      "amenity": "restaurant",
      "building": "retail",
      "name": "Hostal JB",
      "ref:ES:catastro": "0363643TJ9706S"
    }
  },
  {
    "type": "way",
    "id": 1193323063,
    "timestamp": "2024-05-02T10:47:04Z",
    "version": 2,
    "changeset": 150787699,
    "user": "Juanro49",
    "uid": 7147887,
    "center": {
      "lat": 39.3547333,
      "lon": -6.1982495
    },
    "nodes": [
      11076892308,
      11076892305,
      11076892306,
      11076892307,
      11076892308
    ],
    "tags": {
      "addr:city": "Torremocha",
      "addr:street": "Carretera de Cáceres a Villanueva de la Serena",
      "addr:unit": "Km 20,5",
      "amenity": "restaurant",
      "bar": "yes",
      "building": "yes",
      "email": "circuito@cacereskart.com",
      "mobile": "675 566 464",
      "name": "Tapería Cáceres Kart",
      "opening_hours": "Fr-Su 10:00-23:30",
      "outdoor_seating": "yes",
      "phone": "927 707 765",
      "sport": "karting",
      "toilets": "yes",
      "website": "https://www.cacereskart.com/reservas-taperia/"
    }
  },
  {
    "type": "way",
    "id": 1239216785,
    "timestamp": "2024-02-03T19:47:41Z",
    "version": 2,
    "changeset": 147032139,
    "user": "kapazao_import",
    "uid": 8770019,
    "center": {
      "lat": 39.2159395,
      "lon": -5.786608
    },
    "nodes": [
      11512128453,
      11512128454,
      11512128455,
      11512128456,
      11512128453
    ],
    "tags": {
      "addr:city": "Campo Lugar",
      "addr:postcode": "10134",
      "addr:street": "CARRETERA EX-102 KM. 12200",
      "amenity": "restaurant",
      "building": "yes",
      "name": "Restaurante After",
      "phone": "+34 611849019"
    }
  },
  {
    "type": "way",
    "id": 1264726728,
    "timestamp": "2024-09-02T17:38:31Z",
    "version": 2,
    "changeset": 156110099,
    "user": "Nazanial76",
    "uid": 21264156,
    "center": {
      "lat": 39.1410726,
      "lon": -5.9314882
    },
    "nodes": [
      11749810467,
      11749810468,
      11749816269,
      11749816270,
      11749816271,
      11749816272,
      11749816273,
      11749816274,
      11749816275,
      11749816276,
      11749810467
    ],
    "tags": {
      "addr:city": "Miajadas",
      "addr:postcode": "10100",
      "amenity": "restaurant",
      "building": "yes",
      "cuisine": "regional;spanish",
      "name": "Restaurante La Desa"
    }
  },
  {
    "type": "way",
    "id": 1365991047,
    "timestamp": "2025-03-10T15:35:58Z",
    "version": 2,
    "changeset": 163448194,
    "user": "xbbr",
    "uid": 12362932,
    "center": {
      "lat": 39.4523435,
      "lon": -5.3298917
    },
    "nodes": [
      12650011224,
      12650011225,
      12650011226,
      12650011233,
      12650011227,
      12650011231,
      12650011232,
      12650011228,
      12650011229,
      12650011230,
      12650011224
    ],
    "tags": {
      "amenity": "restaurant",
      "building": "yes",
      "cuisine": "spanish",
      "name": "Mesón de Paredes"
    }
  }
]